{"type":"FeatureCollection","crs":{"type":"name","properties":{"name":"urn:ogc:def:crs:OGC:1.3:CRS84"}},"features":[{"type":"Feature","properties":{"shapeName":"Ali Sabieh","shapeISO":"DJ-AS","shapeID":"25444519B7681288134121"},"geometry":{"type":"Polygon","coordinates":[[[43.18881,11.40776],[43.05849,11.47858],[42.91245,11.44974],[42.8645,11.36339],[42.62585,11.2197],[42.60815,11.08909],[42.72962,11.06501],[42.77179,10.99646],[42.87328,10.97825],[42.92372,10.99879],[43.18881,11.40776]]]}},{"type":"Feature","properties":{"shapeName":"Arta","shapeISO":"DJ-AR","shapeID":"25444519B1274960689098"},"geometry":{"type":"Polygon","coordinates":[[[43.18881,11.40776],[43.24073,11.48786],[43.17311,11.54165],[43.05058,11.51899],[42.95638,11.5247],[42.90071,11.58405],[42.8558,11.59577],[42.6941,11.54597],[42.66529,11.51557],[42.68165,11.48452],[42.60377,11.46776],[42.53875,11.503],[42.53248,11.54747],[42.41594,11.59968],[42.36535,11.65422],[42.41729,11.42057],[42.49925,11.30148],[42.70657,11.26549],[42.8645,11.36339],[42.91245,11.44974],[43.05849,11.47858],[43.09001,11.46615],[43.18881,11.40776]]]}},{"type":"Feature","properties":{"shapeName":"Dikhil","shapeISO":"DJ-DI","shapeID":"25444519B52373268249817"},"geometry":{"type":"Polygon","coordinates":[[[42.70657,11.26549],[42.49925,11.30148],[42.41729,11.42057],[42.36535,11.65422],[42.19467,11.82349],[41.97468,11.88091],[41.92533,11.81644],[41.80823,11.73624],[41.74911,11.53795],[41.78797,11.25973],[41.78559,11.06739],[41.76131,10.9962],[41.77381,10.98005],[41.93752,10.92982],[42.03839,10.95044],[42.09627,10.99026],[42.22164,10.98434],[42.33853,11.0155],[42.39176,11.00589],[42.47971,11.05912],[42.60815,11.08909],[42.62585,11.2197],[42.70657,11.26549]]]}},{"type":"Feature","properties":{"shapeName":"Tadjourah","shapeISO":"DJ-TA","shapeID":"25444519B6046592555533"},"geometry":{"type":"Polygon","coordinates":[[[42.53248,11.54747],[42.51498,11.56721],[42.52687,11.58246],[42.6277,11.55907],[42.67742,11.57368],[42.75408,11.70795],[42.8034,11.74799],[42.89649,11.78059],[42.94264,11.77383],[43.04151,11.79853],[43.086,11.83884],[43.01394,11.95258],[42.80755,12.17773],[42.70006,12.25191],[42.67396,12.31436],[42.69619,12.38013],[42.67825,12.36002],[42.52157,12.49624],[42.4485,12.52337],[42.3192,12.38638],[41.97468,11.88091],[42.19467,11.82349],[42.41594,11.59968],[42.53248,11.54747]]]}},{"type":"Feature","properties":{"shapeName":"Obock","shapeISO":"DJ-OB","shapeID":"25444519B8926294731251"},"geometry":{"type":"Polygon","coordinates":[[[43.086,11.83884],[43.20655,11.95783],[43.28834,11.96743],[43.37713,12.00483],[43.41871,12.09125],[43.41139,12.24177],[43.36785,12.30687],[43.32936,12.48876],[43.313,12.47769],[43.28321,12.49653],[43.11769,12.70791],[42.90036,12.61639],[42.86884,12.62616],[42.85209,12.61174],[42.82884,12.55763],[42.78522,12.51722],[42.79225,12.42916],[42.69619,12.38013],[42.67396,12.31436],[42.71277,12.23644],[42.80755,12.17773],[43.01394,11.95258],[43.06221,11.86243],[43.086,11.83884]]]}},{"type":"Feature","properties":{"shapeName":"Djibouti","shapeISO":"DJ-DJ","shapeID":"25444519B34443348585704"},"geometry":{"type":"Polygon","coordinates":[[[43.17311,11.54165],[43.15187,11.61176],[43.10336,11.57697],[42.90071,11.58405],[42.95638,11.5247],[43.05058,11.51899],[43.17311,11.54165]]]}}]}
