{"type":"FeatureCollection","crs":{"type":"name","properties":{"name":"urn:ogc:def:crs:OGC:1.3:CRS84"}},"features":[{"type":"Feature","properties":{"shapeName":"Anseba Region","shapeISO":"ER-AN","shapeID":"12472421B94455277260743"},"geometry":{"type":"Polygon","coordinates":[[[38.04139,17.54556],[37.91722,17.4475],[37.86972,17.445],[37.81889,17.48139],[37.7875,17.46528],[37.73583,17.37667],[37.50214,17.31641],[37.52162,17.27449],[37.49767,17.25469],[37.50598,17.20105],[37.48581,17.19037],[37.46193,17.12207],[37.3958,17.05467],[37.30694,17.06111],[37.25222,17.025],[37.19028,17.03139],[37.15194,17.01556],[37.10444,17.05111],[36.99583,17.07389],[37.01806,17.00361],[36.98694,16.94306],[37.01333,16.91361],[37.02278,16.85056],[36.98056,16.70611],[36.91222,16.64111],[36.92028,16.59917],[36.89639,16.51778],[36.95694,16.42528],[36.95028,16.3475],[36.97222,16.29417],[37.07385,16.27452],[37.26291,16.11403],[37.25452,16.05203],[37.35582,16.00738],[37.49326,15.89322],[37.60553,15.87585],[37.64812,15.89322],[37.92558,15.87709],[38.01656,15.82309],[38.03979,15.76038],[38.12754,15.79949],[38.16367,15.76472],[38.17142,15.72063],[38.14109,15.65913],[38.29208,15.66907],[38.49856,15.56218],[38.62041,15.62217],[38.7169,15.61909],[38.72808,15.54108],[38.74692,15.53061],[38.87384,15.60133],[38.82913,15.86725],[38.7551,15.89205],[38.72145,15.87778],[38.5572,15.90411],[38.49059,15.97343],[38.45226,15.98658],[38.40664,16.04009],[38.46412,16.19876],[38.46412,16.25921],[38.43492,16.31615],[38.34823,16.35555],[38.31995,16.44134],[38.29257,16.4571],[38.25059,16.44747],[38.21592,16.49035],[38.22231,16.59619],[38.18946,16.64428],[38.04984,16.68887],[37.95768,16.69586],[38.00604,16.91075],[37.98049,16.94567],[37.9668,17.02684],[38.02977,17.10971],[38.05248,17.2634],[38.02893,17.43092],[38.04925,17.50078],[38.04139,17.54556]]]}},{"type":"Feature","properties":{"shapeName":"Gash-Barka Region","shapeISO":"ER-GB","shapeID":"12472421B57032757115732"},"geometry":{"type":"Polygon","coordinates":[[[36.97222,16.29417],[36.97139,16.26417],[36.91583,16.215],[36.76361,15.80806],[36.69778,15.75306],[36.62611,15.48944],[36.64778,15.44972],[36.61056,15.43722],[36.53428,15.2293],[36.50266,15.22423],[36.43337,15.16738],[36.54167,14.27806],[36.56027,14.25742],[36.55559,14.28384],[36.63344,14.3135],[36.69077,14.30054],[36.74378,14.32249],[36.83389,14.30904],[36.86856,14.32132],[36.97151,14.29273],[37.01972,14.25213],[37.09811,14.27415],[37.10498,14.34656],[37.13545,14.40957],[37.22243,14.44405],[37.30911,14.44792],[37.39268,14.36553],[37.38029,14.34539],[37.40365,14.33576],[37.39457,14.30113],[37.44763,14.25262],[37.46903,14.25429],[37.46629,14.21731],[37.4963,14.18397],[37.523,14.18206],[37.91286,14.89447],[38.04461,14.7202],[38.09185,14.71665],[38.14328,14.6755],[38.18735,14.67862],[38.19225,14.69488],[38.26152,14.67413],[38.29502,14.70359],[38.34389,14.69517],[38.40028,14.78836],[38.40068,14.81858],[38.30018,14.88053],[38.30177,14.91915],[38.37298,14.9826],[38.45132,15.01624],[38.45607,15.08921],[38.39277,15.17744],[38.40187,15.19768],[38.5265,15.18164],[38.55143,15.21142],[38.62383,15.19042],[38.69607,15.21636],[38.68128,15.2589],[38.74016,15.31833],[38.74153,15.41154],[38.76234,15.46169],[38.74692,15.53061],[38.72808,15.54108],[38.7169,15.61909],[38.62041,15.62217],[38.49856,15.56218],[38.29208,15.66907],[38.14109,15.65913],[38.17142,15.72063],[38.16367,15.76472],[38.12754,15.79949],[38.03979,15.76038],[38.01656,15.82309],[37.92558,15.87709],[37.64812,15.89322],[37.60553,15.87585],[37.49326,15.89322],[37.35582,16.00738],[37.25452,16.05203],[37.26291,16.11403],[37.07385,16.27452],[37.00247,16.29863],[36.97222,16.29417]]]}},{"type":"Feature","properties":{"shapeName":"Debub Region","shapeISO":"ER-DU","shapeID":"12472421B98039697407970"},"geometry":{"type":"Polygon","coordinates":[[[38.26152,14.67413],[38.2694,14.61831],[38.31283,14.58974],[38.36716,14.49039],[38.42447,14.46949],[38.451,14.41452],[38.48516,14.42455],[38.52086,14.4073],[38.70491,14.47089],[38.79753,14.4669],[38.85074,14.49991],[38.90065,14.5049],[38.92915,14.53706],[38.98093,14.54753],[39.02159,14.63295],[39.15373,14.65323],[39.16851,14.64919],[39.15739,14.60833],[39.20528,14.56533],[39.24103,14.56324],[39.26159,14.51546],[39.26678,14.485],[39.22777,14.45023],[39.25454,14.41012],[39.30133,14.46992],[39.34644,14.46625],[39.32864,14.49394],[39.36003,14.48331],[39.35792,14.52753],[39.37311,14.5395],[39.48944,14.50519],[39.49586,14.48406],[39.53802,14.49142],[39.50667,14.52225],[39.53228,14.58417],[39.58679,14.60902],[39.63922,14.60431],[39.61748,14.70287],[39.66284,14.80873],[39.65272,14.85149],[39.61786,14.88736],[39.59274,14.87794],[39.55637,14.92504],[39.53988,14.92214],[39.53875,14.95945],[39.41279,15.0326],[39.32019,15.12889],[39.26283,15.14373],[39.19235,15.24033],[39.08588,15.28626],[38.95392,15.12997],[38.74397,15.21102],[38.69607,15.21636],[38.62383,15.19042],[38.55143,15.21142],[38.5265,15.18164],[38.40187,15.19768],[38.39277,15.17744],[38.45607,15.08921],[38.45132,15.01624],[38.37298,14.9826],[38.30177,14.91915],[38.30018,14.88053],[38.40068,14.81858],[38.40028,14.78836],[38.34389,14.69517],[38.27781,14.69211],[38.26152,14.67413]]]}},{"type":"Feature","properties":{"shapeName":"Maekel Region","shapeISO":"ER-MA","shapeID":"12472421B35314914583003"},"geometry":{"type":"Polygon","coordinates":[[[38.74692,15.53061],[38.76234,15.46169],[38.74153,15.41154],[38.74016,15.31833],[38.68128,15.2589],[38.69607,15.21636],[38.95392,15.12997],[39.03712,15.23846],[39.02649,15.32757],[38.98134,15.38911],[38.98108,15.4699],[38.91673,15.50891],[38.89338,15.59414],[38.87384,15.60133],[38.83954,15.56933],[38.77487,15.55087],[38.74692,15.53061]]]}},{"type":"Feature","properties":{"shapeName":"Northen Red Sea Region","shapeISO":"ER-SK","shapeID":"12472421B21855399297122"},"geometry":{"type":"MultiPolygon","coordinates":[[[[40.8727,15.49803],[40.86037,15.51565],[40.86871,15.49807],[40.8727,15.49803]]],[[[40.78135,15.49391],[40.83489,15.51741],[40.80174,15.52361],[40.78052,15.49673],[40.78135,15.49391]]],[[[40.74579,15.47293],[40.7641,15.48682],[40.73912,15.50131],[40.74022,15.47336],[40.74579,15.47293]]],[[[40.69343,15.79143],[40.69477,15.824],[40.68746,15.79263],[40.69343,15.79143]]],[[[40.78123,15.68769],[40.78628,15.70222],[40.76925,15.70055],[40.77869,15.68489],[40.78123,15.68769]]],[[[40.64613,15.69829],[40.65326,15.72503],[40.64348,15.69909],[40.64613,15.69829]]],[[[40.76828,15.74177],[40.72311,15.74676],[40.77247,15.74474],[40.76828,15.74177]]],[[[40.78135,15.56442],[40.81319,15.57296],[40.79483,15.58444],[40.7794,15.56757],[40.78135,15.56442]]],[[[40.69998,15.56034],[40.70257,15.58531],[40.69781,15.57208],[40.69998,15.56034]]],[[[40.78135,15.62867],[40.7995,15.63308],[40.77504,15.63187],[40.78135,15.62867]]],[[[40.71849,15.63953],[40.73199,15.66479],[40.71519,15.64226],[40.71849,15.63953]]],[[[40.00323,16.19772],[40.02338,16.22751],[40.00167,16.207],[40.00323,16.19772]]],[[[40.20561,16.24806],[40.24371,16.24179],[40.22797,16.24162],[40.23594,16.27944],[40.22292,16.28724],[40.20703,16.26235],[40.20561,16.24806]]],[[[39.47612,16.088],[39.46389,16.0973],[39.47432,16.05631],[39.45496,16.03832],[39.47361,16.04034],[39.48476,16.07922],[39.45494,16.14704],[39.43043,16.15624],[39.47573,16.09161],[39.47612,16.088]]],[[[39.96986,16.1354],[39.96889,16.1537],[39.96322,16.13853],[39.96986,16.1354]]],[[[39.96846,16.17178],[39.9789,16.1847],[39.96593,16.17703],[39.96846,16.17178]]],[[[40.06475,16.17197],[40.08456,16.20196],[40.06631,16.17809],[40.06475,16.17197]]],[[[40.16778,15.93425],[40.14238,15.96311],[40.15848,15.93804],[40.16778,15.93425]]],[[[40.03016,15.94024],[40.05411,15.93806],[40.05584,15.96252],[40.03265,15.95826],[40.03255,15.93829],[40.03016,15.94024]]],[[[39.6121,15.93693],[39.5954,15.96068],[39.60772,15.94081],[39.6121,15.93693]]],[[[39.94799,15.96238],[39.94677,15.98712],[39.94614,15.96613],[39.94799,15.96238]]],[[[40.28296,16.00148],[40.2767,15.98013],[40.30001,15.98257],[40.2851,16.00365],[40.28296,16.00148]]],[[[40.16721,16.01952],[40.19293,16.04553],[40.13786,16.05716],[40.16295,16.02006],[40.16721,16.01952]]],[[[40.07823,15.98422],[40.11025,15.97874],[40.07392,16.03251],[40.12379,16.06728],[40.08123,16.07987],[40.04839,16.11751],[40.05233,16.05502],[39.99346,16.05659],[39.98936,16.00947],[40.04624,16.01165],[40.07087,15.98563],[40.07823,15.98422]]],[[[40.15837,16.17194],[40.15699,16.14156],[40.12504,16.12318],[40.14096,16.08742],[40.16607,16.09823],[40.16359,16.15311],[40.20213,16.15779],[40.17303,16.1935],[40.16052,16.17477],[40.15837,16.17194]]],[[[39.7583,16.29187],[39.75597,16.30824],[39.75404,16.29382],[39.7583,16.29187]]],[[[39.91875,16.32073],[39.93399,16.32736],[39.89448,16.32238],[39.91188,16.3339],[39.89407,16.34956],[39.85281,16.34136],[39.87694,16.33636],[39.85451,16.33388],[39.8995,16.31205],[39.91059,16.28611],[39.911,16.31806],[39.91875,16.32073]]],[[[39.5349,16.34137],[39.58,16.34538],[39.57124,16.35789],[39.53811,16.34574],[39.5349,16.34137]]],[[[39.80453,16.31205],[39.82328,16.3304],[39.8012,16.31271],[39.80453,16.31205]]],[[[40.17488,16.54885],[40.15368,16.53093],[40.15353,16.5509],[40.132,16.52294],[40.13574,16.47629],[40.14014,16.4992],[40.18774,16.51104],[40.17916,16.54973],[40.17488,16.54885]]],[[[39.3267,16.60695],[39.33058,16.61962],[39.31766,16.61286],[39.3267,16.60695]]],[[[40.09165,16.47073],[40.09715,16.47444],[40.09715,16.47573],[40.09165,16.47073]]],[[[39.61173,15.90125],[39.6659,15.9007],[39.64163,15.92796],[39.6096,15.901],[39.61173,15.90125]]],[[[40.24756,15.91887],[40.25881,15.92975],[40.23985,15.92033],[40.24756,15.91887]]],[[[39.93782,15.89441],[39.93897,15.91206],[39.92705,15.89613],[39.93782,15.89441]]],[[[40.16998,15.89985],[40.19456,15.9162],[40.17214,15.90576],[40.16998,15.89985]]],[[[40.32694,15.05284],[40.29277,15.05703],[40.27027,14.9724],[40.35133,15.01032],[40.33118,15.0514],[40.32694,15.05284]]],[[[40.3983,15.01931],[40.42431,15.02469],[40.42496,15.04259],[40.40058,15.02265],[40.3983,15.01931]]],[[[40.49509,15.06339],[40.50686,15.07915],[40.47789,15.06814],[40.49509,15.06339]]],[[[40.34717,15.14881],[40.34619,15.1626],[40.33896,15.15079],[40.34717,15.14881]]],[[[40.32495,15.11674],[40.33812,15.14487],[40.2995,15.11805],[40.31431,15.11152],[40.32495,15.11674]]],[[[40.31755,15.07685],[40.34242,15.09023],[40.3165,15.07879],[40.31755,15.07685]]],[[[40.26162,15.07975],[40.27468,15.09062],[40.25553,15.08068],[40.26162,15.07975]]],[[[40.16683,15.16565],[40.18014,15.19192],[40.16793,15.17738],[40.16683,15.16565]]],[[[40.27319,15.24031],[40.2334,15.24208],[40.23588,15.21244],[40.27663,15.239],[40.27319,15.24031]]],[[[40.07823,15.17961],[40.09388,15.20184],[40.07626,15.1808],[40.07823,15.17961]]],[[[40.07802,15.19798],[40.08596,15.20909],[40.05035,15.19715],[40.06998,15.19757],[40.07802,15.19798]]],[[[40.16241,15.26513],[40.17733,15.27587],[40.16511,15.2731],[40.16241,15.26513]]],[[[40.07823,15.23574],[40.09014,15.24797],[40.07467,15.23323],[40.07823,15.23574]]],[[[40.12614,15.23117],[40.12863,15.25023],[40.12243,15.23338],[40.12614,15.23117]]],[[[40.28137,15.12279],[40.26224,15.16154],[40.27946,15.15912],[40.29603,15.20012],[40.23057,15.16661],[40.23216,15.1201],[40.25408,15.10529],[40.27403,15.11575],[40.28137,15.12279]]],[[[39.74606,15.46885],[39.76599,15.43224],[39.75215,15.49953],[39.74594,15.47173],[39.74606,15.46885]]],[[[39.81665,15.4832],[39.8194,15.50561],[39.81417,15.49236],[39.81665,15.4832]]],[[[40.00548,15.52377],[40.01166,15.53843],[39.98198,15.55505],[40.0027,15.52507],[40.00548,15.52377]]],[[[40.35671,15.47785],[40.38434,15.47896],[40.33876,15.49599],[40.35087,15.47904],[40.35671,15.47785]]],[[[39.90063,15.48726],[39.90232,15.50979],[39.89267,15.48974],[39.90063,15.48726]]],[[[39.90392,15.7083],[39.89975,15.70904],[39.90813,15.69858],[39.90392,15.7083]]],[[[39.90718,15.71008],[39.91682,15.72357],[39.89788,15.71218],[39.90718,15.71008]]],[[[40.4936,15.74769],[40.5022,15.75999],[40.48539,15.75302],[40.4936,15.74769]]],[[[40.44358,15.78241],[40.4551,15.79354],[40.44121,15.78539],[40.44358,15.78241]]],[[[40.13468,15.7769],[40.14735,15.80491],[40.11622,15.80533],[40.13096,15.77769],[40.13468,15.7769]]],[[[40.27643,15.81102],[40.28742,15.82499],[40.25279,15.8185],[40.27059,15.8135],[40.27643,15.81102]]],[[[40.35838,15.81142],[40.37743,15.8162],[40.36381,15.8271],[40.35813,15.814],[40.35838,15.81142]]],[[[39.9449,15.72705],[39.93105,15.69336],[39.95317,15.70332],[39.94806,15.72034],[39.9449,15.72705]]],[[[40.1834,15.73684],[40.18961,15.70628],[40.1546,15.67607],[40.16355,15.65992],[40.20977,15.67474],[40.2138,15.7265],[40.18821,15.73965],[40.1834,15.73684]]],[[[40.61679,15.59149],[40.64873,15.59821],[40.61414,15.59241],[40.61679,15.59149]]],[[[40.07823,15.66686],[40.07384,15.6399],[40.03714,15.6375],[40.04558,15.62509],[40.01776,15.64248],[39.99802,15.62995],[40.00293,15.65518],[39.98621,15.66272],[39.98425,15.64135],[39.95541,15.67951],[39.96826,15.68882],[39.93904,15.69616],[39.96844,15.64348],[39.96274,15.61929],[40.01892,15.60834],[40.05571,15.5779],[40.12389,15.60242],[40.31182,15.56197],[40.36107,15.57506],[40.4249,15.56294],[40.41328,15.63153],[40.35627,15.61283],[40.38537,15.63197],[40.35066,15.65047],[40.32902,15.63412],[40.34086,15.65543],[40.31424,15.69114],[40.25765,15.69959],[40.22007,15.68499],[40.21175,15.67241],[40.30233,15.65901],[40.25921,15.6505],[40.24838,15.61862],[40.16738,15.63118],[40.13309,15.72899],[40.1392,15.77636],[40.08353,15.78966],[40.10342,15.80219],[40.09469,15.83624],[40.01667,15.88028],[39.9535,15.88778],[39.98212,15.86201],[40.02204,15.86196],[40.04539,15.82243],[40.01072,15.83213],[39.98742,15.80338],[39.99208,15.77554],[40.0245,15.76817],[39.93334,15.78829],[39.92334,15.72509],[40.00147,15.73736],[40.06366,15.67601],[40.07823,15.66686]]],[[[40.59191,15.87088],[40.61519,15.88694],[40.59263,15.89509],[40.59062,15.87604],[40.59191,15.87088]]],[[[39.91298,15.81723],[39.91326,15.82071],[39.91539,15.81993],[39.91298,15.81723]]],[[[40.56225,15.82113],[40.56511,15.84738],[40.55893,15.82193],[40.56225,15.82113]]],[[[40.35085,15.87922],[40.37791,15.88678],[40.37256,15.90149],[40.35005,15.88],[40.35085,15.87922]]],[[[40.08803,15.874],[40.0863,15.89913],[40.08793,15.8789],[40.08803,15.874]]],[[[40.49776,15.84283],[40.50749,15.8635],[40.49285,15.84531],[40.49776,15.84283]]],[[[40.13668,15.84915],[40.13757,15.86525],[40.10408,15.87237],[40.12445,15.8514],[40.13668,15.84915]]],[[[38.87384,15.60133],[38.90947,15.57565],[38.91673,15.50891],[38.98108,15.4699],[38.98134,15.38911],[39.02649,15.32757],[39.03712,15.23846],[39.05476,15.23888],[39.08588,15.28626],[39.14736,15.2689],[39.25646,15.17123],[39.26283,15.14373],[39.32019,15.12889],[39.41279,15.0326],[39.53875,14.95945],[39.53988,14.92214],[39.55637,14.92504],[39.57587,14.88773],[39.61786,14.88736],[39.65272,14.85149],[39.66284,14.80873],[39.61748,14.70287],[39.62774,14.61487],[39.68685,14.59201],[39.71317,14.55545],[39.77009,14.54615],[39.7941,14.50321],[39.83835,14.49042],[39.91892,14.42156],[39.94695,14.41448],[39.9887,14.4548],[40.00862,14.44829],[40.06929,14.5404],[40.13284,14.54663],[40.21319,14.38711],[40.25945,14.41106],[40.36499,14.36625],[40.49574,14.58917],[40.55291,14.62669],[40.55817,14.69089],[40.5378,14.71822],[40.51114,14.95239],[40.44308,14.9773],[40.46561,14.99802],[40.44937,15.0065],[40.40942,14.97751],[40.43402,14.9704],[40.3899,14.95019],[40.38277,14.99506],[40.35723,14.9379],[40.29659,14.90241],[40.15904,14.98665],[40.16493,15.02294],[40.14535,15.05473],[40.11471,15.07524],[40.09559,15.06661],[40.08829,15.09443],[40.11103,15.08221],[40.10107,15.11933],[40.03846,15.20751],[40.05686,15.22726],[40.02164,15.24134],[40.08153,15.30263],[40.08686,15.33275],[39.98414,15.39299],[39.97206,15.4219],[39.88677,15.47765],[39.87892,15.50499],[39.84735,15.45359],[39.83363,15.47657],[39.83081,15.43433],[39.81682,15.45782],[39.83651,15.39875],[39.81229,15.45436],[39.80444,15.41484],[39.77622,15.39794],[39.79172,15.35202],[39.77644,15.31369],[39.78568,15.26341],[39.80248,15.25086],[39.8015,15.27083],[39.81956,15.27424],[39.85164,15.19618],[39.82588,15.09964],[39.81428,15.07111],[39.78241,15.06194],[39.71252,15.09309],[39.69393,15.1269],[39.71348,15.25832],[39.65838,15.33725],[39.62182,15.47894],[39.60031,15.51907],[39.5665,15.53685],[39.48683,15.51114],[39.46391,15.5248],[39.44187,15.59596],[39.48112,15.60953],[39.45516,15.60749],[39.48154,15.61729],[39.46148,15.63463],[39.48013,15.64355],[39.42589,15.74725],[39.44193,15.79606],[39.30521,15.90034],[39.24135,16.07406],[39.19732,16.29229],[39.19298,16.4378],[39.17592,16.51523],[39.15934,16.50366],[39.14614,16.53575],[39.15003,16.56138],[39.15162,16.5369],[39.16592,16.55712],[39.13471,16.61717],[39.14556,16.65593],[39.15249,16.63029],[39.14919,16.68234],[39.06413,16.89519],[38.99655,17.1925],[38.97028,17.2198],[38.92329,17.41223],[38.82247,17.61259],[38.67341,17.81874],[38.64231,17.90473],[38.60594,17.92526],[38.56795,17.98828],[38.58161,18.01964],[38.45205,17.89926],[38.34444,17.64444],[38.27361,17.60306],[38.26194,17.53528],[38.2225,17.52889],[38.18583,17.56222],[38.13361,17.54861],[38.13556,17.49889],[38.11139,17.48111],[38.09194,17.49667],[38.09222,17.54722],[38.04139,17.54556],[38.04925,17.50078],[38.02893,17.43092],[38.05248,17.2634],[38.02977,17.10971],[37.9668,17.02684],[37.98049,16.94567],[38.00604,16.91075],[37.95768,16.69586],[38.04984,16.68887],[38.18946,16.64428],[38.22231,16.59619],[38.21592,16.49035],[38.25059,16.44747],[38.29257,16.4571],[38.31995,16.44134],[38.34823,16.35555],[38.43492,16.31615],[38.46412,16.25921],[38.46412,16.19876],[38.40664,16.04009],[38.5572,15.90411],[38.72145,15.87778],[38.7551,15.89205],[38.82913,15.86725],[38.8451,15.72149],[38.86837,15.66658],[38.87384,15.60133]]]]}},{"type":"Feature","properties":{"shapeName":"Southern Red Sea Region","shapeISO":"ER-DK","shapeID":"12472421B84439525883962"},"geometry":{"type":"MultiPolygon","coordinates":[[[[41.93813,13.88403],[41.93209,13.87712],[41.93344,13.87316],[41.93813,13.88403]]],[[[41.9759,13.8763],[41.99405,13.89512],[41.97359,13.88122],[41.9759,13.8763]]],[[[40.89205,14.74659],[40.90001,14.7491],[40.90109,14.75219],[40.89205,14.74659]]],[[[40.80929,14.7564],[40.81381,14.75855],[40.81437,14.76241],[40.80929,14.7564]]],[[[40.78701,14.78298],[40.81607,14.79202],[40.79417,14.78472],[40.78701,14.78298]]],[[[40.76108,14.86714],[40.74107,14.86446],[40.76666,14.85242],[40.75914,14.83921],[40.76991,14.86167],[40.76108,14.86714]]],[[[40.68212,14.91217],[40.68596,14.89553],[40.71534,14.89325],[40.70783,14.88094],[40.72037,14.89244],[40.70042,14.91512],[40.67893,14.91077],[40.68212,14.91217]]],[[[42.9539,12.82199],[42.93165,12.8459],[42.94495,12.82501],[42.9539,12.82199]]],[[[42.85013,12.95587],[42.85103,12.9421],[42.84827,12.95778],[42.85013,12.95587]]],[[[42.81932,12.96514],[42.80048,12.95764],[42.82512,12.963],[42.81932,12.96514]]],[[[42.89073,12.98006],[42.8761,12.97475],[42.89302,12.97721],[42.89073,12.98006]]],[[[42.8449,12.9839],[42.84989,12.98381],[42.84974,12.98535],[42.8449,12.9839]]],[[[42.87571,13.0045],[42.8471,13.03246],[42.87408,13.0417],[42.84442,13.03914],[42.84039,13.01876],[42.86648,13.0088],[42.87571,13.0045]]],[[[42.1874,13.65273],[42.20685,13.64703],[42.19127,13.67388],[42.16221,13.66068],[42.18886,13.6548],[42.1874,13.65273]]],[[[42.89052,12.85987],[42.87786,12.87483],[42.88718,12.85958],[42.89052,12.85987]]],[[[42.81076,12.86295],[42.81934,12.87229],[42.79043,12.87617],[42.80864,12.86499],[42.81076,12.86295]]],[[[42.86654,12.87912],[42.84938,12.8746],[42.86671,12.87346],[42.86654,12.87912]]],[[[42.95102,12.90169],[42.92764,12.90279],[42.96272,12.86688],[42.95066,12.89705],[42.95102,12.90169]]],[[[40.36499,14.36625],[40.45175,14.30684],[40.81026,14.17204],[40.94335,14.08028],[41.25074,13.61039],[41.40282,13.50088],[41.64228,13.38498],[41.66853,13.32358],[41.89064,13.07447],[41.96636,12.92332],[42.03018,12.8681],[42.0573,12.80104],[42.21926,12.76233],[42.27862,12.63548],[42.40418,12.46862],[42.48315,12.52285],[42.56709,12.47598],[42.70097,12.35482],[42.71674,12.38402],[42.7485,12.38292],[42.7628,12.41063],[42.82493,12.43414],[42.79697,12.47743],[42.80186,12.50963],[42.82763,12.54341],[42.85936,12.54933],[42.88942,12.6169],[42.91595,12.61092],[43.13708,12.71358],[43.09784,12.7395],[43.07961,12.82436],[43.04434,12.83723],[42.97956,12.92818],[42.90973,12.96645],[42.92153,12.95198],[42.88672,12.95435],[42.9069,12.91911],[42.93333,12.92911],[42.95135,12.90903],[42.95646,12.93293],[42.99539,12.90684],[42.98591,12.81973],[42.92014,12.78399],[42.90718,12.7946],[42.92748,12.81058],[42.8921,12.80386],[42.83938,12.86164],[42.80072,12.84072],[42.77226,12.85258],[42.7576,12.87821],[42.76867,12.91771],[42.73002,12.96785],[42.75102,13.0022],[42.74472,13.03524],[42.67302,13.05414],[42.63324,13.12073],[42.56152,13.2004],[42.54686,13.1946],[42.55045,13.22939],[42.4931,13.18339],[42.38613,13.20974],[42.35385,13.41152],[42.30776,13.47642],[42.2914,13.56249],[42.23555,13.63576],[42.20712,13.64729],[42.23379,13.61695],[42.22218,13.59739],[42.19993,13.60936],[42.24124,13.54212],[42.14679,13.65123],[42.10239,13.64454],[42.08058,13.7161],[42.05237,13.72967],[42.03288,13.77216],[42.01365,13.7727],[42.00064,13.82222],[41.97711,13.82661],[41.97059,13.85243],[41.93915,13.84586],[41.91738,13.87392],[41.86087,13.86351],[41.80733,13.92463],[41.73736,13.91371],[41.72263,13.93872],[41.68859,13.93498],[41.65225,14.03064],[41.64816,14.01858],[41.62236,14.06881],[41.54869,14.13242],[41.49078,14.24142],[41.42119,14.29982],[41.39572,14.36316],[41.33891,14.41188],[41.31124,14.49481],[41.22204,14.5616],[41.18934,14.62371],[41.04626,14.66917],[40.985,14.66469],[40.89929,14.72735],[40.77791,14.70552],[40.78523,14.72684],[40.7461,14.73255],[40.72733,14.76823],[40.74882,14.80774],[40.74516,14.8464],[40.73212,14.83851],[40.68223,14.89285],[40.65617,14.87874],[40.61495,14.89295],[40.64158,14.92933],[40.63638,14.95874],[40.62109,14.93437],[40.60824,14.95211],[40.58273,14.94211],[40.55685,14.9714],[40.55686,14.99187],[40.5741,14.99318],[40.53222,15.0192],[40.54425,14.98874],[40.51936,14.97294],[40.51465,14.94361],[40.5378,14.71822],[40.56145,14.65593],[40.53188,14.60125],[40.49574,14.58917],[40.36499,14.36625]]]]}}]}
