{"type":"FeatureCollection","crs":{"type":"name","properties":{"name":"urn:ogc:def:crs:OGC:1.3:CRS84"}},"features":[{"type":"Feature","properties":{"shapeName":"Addis Ababa","shapeISO":"ET-AA","shapeID":"75662566B5378229891244"},"geometry":{"type":"Polygon","coordinates":[[[38.81339,8.84107],[38.82684,8.88124],[38.86956,8.87409],[38.88029,8.91937],[38.8564,8.93934],[38.8976,8.93808],[38.902,9.02063],[38.86906,9.08595],[38.71748,9.08879],[38.68625,9.07407],[38.66787,9.01107],[38.65278,9.01133],[38.66022,8.98645],[38.64024,8.97508],[38.74443,8.90364],[38.74636,8.86448],[38.79842,8.83454],[38.81339,8.84107]]]}},{"type":"Feature","properties":{"shapeName":"Afar","shapeISO":"ET-AF","shapeID":"75662566B25357223982520"},"geometry":{"type":"Polygon","coordinates":[[[41.76136,10.9828],[41.77594,11.53972],[41.8043,11.66775],[41.86729,11.7635],[41.98111,11.87089],[42.09058,12.06516],[42.26713,12.28997],[42.35572,12.44565],[42.33627,12.48025],[41.8796,13.09029],[41.07821,13.87916],[40.65143,14.22998],[40.33184,14.42458],[40.14081,14.49862],[40.05614,14.48747],[39.98514,14.43291],[39.99173,14.38254],[39.95115,14.361],[39.80183,14.38776],[39.77293,14.37443],[39.78008,14.33111],[39.72712,14.30355],[39.75848,14.27776],[39.75818,14.24043],[39.69496,14.2419],[39.65084,14.18921],[39.76801,14.14064],[39.8385,14.1548],[39.84488,14.05086],[39.88682,14.01281],[39.86004,13.96639],[39.83008,13.97489],[39.80253,13.94622],[39.83416,13.91902],[39.83458,13.82201],[39.85407,13.76714],[39.88495,13.74888],[39.86478,13.54881],[39.74033,13.5638],[39.72039,13.47634],[39.74663,13.37478],[39.7304,13.37947],[39.74258,13.35195],[39.7206,13.29522],[39.76819,13.28594],[39.78662,13.26338],[39.86393,13.0204],[39.86324,12.96272],[39.92608,12.89447],[39.97886,12.7929],[39.88952,12.75649],[39.82698,12.69446],[39.83345,12.6351],[39.80761,12.59701],[39.86407,12.53218],[39.88345,12.4584],[39.86399,12.46409],[39.8158,12.40781],[39.83175,12.35825],[39.81845,12.34257],[39.82845,12.24122],[39.80842,12.23963],[39.80073,12.19575],[39.82947,12.10061],[39.8626,12.08914],[39.84213,12.05432],[39.88797,11.90653],[39.87574,11.77955],[39.92482,11.7016],[39.97053,11.66529],[39.99499,11.68196],[40.01616,11.64636],[39.99419,11.58461],[40.06179,11.47496],[40.06583,11.3386],[40.17375,11.24082],[40.21331,11.10976],[40.19467,11.09722],[40.18781,11.02621],[40.12465,10.93851],[40.15019,10.89667],[40.18138,10.89774],[40.16757,10.80593],[40.10348,10.75593],[40.16451,10.41328],[40.15645,10.25834],[40.12987,10.17448],[40.15902,10.09122],[40.13346,10.07204],[39.92814,10.09091],[39.94431,10.06014],[39.92361,10.01169],[39.94822,9.99433],[40.04403,9.99198],[40.08971,9.93576],[40.06443,9.90338],[40.07156,9.85838],[40.01189,9.81953],[39.99202,9.7577],[40.01024,9.73383],[39.85064,9.74934],[39.83999,9.72454],[39.88466,9.61162],[39.87801,9.57756],[39.84844,9.56528],[39.85819,9.54808],[39.83839,9.5029],[39.87339,9.46026],[39.87951,9.40142],[39.82232,9.41845],[39.78605,9.39661],[39.79234,9.37083],[39.75069,9.37022],[39.79,9.30523],[39.845,9.3152],[39.88685,9.27038],[39.85787,9.27109],[39.87389,9.22831],[39.81388,9.17214],[39.81828,9.13734],[39.90988,9.13283],[39.94849,9.00464],[40.0228,9.00332],[40.04833,8.97893],[40.01127,8.85714],[40.04122,8.84216],[40.08184,8.8524],[40.17076,8.96554],[40.23868,8.99838],[40.24637,9.0759],[40.32789,9.15569],[40.4719,9.35577],[40.52929,9.38646],[40.63685,9.39695],[40.67642,9.41852],[40.69444,9.44538],[40.69989,9.53376],[40.74958,9.65228],[40.84822,9.7913],[41.01483,9.94016],[41.01425,9.96095],[40.9667,9.97264],[40.93744,10.03619],[41.08793,10.60146],[41.07816,10.68204],[41.22096,10.83534],[41.24165,10.92223],[41.26906,10.95872],[41.74045,10.9692],[41.76136,10.9828]]]}},{"type":"Feature","properties":{"shapeName":"Amhara","shapeISO":"ET-AM","shapeID":"75662566B52684709481520"},"geometry":{"type":"Polygon","coordinates":[[[39.81848,12.32478],[39.76242,12.30401],[39.75942,12.32071],[39.63314,12.30841],[39.61508,12.27649],[39.57341,12.25668],[39.54414,12.26577],[39.50831,12.3336],[39.45643,12.32578],[39.42038,12.29735],[39.28564,12.30044],[39.24639,12.3537],[39.23063,12.50182],[39.17526,12.64421],[39.28134,12.68873],[39.26852,12.77205],[39.30446,12.79403],[39.30808,12.81236],[39.27855,12.82674],[39.30769,12.86702],[39.27988,12.85696],[39.25959,12.91539],[39.08372,12.95997],[39.05447,12.99137],[39.00107,13.00414],[38.97946,13.09965],[39.03779,13.13492],[39.04246,13.16219],[38.99822,13.20408],[38.95668,13.21269],[38.9526,13.23819],[38.86396,13.21018],[38.73244,13.26295],[38.73398,13.39948],[38.64949,13.39719],[38.6187,13.42899],[38.63413,13.47337],[38.67728,13.4841],[38.663,13.53183],[38.61489,13.49134],[38.59096,13.50678],[38.46184,13.46022],[38.46825,13.48556],[38.4991,13.48511],[38.49765,13.50745],[38.54331,13.52646],[38.55479,13.55096],[38.45447,13.5576],[38.44165,13.58505],[38.40735,13.54006],[38.32873,13.55098],[38.3207,13.50281],[38.27976,13.48618],[38.2488,13.50232],[38.20174,13.4808],[38.17456,13.4941],[38.14603,13.47234],[38.12183,13.50696],[38.06028,13.46785],[38.00201,13.50176],[37.90493,13.44771],[37.86723,13.47579],[37.81774,13.46384],[37.80984,13.51975],[37.76985,13.56325],[37.78498,13.58837],[37.7769,13.63415],[37.71525,13.54267],[37.69497,13.47309],[37.63792,13.41456],[37.5186,13.36715],[37.36606,13.36052],[37.32265,13.29786],[37.25133,13.29567],[37.20553,13.25639],[37.15856,13.29848],[37.07919,13.31249],[37.03577,13.35394],[36.92,13.3775],[36.8256,13.44891],[36.73547,13.36375],[36.60561,13.3783],[36.56722,13.44687],[36.60193,13.49909],[36.56551,13.53366],[36.55549,13.57194],[36.52036,13.58617],[36.50519,13.66578],[36.4766,13.70107],[36.48464,13.72775],[36.45198,13.76934],[36.38215,13.5459],[36.2788,13.36669],[36.15795,12.96365],[36.18184,12.87414],[36.15805,12.68736],[36.10874,12.6866],[36.09727,12.70893],[36.05188,12.72278],[35.77317,12.66127],[35.69963,12.66847],[35.68447,12.61048],[35.64827,12.60593],[35.43054,12.23716],[35.43842,12.19804],[35.40144,12.18653],[35.33264,12.06753],[35.34053,12.02417],[35.30317,12.01631],[35.27612,11.94083],[35.25787,11.93504],[35.28512,11.88532],[35.2967,11.79996],[35.42256,11.73021],[35.47407,11.73699],[35.51772,11.71883],[35.57736,11.76816],[35.66249,11.79419],[35.66737,11.82672],[35.82377,11.82767],[35.86094,11.85071],[35.87521,11.88674],[35.93724,11.92156],[35.93607,11.96691],[35.9666,11.98538],[35.96981,11.95921],[36.05716,11.87511],[36.05528,11.85012],[36.10602,11.8167],[36.11914,11.70663],[36.14561,11.68644],[36.177,11.68506],[36.30959,11.80404],[36.32986,11.7975],[36.34921,11.60618],[36.37595,11.6085],[36.4451,11.49364],[36.41034,11.45914],[36.41074,11.41475],[36.51302,11.45911],[36.53389,11.3949],[36.56469,11.37219],[36.53534,11.33614],[36.55721,11.33033],[36.55767,11.30297],[36.46794,11.26585],[36.4684,11.15627],[36.55013,11.13868],[36.57881,11.11139],[36.5557,11.09408],[36.52588,11.11358],[36.49046,11.0696],[36.42336,11.03224],[36.28304,10.80476],[36.28603,10.74548],[36.31157,10.74816],[36.34239,10.78973],[36.37801,10.78665],[36.37475,10.75931],[36.31838,10.70451],[36.32498,10.66256],[36.28243,10.60547],[36.31901,10.52892],[36.35992,10.53123],[36.40979,10.45623],[36.52757,10.48382],[36.54702,10.45782],[36.52124,10.40687],[36.54004,10.36591],[36.60627,10.36565],[36.66912,10.31475],[36.68619,10.31853],[36.69245,10.35825],[36.76256,10.36824],[36.8074,10.3363],[36.87004,10.34162],[36.89876,10.31378],[36.98072,10.31496],[37.01407,10.28587],[37.18262,10.2422],[37.2007,10.22424],[37.16851,10.16422],[37.21412,10.08886],[37.28852,10.06383],[37.33035,10.00681],[37.35779,10.04119],[37.39909,10.04711],[37.44528,10.01552],[37.53005,9.99714],[37.61904,9.89486],[37.70147,9.83769],[37.81684,9.86812],[37.89385,9.92822],[37.9309,9.91555],[37.93366,9.94224],[38.04441,9.97074],[38.08839,10.02121],[38.1191,10.01871],[38.13177,10.0484],[38.15139,10.03608],[38.24126,10.10358],[38.29611,10.0902],[38.32264,10.10814],[38.34088,10.15717],[38.39833,10.14522],[38.42656,10.1727],[38.42022,10.22079],[38.45503,10.24763],[38.47336,10.29274],[38.47751,10.36419],[38.71348,10.38779],[38.84657,10.36195],[38.86169,10.27891],[38.83612,10.22667],[38.83459,10.1628],[38.85344,10.119],[38.7222,10.0524],[38.6635,10.05831],[38.66165,10.03477],[38.79771,9.96868],[38.79169,9.88359],[38.82235,9.78547],[38.89759,9.71527],[38.93558,9.72892],[38.9611,9.71174],[38.95293,9.73964],[38.97527,9.76208],[38.99095,9.74695],[39.09306,9.76406],[39.09853,9.73642],[39.14015,9.74164],[39.15654,9.68968],[39.18487,9.68674],[39.18502,9.72104],[39.22891,9.69469],[39.29871,9.74901],[39.3213,9.7251],[39.34757,9.72612],[39.34534,9.69999],[39.37097,9.70036],[39.3529,9.62304],[39.38671,9.63181],[39.37733,9.56833],[39.33055,9.52755],[39.31379,9.53656],[39.29495,9.49274],[39.31054,9.46868],[39.36394,9.47486],[39.37359,9.44783],[39.39478,9.45605],[39.44856,9.4335],[39.4531,9.39492],[39.42126,9.37246],[39.39571,9.39291],[39.3074,9.3671],[39.28629,9.31681],[39.26527,9.32521],[39.26706,9.28947],[39.28558,9.27856],[39.26702,9.24551],[39.23451,9.29463],[39.17859,9.27209],[39.21453,9.22915],[39.18944,9.21029],[39.21549,9.17441],[39.25037,9.13662],[39.32402,9.14982],[39.35786,9.06312],[39.2976,9.05431],[39.28904,9.00002],[39.25945,8.96368],[39.26623,8.92344],[39.23834,8.86308],[39.26638,8.84413],[39.2447,8.82874],[39.27284,8.78411],[39.2713,8.72558],[39.29983,8.71958],[39.32539,8.74795],[39.36192,8.72202],[39.37795,8.73196],[39.37902,8.79223],[39.4186,8.8156],[39.45008,8.7533],[39.5016,8.71588],[39.55264,8.76981],[39.56284,8.8189],[39.61788,8.78793],[39.73414,8.8273],[39.74331,9.09229],[39.81828,9.13734],[39.81388,9.17214],[39.87389,9.22831],[39.85787,9.27109],[39.88685,9.27038],[39.845,9.3152],[39.79,9.30523],[39.75069,9.37022],[39.79234,9.37083],[39.78605,9.39661],[39.82232,9.41845],[39.87951,9.40142],[39.87339,9.46026],[39.83839,9.5029],[39.85819,9.54808],[39.84844,9.56528],[39.87801,9.57756],[39.88466,9.61162],[39.83999,9.72454],[39.86301,9.75493],[40.01024,9.73383],[39.99202,9.7577],[40.01189,9.81953],[40.07156,9.85838],[40.06443,9.90338],[40.08971,9.93576],[40.04403,9.99198],[39.94822,9.99433],[39.92361,10.01169],[39.94431,10.06014],[39.92814,10.09091],[40.13346,10.07204],[40.15902,10.09122],[40.12987,10.17448],[40.15645,10.25834],[40.16451,10.41328],[40.10348,10.75593],[40.16757,10.80593],[40.18138,10.89774],[40.15019,10.89667],[40.12465,10.93851],[40.18781,11.02621],[40.19467,11.09722],[40.21331,11.10976],[40.17375,11.24082],[40.06583,11.3386],[40.06179,11.47496],[39.99419,11.58461],[40.01616,11.64636],[39.99499,11.68196],[39.97053,11.66529],[39.92482,11.7016],[39.87574,11.77955],[39.88797,11.90653],[39.84213,12.05432],[39.8626,12.08914],[39.82947,12.10061],[39.80073,12.19575],[39.80842,12.23963],[39.82845,12.24122],[39.82561,12.31849],[39.81848,12.32478]],[[37.43955,12.28196],[37.49163,12.29516],[37.55895,12.22445],[37.57634,12.15952],[37.61812,12.10062],[37.54864,11.92232],[37.49896,11.89385],[37.51464,11.83752],[37.47338,11.82978],[37.44964,11.79462],[37.4044,11.57122],[37.37992,11.57769],[37.37404,11.61256],[37.29342,11.65154],[37.31397,11.68689],[37.3566,11.69368],[37.30218,11.73637],[37.31149,11.77552],[37.29287,11.79799],[37.23427,11.82829],[37.13613,11.80068],[37.11732,11.82479],[37.12634,11.84686],[37.10275,11.83097],[37.0992,11.79581],[37.04769,11.83606],[37.03022,11.88095],[36.99345,11.89769],[37.02103,11.92989],[37.01297,12.01619],[37.03384,12.14934],[37.07077,12.21699],[37.15554,12.26814],[37.18193,12.19403],[37.23038,12.21073],[37.26255,12.19691],[37.28728,12.20548],[37.31472,12.26976],[37.34118,12.27793],[37.3745,12.25788],[37.38491,12.27845],[37.42727,12.27542],[37.43955,12.28196]]]}},{"type":"Feature","properties":{"shapeName":"Beneshangul Gumu","shapeISO":"ET-BE","shapeID":"75662566B16746670119676"},"geometry":{"type":"MultiPolygon","coordinates":[[[[36.2487,8.97458],[36.17977,8.98737],[36.22292,8.95125],[36.2487,8.97458]]],[[[35.25787,11.93504],[35.0982,11.81527],[35.04737,11.73605],[35.07727,11.64636],[35.07876,11.5223],[35.02494,11.38627],[34.92647,11.24415],[34.96215,11.2368],[35.00102,11.18149],[34.95734,10.95792],[34.98311,10.89941],[34.86795,10.8093],[34.85828,10.75729],[34.78598,10.71076],[34.7911,10.75639],[34.76615,10.75605],[34.61053,10.8981],[34.55505,10.88401],[34.53247,10.85333],[34.46576,10.822],[34.3835,10.6785],[34.29833,10.58658],[34.28051,10.51574],[34.3271,10.47659],[34.29384,10.40721],[34.35215,10.22186],[34.34696,10.16958],[34.33435,10.11439],[34.23386,10.04846],[34.21759,9.90348],[34.10147,9.55159],[34.14545,8.9633],[34.43139,8.96849],[34.50445,9.00519],[34.45907,9.07423],[34.42758,9.07284],[34.34162,9.16982],[34.4403,9.21661],[34.46701,9.36683],[34.45255,9.45013],[34.51372,9.44902],[34.49948,9.51524],[34.54921,9.63066],[34.58614,9.63136],[34.63276,9.58902],[34.73589,9.54631],[34.78374,9.55434],[34.81161,9.63112],[34.79689,9.73723],[34.83242,9.8041],[34.87048,9.82165],[34.89844,9.88273],[34.86755,9.90324],[34.88854,9.90919],[34.90517,9.95685],[34.94375,9.93454],[34.98894,9.99773],[35.01577,9.99616],[35.02041,9.92976],[35.04927,9.91871],[35.08178,9.92289],[35.0891,9.95146],[35.22156,9.9264],[35.23151,9.89423],[35.29822,9.92346],[35.35056,9.86705],[35.36455,9.81402],[35.42039,9.78613],[35.3796,9.76639],[35.36916,9.72028],[35.41153,9.71467],[35.46919,9.67137],[35.5545,9.69711],[35.57929,9.66651],[35.65421,9.63592],[35.64826,9.55431],[35.71153,9.48778],[35.76577,9.47436],[35.7781,9.44115],[35.75089,9.4041],[35.75752,9.32466],[35.79796,9.30964],[35.86064,9.32599],[35.91186,9.31698],[35.9501,9.25018],[36.03236,9.23446],[36.05439,9.12048],[36.0348,9.10846],[36.02885,9.05702],[36.04293,9.0161],[36.08732,9.01367],[36.09775,9.03346],[36.07632,9.06368],[36.10933,9.08107],[36.13221,9.02184],[36.16041,9.02171],[36.17757,9.04557],[36.24726,9.04201],[36.18537,9.073],[36.16225,9.10639],[36.20473,9.15838],[36.22971,9.23006],[36.22712,9.27275],[36.19568,9.29],[36.20667,9.35576],[36.23505,9.34803],[36.21537,9.33344],[36.21916,9.29814],[36.25396,9.30285],[36.2759,9.34485],[36.29627,9.30272],[36.31978,9.30687],[36.33455,9.34082],[36.3755,9.35904],[36.4849,9.36888],[36.47598,9.39565],[36.50806,9.42036],[36.49522,9.51037],[36.46196,9.52906],[36.40142,9.51199],[36.38109,9.48149],[36.30181,9.55652],[36.23256,9.57132],[36.15984,9.74792],[36.10607,9.77431],[36.13725,9.80843],[36.12899,9.85319],[36.15313,9.84991],[36.12143,9.97254],[36.18535,10.05062],[36.2597,10.07941],[36.27268,10.11404],[36.37021,10.1626],[36.44614,10.24679],[36.4917,10.23521],[36.55527,10.28601],[36.61136,10.26016],[36.69299,10.29723],[36.68619,10.31853],[36.6626,10.31747],[36.60627,10.36565],[36.54004,10.36591],[36.52124,10.40687],[36.54702,10.45782],[36.52757,10.48382],[36.40979,10.45623],[36.35992,10.53123],[36.31901,10.52892],[36.28243,10.60547],[36.32498,10.66256],[36.31838,10.70451],[36.37678,10.76618],[36.37801,10.78665],[36.34239,10.78973],[36.31157,10.74816],[36.28603,10.74548],[36.28304,10.80476],[36.31092,10.82804],[36.30993,10.86343],[36.41846,11.0016],[36.42336,11.03224],[36.49046,11.0696],[36.52588,11.11358],[36.53484,11.09882],[36.57578,11.10158],[36.55013,11.13868],[36.4684,11.15627],[36.46098,11.22729],[36.47662,11.24552],[36.46794,11.26585],[36.49576,11.2898],[36.55767,11.30297],[36.55721,11.33033],[36.53534,11.33614],[36.56469,11.37219],[36.53389,11.3949],[36.51302,11.45911],[36.41074,11.41475],[36.41034,11.45914],[36.4451,11.49364],[36.37595,11.6085],[36.34921,11.60618],[36.32986,11.7975],[36.30959,11.80404],[36.177,11.68506],[36.14561,11.68644],[36.11914,11.70663],[36.10602,11.8167],[36.05528,11.85012],[36.05716,11.87511],[35.96981,11.95921],[35.9666,11.98538],[35.93607,11.96691],[35.93724,11.92156],[35.87521,11.88674],[35.84905,11.84105],[35.66737,11.82672],[35.66249,11.79419],[35.57736,11.76816],[35.51772,11.71883],[35.47407,11.73699],[35.42256,11.73021],[35.2967,11.79996],[35.27607,11.90507],[35.25787,11.93504]]]]}},{"type":"Feature","properties":{"shapeName":"Dire Dawa","shapeISO":"ET-DD","shapeID":"75662566B22109266514860"},"geometry":{"type":"Polygon","coordinates":[[[42.14316,9.62127],[42.20144,9.65412],[42.25955,9.65256],[42.34069,9.72059],[42.25191,9.78446],[42.21427,9.78471],[42.03172,9.61946],[41.87415,9.68486],[41.80958,9.64153],[41.77473,9.65468],[41.74951,9.63733],[41.72893,9.49003],[41.73552,9.47248],[41.7739,9.49205],[41.91429,9.47346],[41.98343,9.50948],[42.02001,9.50916],[42.07568,9.47471],[42.15351,9.55736],[42.12577,9.6155],[42.14316,9.62127]]]}},{"type":"Feature","properties":{"shapeName":"Gambela","shapeISO":"ET-GA","shapeID":"75662566B92391245038365"},"geometry":{"type":"Polygon","coordinates":[[[35.11679,7.64626],[35.07785,7.73217],[34.99622,7.74914],[34.93273,7.72933],[34.93303,7.82911],[34.95144,7.89144],[35.00137,7.86347],[35.00923,7.92465],[35.04909,7.95558],[35.10931,7.95826],[35.14178,7.99017],[35.11869,8.08372],[35.08984,8.11505],[35.15842,8.13784],[35.13889,8.18295],[35.074,8.22131],[34.82718,8.26305],[34.78655,8.30475],[34.786,8.35635],[34.7295,8.39113],[34.57502,8.40459],[34.55727,8.45624],[34.52343,8.47664],[34.34802,8.37776],[34.31403,8.39104],[34.35896,8.52314],[34.31317,8.68318],[34.28013,8.70992],[34.19037,8.65272],[34.14231,8.65304],[34.1219,8.57615],[34.02117,8.48983],[33.94682,8.49882],[33.89903,8.48167],[33.87795,8.43746],[33.84099,8.43195],[33.77318,8.37069],[33.70129,8.37355],[33.68086,8.44175],[33.62076,8.46967],[33.59814,8.44755],[33.56265,8.46935],[33.49885,8.47204],[33.39609,8.42465],[33.3146,8.46057],[33.29639,8.43781],[33.27524,8.45372],[33.23479,8.42389],[33.21793,8.43352],[33.18984,8.38105],[33.1941,8.35232],[33.2172,8.35638],[33.2155,8.34306],[33.19271,8.33399],[33.19575,8.29901],[33.1707,8.29708],[33.17628,8.25565],[33.20331,8.23497],[33.16654,8.19574],[33.18692,8.12469],[33.12073,8.10791],[33.11934,8.06396],[33.08645,8.07623],[33.0782,8.0258],[33.03709,8.00606],[33.03697,7.9754],[33.00282,7.94126],[33.0144,7.88975],[33.00224,7.88049],[33.05079,7.78845],[33.08907,7.8012],[33.10954,7.78015],[33.16606,7.79657],[33.29573,7.7468],[33.32088,7.70738],[33.43234,7.75259],[33.51562,7.73291],[33.58087,7.68777],[33.62347,7.70895],[33.67306,7.69335],[33.73767,7.62876],[33.79378,7.60581],[33.87199,7.51911],[33.94837,7.50346],[33.94589,7.46917],[34.03394,7.35525],[34.03357,7.27646],[34.01248,7.26092],[34.09979,7.18066],[34.19311,7.13877],[34.19397,7.05614],[34.23279,7.0167],[34.25636,7.02284],[34.32332,6.97481],[34.38399,6.96507],[34.48502,6.90552],[34.5314,6.84396],[34.53666,6.75395],[34.61365,6.73398],[34.62975,6.75036],[34.70851,6.6979],[34.71618,6.66548],[34.78924,6.58489],[34.85698,6.60909],[34.94021,6.54773],[35.01453,6.44624],[34.98726,6.38766],[34.98572,6.30009],[35.01204,6.28155],[35.03902,6.30592],[35.10686,6.32019],[35.13226,6.39678],[35.17925,6.38055],[35.20022,6.41218],[35.17461,6.4678],[35.19842,6.68147],[35.18031,6.72862],[35.08061,6.81204],[34.93441,6.79754],[34.99863,6.8941],[34.91207,6.98938],[34.90283,7.03214],[34.88509,7.03199],[34.89884,7.186],[34.9432,7.19412],[34.97091,7.23524],[35.02156,7.18699],[35.05467,7.18548],[35.11502,7.10336],[35.20532,7.10083],[35.23522,7.13915],[35.30065,7.11699],[35.38111,7.12404],[35.33474,7.18114],[35.37362,7.23223],[35.34657,7.24018],[35.37567,7.29118],[35.39306,7.39738],[35.31031,7.48036],[35.21027,7.47305],[35.19001,7.45681],[35.12316,7.47979],[35.17267,7.53393],[35.16706,7.61604],[35.11639,7.63197],[35.11679,7.64626]]]}},{"type":"Feature","properties":{"shapeName":"Hareri","shapeISO":"ET-HA","shapeID":"75662566B51121866066295"},"geometry":{"type":"Polygon","coordinates":[[[42.25382,9.19072],[42.27295,9.21668],[42.25026,9.27104],[42.27123,9.36267],[42.25391,9.3848],[42.18835,9.36269],[42.13006,9.38967],[42.07138,9.30495],[42.06224,9.22748],[42.11332,9.23176],[42.14947,9.20728],[42.19837,9.22089],[42.24694,9.18802],[42.25382,9.19072]]]}},{"type":"Feature","properties":{"shapeName":"Oromia","shapeISO":"ET-OR","shapeID":"75662566B9273833721501"},"geometry":{"type":"Polygon","coordinates":[[[39.81828,9.13734],[39.74331,9.09229],[39.73414,8.8273],[39.61788,8.78793],[39.56284,8.8189],[39.55264,8.76981],[39.5016,8.71588],[39.45008,8.7533],[39.4186,8.8156],[39.37902,8.79223],[39.37795,8.73196],[39.36192,8.72202],[39.32539,8.74795],[39.29983,8.71958],[39.2713,8.72558],[39.27284,8.78411],[39.2447,8.82874],[39.26638,8.84413],[39.23834,8.86308],[39.26623,8.92344],[39.25945,8.96368],[39.28904,9.00002],[39.2976,9.05431],[39.35786,9.06312],[39.32402,9.14982],[39.25037,9.13662],[39.21549,9.17441],[39.18944,9.21029],[39.21453,9.22915],[39.17859,9.27209],[39.23451,9.29463],[39.26702,9.24551],[39.28558,9.27856],[39.26706,9.28947],[39.26527,9.32521],[39.28629,9.31681],[39.32597,9.38153],[39.35756,9.37004],[39.39571,9.39291],[39.42126,9.37246],[39.4465,9.38492],[39.44856,9.4335],[39.39478,9.45605],[39.37359,9.44783],[39.36394,9.47486],[39.31054,9.46868],[39.29495,9.49274],[39.31379,9.53656],[39.33055,9.52755],[39.36146,9.54706],[39.38967,9.61673],[39.38671,9.63181],[39.3529,9.62304],[39.37097,9.70036],[39.3402,9.7049],[39.34757,9.72612],[39.3213,9.7251],[39.29871,9.74901],[39.22891,9.69469],[39.18502,9.72104],[39.18487,9.68674],[39.14622,9.69433],[39.14015,9.74164],[39.09853,9.73642],[39.09306,9.76406],[38.99095,9.74695],[38.97527,9.76208],[38.95293,9.73964],[38.9611,9.71174],[38.93558,9.72892],[38.91019,9.70971],[38.82974,9.77008],[38.79169,9.88359],[38.80141,9.96316],[38.67465,10.01611],[38.65807,10.0524],[38.7222,10.0524],[38.85344,10.119],[38.83459,10.1628],[38.83612,10.22667],[38.86169,10.27891],[38.84657,10.36195],[38.71348,10.38779],[38.47751,10.36419],[38.47336,10.29274],[38.45503,10.24763],[38.42022,10.22079],[38.42656,10.1727],[38.39833,10.14522],[38.34088,10.15717],[38.32264,10.10814],[38.29611,10.0902],[38.24126,10.10358],[38.15139,10.03608],[38.13177,10.0484],[38.1191,10.01871],[38.08839,10.02121],[38.04441,9.97074],[37.93366,9.94224],[37.9309,9.91555],[37.89385,9.92822],[37.81684,9.86812],[37.70147,9.83769],[37.61904,9.89486],[37.53005,9.99714],[37.44528,10.01552],[37.39909,10.04711],[37.35779,10.04119],[37.33035,10.00681],[37.28852,10.06383],[37.21412,10.08886],[37.16851,10.16422],[37.2007,10.22424],[37.18262,10.2422],[37.01407,10.28587],[36.98072,10.31496],[36.89876,10.31378],[36.87004,10.34162],[36.8074,10.3363],[36.76256,10.36824],[36.69245,10.35825],[36.69299,10.29723],[36.66049,10.27798],[36.61136,10.26016],[36.55527,10.28601],[36.51628,10.24087],[36.44614,10.24679],[36.37021,10.1626],[36.27268,10.11404],[36.2597,10.07941],[36.18535,10.05062],[36.12143,9.97254],[36.15313,9.84991],[36.12899,9.85319],[36.13725,9.80843],[36.10607,9.77431],[36.15984,9.74792],[36.23256,9.57132],[36.30181,9.55652],[36.38109,9.48149],[36.40142,9.51199],[36.46196,9.52906],[36.49522,9.51037],[36.5157,9.44514],[36.47598,9.39565],[36.4849,9.36888],[36.3755,9.35904],[36.33455,9.34082],[36.31978,9.30687],[36.29627,9.30272],[36.2759,9.34485],[36.25396,9.30285],[36.21916,9.29814],[36.21537,9.33344],[36.23505,9.34803],[36.20667,9.35576],[36.19568,9.29],[36.22712,9.27275],[36.22971,9.23006],[36.20473,9.15838],[36.16225,9.10639],[36.18537,9.073],[36.24726,9.04201],[36.17757,9.04557],[36.16041,9.02171],[36.13221,9.02184],[36.10933,9.08107],[36.07632,9.06368],[36.09775,9.03346],[36.08732,9.01367],[36.04293,9.0161],[36.02885,9.05702],[36.0348,9.10846],[36.05439,9.12048],[36.03236,9.23446],[35.9501,9.25018],[35.91186,9.31698],[35.86064,9.32599],[35.79796,9.30964],[35.75752,9.32466],[35.75089,9.4041],[35.7781,9.44115],[35.76577,9.47436],[35.71153,9.48778],[35.64826,9.55431],[35.65421,9.63592],[35.57929,9.66651],[35.5545,9.69711],[35.46919,9.67137],[35.41153,9.71467],[35.36916,9.72028],[35.3796,9.76639],[35.42039,9.78613],[35.36455,9.81402],[35.35056,9.86705],[35.29822,9.92346],[35.23151,9.89423],[35.22156,9.9264],[35.0891,9.95146],[35.08178,9.92289],[35.04927,9.91871],[35.02041,9.92976],[35.01577,9.99616],[34.98894,9.99773],[34.94375,9.93454],[34.90517,9.95685],[34.88854,9.90919],[34.86755,9.90324],[34.89844,9.88273],[34.87048,9.82165],[34.83242,9.8041],[34.79689,9.73723],[34.81161,9.63112],[34.78374,9.55434],[34.73589,9.54631],[34.63276,9.58902],[34.58614,9.63136],[34.54921,9.63066],[34.49948,9.51524],[34.51372,9.44902],[34.45255,9.45013],[34.46701,9.36683],[34.4403,9.21661],[34.34162,9.16982],[34.42758,9.07284],[34.45907,9.07423],[34.50445,9.00519],[34.43139,8.96849],[34.14545,8.9633],[34.14231,8.65304],[34.19037,8.65272],[34.28013,8.70992],[34.31317,8.68318],[34.35896,8.52314],[34.31403,8.39104],[34.34802,8.37776],[34.52343,8.47664],[34.55727,8.45624],[34.57502,8.40459],[34.7295,8.39113],[34.786,8.35635],[34.78655,8.30475],[34.82718,8.26305],[35.074,8.22131],[35.13889,8.18295],[35.15842,8.13784],[35.08984,8.11505],[35.11869,8.08372],[35.14178,7.99017],[35.10931,7.95826],[35.04909,7.95558],[35.00923,7.92465],[35.00137,7.86347],[34.95144,7.89144],[34.93273,7.72933],[34.99622,7.74914],[35.07785,7.73217],[35.11679,7.64626],[35.21308,7.65267],[35.22349,7.70427],[35.34164,7.77777],[35.35062,7.83603],[35.40134,7.83073],[35.4295,7.88198],[35.47507,7.87466],[35.52149,7.89676],[35.54516,7.83215],[35.59039,7.80979],[35.6945,7.86551],[35.74031,7.86778],[35.80069,7.94181],[35.73928,7.98996],[35.72877,8.0407],[35.76654,8.08237],[35.86164,8.07837],[35.9059,7.94716],[35.84939,7.84012],[35.99801,7.74628],[36.05268,7.65507],[36.0361,7.57376],[36.15733,7.5438],[36.22548,7.48557],[36.34945,7.4466],[36.37542,7.41676],[36.4847,7.4172],[36.59912,7.37023],[36.63374,7.37905],[36.67335,7.32924],[36.7919,7.25349],[36.84173,7.32719],[36.87995,7.33089],[36.95626,7.26169],[36.96544,7.22594],[37.04031,7.24122],[37.12939,7.22965],[37.23863,7.31326],[37.33203,7.34464],[37.39109,7.40361],[37.40803,7.49336],[37.44591,7.56549],[37.402,7.68383],[37.40565,7.82841],[37.43752,7.91967],[37.39062,7.96311],[37.3926,7.99404],[37.49161,8.01819],[37.54009,7.955],[37.60364,7.966],[37.59295,8.09426],[37.62249,8.21015],[37.51807,8.23748],[37.46489,8.28353],[37.47219,8.35181],[37.51302,8.41807],[37.55879,8.42661],[37.61278,8.35519],[37.66688,8.38464],[37.70536,8.33814],[37.74878,8.35287],[37.81707,8.33291],[37.86376,8.33681],[37.92881,8.37927],[37.98899,8.36063],[38.02886,8.39138],[38.06753,8.37707],[38.13978,8.41052],[38.18085,8.39397],[38.26714,8.40774],[38.31229,8.37105],[38.30786,8.3008],[38.34817,8.25535],[38.43104,8.29986],[38.47871,8.44845],[38.57662,8.44599],[38.65529,8.39574],[38.66807,8.35159],[38.65179,8.28619],[38.71685,8.22056],[38.68302,8.19154],[38.67368,8.09099],[38.63597,8.13346],[38.59438,8.26131],[38.56158,8.2672],[38.54289,8.24722],[38.5881,8.15736],[38.58478,8.10923],[38.62269,8.06954],[38.61352,8.04443],[38.62854,8.03473],[38.56392,7.88634],[38.44568,7.76069],[38.41326,7.68272],[38.42109,7.62551],[38.40187,7.57987],[38.42649,7.55504],[38.42758,7.5159],[38.32807,7.46286],[38.31974,7.41535],[38.28027,7.38179],[38.26603,7.30792],[38.08779,7.19615],[38.06497,7.04461],[38.11793,6.98214],[38.14741,6.97869],[38.23874,7.02128],[38.32272,7.16295],[38.34302,7.16566],[38.3789,7.13097],[38.46085,7.1194],[38.48085,7.09161],[38.54694,7.09209],[38.58447,7.1275],[38.63117,7.11206],[38.647,7.09676],[38.63778,7.06731],[38.6817,7.04957],[38.67825,7.00658],[38.71133,7.01421],[38.71521,6.99264],[38.6956,6.95872],[38.71492,6.86181],[38.64069,6.81393],[38.6365,6.77296],[38.70638,6.74329],[38.74312,6.70219],[38.81877,6.70486],[38.83859,6.67617],[38.93526,6.65686],[38.95026,6.64506],[38.94252,6.61159],[38.96048,6.60214],[39.06015,6.61004],[39.04929,6.57108],[39.09746,6.52288],[39.12823,6.34563],[39.08681,6.2533],[39.1327,6.16008],[39.03533,6.13874],[38.96144,6.16057],[38.87495,6.30212],[38.75879,6.41034],[38.708,6.39373],[38.56737,6.44173],[38.47611,6.43165],[38.42458,6.36683],[38.43551,6.20006],[38.3778,6.16581],[38.3147,6.02914],[38.27253,5.98789],[38.28308,5.97202],[38.31977,5.97638],[38.39691,5.92137],[38.32615,5.87014],[38.27125,5.86985],[38.20881,5.84152],[38.20455,5.93634],[38.12241,6.01799],[38.08068,6.11829],[38.10312,6.18174],[38.1422,6.15575],[38.18822,6.18351],[38.19874,6.20773],[38.17273,6.25662],[38.18924,6.30554],[38.28905,6.36112],[38.2974,6.41698],[38.24641,6.4695],[38.15604,6.44053],[38.1401,6.50727],[38.11533,6.50083],[38.05241,6.536],[38.01674,6.57687],[37.95348,6.55088],[37.89359,6.59733],[37.80074,6.47945],[37.79827,6.43051],[37.8409,6.38003],[37.85297,6.30607],[37.84108,6.24954],[37.77891,6.1509],[37.78399,6.01191],[37.80455,5.99449],[37.84378,6.01225],[37.90479,5.96182],[37.96939,5.95733],[38.02069,5.79137],[38.0897,5.74694],[38.07598,5.69028],[38.00883,5.6515],[37.94433,5.64081],[37.93099,5.61802],[37.94763,5.47564],[37.89719,5.35125],[37.90163,5.24623],[37.85347,5.23603],[37.81089,5.26968],[37.67504,5.30902],[37.64751,5.30066],[37.63054,5.26739],[37.36798,5.15649],[37.21771,5.21407],[37.11303,5.18766],[36.94976,5.19607],[36.89376,5.11118],[36.8615,4.98017],[36.85553,4.73749],[36.82927,4.7106],[36.64719,4.71219],[36.68163,4.60574],[36.65832,4.58181],[36.71337,4.4407],[36.83959,4.4454],[37.04019,4.36318],[37.12448,4.28424],[38.00335,3.72374],[38.1211,3.61002],[38.43802,3.60278],[38.44958,3.62798],[38.47701,3.61243],[38.51818,3.62785],[38.51442,3.6485],[38.53358,3.65423],[38.57326,3.60489],[38.66325,3.5964],[38.6787,3.62307],[38.71323,3.57063],[38.90848,3.51119],[39.0937,3.53551],[39.28554,3.6246],[39.50052,3.96722],[39.47912,4.04181],[39.54054,4.23664],[39.58663,4.298],[39.74675,4.66801],[39.76592,4.84826],[39.81371,5.00347],[39.94315,5.28636],[40.03454,5.39815],[40.17529,5.35475],[40.53376,5.41201],[40.63393,5.53142],[40.68046,5.54199],[40.69525,5.56852],[40.83308,5.65724],[40.92317,5.68471],[40.87567,5.80922],[40.86731,6.13495],[40.8825,6.24563],[40.86124,6.43747],[40.90094,6.5129],[41.01642,6.64581],[41.07296,6.69557],[41.13191,6.6925],[41.22936,6.62426],[41.43868,6.54522],[41.62058,6.36299],[41.69123,6.43068],[41.75878,6.54179],[41.82056,6.57173],[41.85457,6.57016],[41.86163,6.5366],[41.88888,6.5366],[42.00044,6.5911],[42.00008,6.64286],[42.05644,6.74999],[42.07714,6.88796],[42.16355,7.00833],[42.15852,7.05254],[42.20561,7.14224],[42.21076,7.2652],[42.20002,7.29263],[41.89703,7.41238],[41.86801,7.53394],[41.95805,7.77593],[41.91331,7.84554],[41.94931,8.202],[42.02796,8.32412],[42.02691,8.42692],[42.07063,8.49506],[42.24058,8.64095],[42.26399,8.63702],[42.32395,8.53785],[42.52106,8.47979],[42.56795,8.25671],[42.6169,8.16071],[42.65233,8.13079],[42.70252,8.18072],[42.76909,8.36426],[42.89977,8.41019],[42.90625,8.58329],[42.83291,8.69629],[42.86626,8.82616],[42.73156,8.94906],[42.64527,9.07401],[42.60027,9.1072],[42.63562,9.15954],[42.58451,9.2164],[42.53837,9.37398],[42.64181,9.44846],[42.77721,9.51288],[42.81456,9.57357],[42.86499,9.58757],[42.92195,9.5661],[42.96957,9.59318],[42.97891,9.62959],[42.95183,9.67347],[42.93596,9.68094],[42.90888,9.65106],[42.85472,9.6632],[42.73146,9.72202],[42.69504,9.76964],[42.66472,9.77752],[42.49988,9.72203],[42.34069,9.72059],[42.25955,9.65256],[42.18129,9.64532],[42.12577,9.6155],[42.15351,9.55736],[42.07568,9.47471],[42.03263,9.50539],[41.98343,9.50948],[41.91429,9.47346],[41.7739,9.49205],[41.70318,9.46765],[41.65506,9.48223],[41.6435,9.51614],[41.54151,9.50058],[41.49187,9.45842],[41.30959,9.50407],[41.24021,9.49979],[41.14634,9.42563],[41.01496,9.35821],[40.84499,9.30581],[40.81345,9.31194],[40.78971,9.3879],[40.8921,9.39054],[40.9284,9.40614],[40.91841,9.42284],[40.86307,9.46402],[40.69945,9.44865],[40.66043,9.40531],[40.52929,9.38646],[40.4719,9.35577],[40.32789,9.15569],[40.24637,9.0759],[40.23868,8.99838],[40.17076,8.96554],[40.09536,8.86322],[40.05206,8.84168],[40.01127,8.85714],[40.04833,8.97893],[40.0228,9.00332],[39.94849,9.00464],[39.90988,9.13283],[39.84987,9.13916],[39.81828,9.13734]],[[38.81339,8.84107],[38.7573,8.8543],[38.74443,8.90364],[38.64024,8.97508],[38.66022,8.98645],[38.65278,9.01133],[38.66787,9.01107],[38.68625,9.07407],[38.71748,9.08879],[38.77209,9.09923],[38.79215,9.07872],[38.86906,9.08595],[38.8828,9.0696],[38.90584,9.01054],[38.90194,8.94719],[38.8564,8.93934],[38.88029,8.91937],[38.87833,8.89684],[38.86956,8.87409],[38.82684,8.88124],[38.81833,8.84035],[38.81339,8.84107]],[[36.2487,8.97458],[36.22292,8.95125],[36.17507,8.98047],[36.22182,8.98959],[36.2487,8.97458]],[[42.25382,9.19072],[42.23463,9.18693],[42.19837,9.22089],[42.14947,9.20728],[42.11332,9.23176],[42.06224,9.22748],[42.07138,9.30495],[42.13006,9.38967],[42.18835,9.36269],[42.25391,9.3848],[42.27123,9.36267],[42.25122,9.28654],[42.27295,9.21668],[42.26036,9.19329],[42.25382,9.19072]]]}},{"type":"Feature","properties":{"shapeName":"SNNPR","shapeISO":"ET-SN","shapeID":"75662566B72302855928957"},"geometry":{"type":"Polygon","coordinates":[[[34.98572,6.30009],[34.94972,6.2533],[34.96677,6.20223],[34.95871,6.12124],[35.00271,6.00395],[34.99164,5.8967],[35.12182,5.69212],[35.12202,5.62165],[35.30099,5.49767],[35.28582,5.38411],[35.30086,5.33385],[35.40726,5.36106],[35.4804,5.41239],[35.53408,5.41879],[35.74117,5.37106],[35.85838,5.31083],[35.82301,5.24944],[35.85865,5.16589],[35.80853,5.08792],[35.78706,4.73288],[35.96613,4.51296],[36.04985,4.45083],[36.71337,4.4407],[36.65832,4.58181],[36.68163,4.60574],[36.64719,4.71219],[36.82927,4.7106],[36.85553,4.73749],[36.8615,4.98017],[36.89376,5.11118],[36.94976,5.19607],[37.11303,5.18766],[37.21771,5.21407],[37.36798,5.15649],[37.63054,5.26739],[37.64751,5.30066],[37.67504,5.30902],[37.81089,5.26968],[37.85347,5.23603],[37.90163,5.24623],[37.89719,5.35125],[37.94763,5.47564],[37.93099,5.61802],[37.94433,5.64081],[38.00883,5.6515],[38.07598,5.69028],[38.0897,5.74694],[38.02069,5.79137],[37.96939,5.95733],[37.90479,5.96182],[37.84378,6.01225],[37.80455,5.99449],[37.78399,6.01191],[37.77891,6.1509],[37.84108,6.24954],[37.85297,6.30607],[37.8409,6.38003],[37.79827,6.43051],[37.80074,6.47945],[37.8723,6.58349],[37.91343,6.59193],[37.95348,6.55088],[38.01674,6.57687],[38.05241,6.536],[38.1505,6.49786],[38.15604,6.44053],[38.24641,6.4695],[38.2974,6.41698],[38.28905,6.36112],[38.18924,6.30554],[38.17273,6.25662],[38.19874,6.20773],[38.18822,6.18351],[38.1422,6.15575],[38.10312,6.18174],[38.08068,6.11829],[38.12241,6.01799],[38.20455,5.93634],[38.20881,5.84152],[38.27125,5.86985],[38.32615,5.87014],[38.39691,5.92137],[38.31977,5.97638],[38.28308,5.97202],[38.27253,5.98789],[38.3147,6.02914],[38.3778,6.16581],[38.43551,6.20006],[38.42458,6.36683],[38.47611,6.43165],[38.56737,6.44173],[38.708,6.39373],[38.75879,6.41034],[38.87495,6.30212],[38.96144,6.16057],[39.03533,6.13874],[39.1327,6.16008],[39.08681,6.2533],[39.12823,6.34563],[39.09746,6.52288],[39.04929,6.57108],[39.06015,6.61004],[38.96048,6.60214],[38.94252,6.61159],[38.95026,6.64506],[38.93526,6.65686],[38.83859,6.67617],[38.81877,6.70486],[38.74312,6.70219],[38.70638,6.74329],[38.6365,6.77296],[38.64069,6.81393],[38.71492,6.86181],[38.6956,6.95872],[38.71521,6.99264],[38.71133,7.01421],[38.67825,7.00658],[38.6817,7.04957],[38.63778,7.06731],[38.647,7.09676],[38.63117,7.11206],[38.58447,7.1275],[38.54694,7.09209],[38.48085,7.09161],[38.46085,7.1194],[38.3789,7.13097],[38.34302,7.16566],[38.32272,7.16295],[38.23874,7.02128],[38.14741,6.97869],[38.11793,6.98214],[38.06497,7.04461],[38.08779,7.19615],[38.26603,7.30792],[38.28027,7.38179],[38.31974,7.41535],[38.32807,7.46286],[38.42758,7.5159],[38.42649,7.55504],[38.40187,7.57987],[38.42109,7.62551],[38.41326,7.68272],[38.44568,7.76069],[38.56392,7.88634],[38.62854,8.03473],[38.61352,8.04443],[38.62269,8.06954],[38.58478,8.10923],[38.5881,8.15736],[38.54289,8.24722],[38.56158,8.2672],[38.59438,8.26131],[38.63597,8.13346],[38.67368,8.09099],[38.68302,8.19154],[38.71685,8.22056],[38.65179,8.28619],[38.66807,8.35159],[38.65529,8.39574],[38.57662,8.44599],[38.47871,8.44845],[38.43104,8.29986],[38.34817,8.25535],[38.30786,8.3008],[38.31229,8.37105],[38.26714,8.40774],[38.18085,8.39397],[38.13978,8.41052],[38.06753,8.37707],[38.02886,8.39138],[37.98899,8.36063],[37.92881,8.37927],[37.86376,8.33681],[37.81707,8.33291],[37.74878,8.35287],[37.70536,8.33814],[37.66688,8.38464],[37.61278,8.35519],[37.55879,8.42661],[37.51302,8.41807],[37.47219,8.35181],[37.46489,8.28353],[37.51807,8.23748],[37.62249,8.21015],[37.59295,8.09426],[37.60364,7.966],[37.54009,7.955],[37.49161,8.01819],[37.3926,7.99404],[37.39062,7.96311],[37.43752,7.91967],[37.40565,7.82841],[37.402,7.68383],[37.44591,7.56549],[37.40803,7.49336],[37.39109,7.40361],[37.33203,7.34464],[37.26307,7.32663],[37.15498,7.24187],[37.10563,7.2257],[37.04031,7.24122],[36.96544,7.22594],[36.95626,7.26169],[36.87995,7.33089],[36.84173,7.32719],[36.7919,7.25349],[36.67335,7.32924],[36.63374,7.37905],[36.59912,7.37023],[36.4847,7.4172],[36.37542,7.41676],[36.34945,7.4466],[36.22548,7.48557],[36.15733,7.5438],[36.04584,7.56666],[36.03326,7.59263],[36.05268,7.65507],[35.99801,7.74628],[35.84939,7.84012],[35.9059,7.94716],[35.87349,8.05991],[35.86164,8.07837],[35.76654,8.08237],[35.72362,8.0236],[35.80049,7.93375],[35.74031,7.86778],[35.6945,7.86551],[35.59039,7.80979],[35.54516,7.83215],[35.52149,7.89676],[35.47507,7.87466],[35.43429,7.88391],[35.40134,7.83073],[35.35062,7.83603],[35.34164,7.77777],[35.22349,7.70427],[35.21308,7.65267],[35.11679,7.64626],[35.11639,7.63197],[35.16706,7.61604],[35.17267,7.53393],[35.12316,7.47979],[35.19001,7.45681],[35.21027,7.47305],[35.31031,7.48036],[35.39306,7.39738],[35.37567,7.29118],[35.34657,7.24018],[35.37362,7.23223],[35.33474,7.18114],[35.38111,7.12404],[35.30065,7.11699],[35.23522,7.13915],[35.20532,7.10083],[35.11502,7.10336],[35.05467,7.18548],[35.02156,7.18699],[34.97091,7.23524],[34.9432,7.19412],[34.89884,7.186],[34.88509,7.03199],[34.90283,7.03214],[34.91207,6.98938],[34.99863,6.8941],[34.93441,6.79754],[35.08061,6.81204],[35.18031,6.72862],[35.19842,6.68147],[35.17461,6.4678],[35.20022,6.41218],[35.17925,6.38055],[35.13226,6.39678],[35.10686,6.32019],[35.03902,6.30592],[35.01204,6.28155],[34.98572,6.30009]]]}},{"type":"Feature","properties":{"shapeName":"Somali","shapeISO":"ET-SO","shapeID":"75662566B32417772325798"},"geometry":{"type":"Polygon","coordinates":[[[40.69444,9.44538],[40.84325,9.46459],[40.89088,9.44965],[40.9284,9.40614],[40.78971,9.3879],[40.81345,9.31194],[40.84499,9.30581],[41.01496,9.35821],[41.14634,9.42563],[41.24021,9.49979],[41.30959,9.50407],[41.49187,9.45842],[41.54151,9.50058],[41.6435,9.51614],[41.6711,9.47163],[41.72285,9.46853],[41.74951,9.63733],[41.77473,9.65468],[41.80958,9.64153],[41.87415,9.68486],[42.03172,9.61946],[42.21427,9.78471],[42.25191,9.78446],[42.34069,9.72059],[42.37749,9.71481],[42.49988,9.72203],[42.68197,9.77524],[42.73146,9.72202],[42.85472,9.6632],[42.90888,9.65106],[42.93596,9.68094],[42.97891,9.62959],[42.96957,9.59318],[42.90981,9.56423],[42.86499,9.58757],[42.81456,9.57357],[42.77721,9.51288],[42.64181,9.44846],[42.53837,9.37398],[42.58451,9.2164],[42.63562,9.15954],[42.60027,9.1072],[42.64527,9.07401],[42.73156,8.94906],[42.86626,8.82616],[42.83291,8.69629],[42.90625,8.58329],[42.89977,8.41019],[42.76909,8.36426],[42.70252,8.18072],[42.65233,8.13079],[42.57902,8.22964],[42.53069,8.45592],[42.50348,8.49316],[42.32395,8.53785],[42.26399,8.63702],[42.24058,8.64095],[42.07063,8.49506],[42.02691,8.42692],[42.02796,8.32412],[41.94931,8.202],[41.91331,7.84554],[41.95805,7.77593],[41.86801,7.53394],[41.89703,7.41238],[42.20002,7.29263],[42.21075,7.2281],[42.20561,7.14224],[42.15852,7.05254],[42.16355,7.00833],[42.07714,6.88796],[42.05644,6.74999],[42.00008,6.64286],[42.00494,6.59888],[41.88888,6.5366],[41.86163,6.5366],[41.85457,6.57016],[41.82056,6.57173],[41.75878,6.54179],[41.69123,6.43068],[41.62058,6.36299],[41.43868,6.54522],[41.22936,6.62426],[41.13191,6.6925],[41.07296,6.69557],[40.90094,6.5129],[40.86124,6.43747],[40.8825,6.24563],[40.86731,6.13495],[40.87567,5.80922],[40.92317,5.68471],[40.83308,5.65724],[40.69525,5.56852],[40.68046,5.54199],[40.63393,5.53142],[40.53376,5.41201],[40.17529,5.35475],[40.03454,5.39815],[39.94315,5.28636],[39.81371,5.00347],[39.76592,4.84826],[39.74675,4.66801],[39.58663,4.298],[39.54054,4.23664],[39.47912,4.04181],[39.50052,3.96722],[39.28554,3.6246],[39.0937,3.53551],[39.2013,3.48064],[39.49454,3.45901],[39.52826,3.40037],[39.55974,3.41398],[39.58274,3.47965],[39.77189,3.66989],[39.86274,3.86559],[40.19163,4.03756],[40.38544,4.10252],[40.77606,4.27866],[41.05788,4.02793],[41.17302,3.96317],[41.21603,3.97642],[41.5567,3.9572],[41.90157,3.98678],[41.98339,4.05055],[42.01465,4.09931],[42.07908,4.13271],[42.20481,4.1629],[42.39707,4.16479],[42.54681,4.18783],[42.75671,4.25204],[42.94889,4.3966],[43.03396,4.556],[43.16351,4.65962],[43.3984,4.78548],[43.55268,4.83269],[44.02991,4.94105],[44.6792,4.9145],[44.90414,4.91411],[45.00263,4.9336],[47.95926,8.01369],[47.00034,7.9862],[44.15732,8.93899],[44.0622,8.98698],[43.97646,9.03802],[43.80496,9.19835],[43.68319,9.2801],[43.62542,9.3471],[43.5472,9.4019],[43.49778,9.40907],[43.4164,9.47785],[43.27593,9.70202],[43.2523,9.82919],[43.20067,9.88137],[43.09919,9.92237],[43.0639,9.99746],[42.85697,10.22649],[42.71691,10.53208],[42.70781,10.61987],[42.79747,10.79285],[42.94435,10.98634],[42.85307,11.00344],[42.76054,11.06822],[42.70204,11.08213],[42.57969,11.06813],[42.40529,11.00547],[42.2387,11.00119],[42.03546,10.96371],[41.90498,10.95328],[41.76982,10.99207],[41.71852,10.96565],[41.26906,10.95872],[41.24165,10.92223],[41.22096,10.83534],[41.07816,10.68204],[41.08793,10.60146],[40.93744,10.03619],[40.9667,9.97264],[41.02046,9.94978],[40.82645,9.76443],[40.74958,9.65228],[40.69387,9.49989],[40.69444,9.44538]]]}},{"type":"Feature","properties":{"shapeName":"Tigray","shapeISO":"ET-TI","shapeID":"75662566B45163836206557"},"geometry":{"type":"Polygon","coordinates":[[[39.98514,14.43291],[39.92464,14.41557],[39.8575,14.4726],[39.81406,14.48294],[39.76766,14.54133],[39.71021,14.55193],[39.68117,14.58931],[39.63856,14.59899],[39.5921,14.6627],[39.50355,14.67756],[39.47841,14.60419],[39.50126,14.54437],[39.49399,14.50944],[39.47351,14.49882],[39.45413,14.52744],[39.36957,14.53888],[39.37202,14.49519],[39.34088,14.51188],[39.32491,14.49884],[39.32079,14.44251],[39.26159,14.39368],[39.20935,14.49362],[39.2395,14.56645],[39.20119,14.6116],[39.12553,14.61399],[39.0816,14.63707],[39.02438,14.63293],[38.97559,14.54216],[38.90574,14.50176],[38.84925,14.49626],[38.7949,14.46379],[38.7038,14.46586],[38.59523,14.43915],[38.51671,14.40566],[38.44826,14.411],[38.42163,14.46432],[38.36308,14.48734],[38.30877,14.58568],[38.26535,14.61469],[38.26193,14.6677],[38.18825,14.68971],[38.14011,14.66785],[38.09239,14.70719],[38.04121,14.71716],[37.98876,14.8085],[37.9753,14.80218],[37.97189,14.831],[37.94113,14.84602],[37.8765,14.80042],[37.83346,14.8057],[37.78269,14.73544],[37.77439,14.63095],[37.74237,14.643],[37.67157,14.50474],[37.57336,14.45596],[37.54962,14.44672],[37.43057,14.48079],[37.34485,14.40963],[37.30009,14.44522],[37.21282,14.43752],[37.12966,14.39962],[37.09457,14.27227],[37.01833,14.25119],[36.97005,14.28768],[36.86408,14.31841],[36.74729,14.3183],[36.68659,14.2965],[36.62961,14.30819],[36.55355,14.27744],[36.56253,14.26121],[36.54387,14.25128],[36.54133,14.19868],[36.46361,13.97159],[36.49988,13.84742],[36.45198,13.76934],[36.48464,13.72775],[36.4766,13.70107],[36.50519,13.66578],[36.52036,13.58617],[36.55549,13.57194],[36.56551,13.53366],[36.60193,13.49909],[36.56722,13.44687],[36.60561,13.3783],[36.73547,13.36375],[36.8256,13.44891],[36.92,13.3775],[37.03577,13.35394],[37.07919,13.31249],[37.15856,13.29848],[37.20553,13.25639],[37.25133,13.29567],[37.32265,13.29786],[37.36606,13.36052],[37.5186,13.36715],[37.63792,13.41456],[37.69497,13.47309],[37.71525,13.54267],[37.7769,13.63415],[37.78498,13.58837],[37.76985,13.56325],[37.80984,13.51975],[37.81774,13.46384],[37.86723,13.47579],[37.90493,13.44771],[38.00201,13.50176],[38.06028,13.46785],[38.12183,13.50696],[38.14603,13.47234],[38.17456,13.4941],[38.20174,13.4808],[38.2488,13.50232],[38.27976,13.48618],[38.3207,13.50281],[38.32873,13.55098],[38.40735,13.54006],[38.44165,13.58505],[38.45447,13.5576],[38.55479,13.55096],[38.54331,13.52646],[38.49765,13.50745],[38.4991,13.48511],[38.46825,13.48556],[38.46184,13.46022],[38.59096,13.50678],[38.61489,13.49134],[38.663,13.53183],[38.67728,13.4841],[38.63413,13.47337],[38.6187,13.42899],[38.64949,13.39719],[38.73398,13.39948],[38.73244,13.26295],[38.86396,13.21018],[38.9526,13.23819],[38.95668,13.21269],[38.99822,13.20408],[39.04246,13.16219],[39.03779,13.13492],[38.97946,13.09965],[39.00107,13.00414],[39.05447,12.99137],[39.08372,12.95997],[39.25959,12.91539],[39.27988,12.85696],[39.30769,12.86702],[39.27855,12.82674],[39.30808,12.81236],[39.30446,12.79403],[39.26852,12.77205],[39.28134,12.68873],[39.17526,12.64421],[39.23063,12.50182],[39.25205,12.34488],[39.29173,12.29683],[39.42038,12.29735],[39.45643,12.32578],[39.50831,12.3336],[39.54414,12.26577],[39.57341,12.25668],[39.61508,12.27649],[39.63314,12.30841],[39.75942,12.32071],[39.76242,12.30401],[39.81848,12.32478],[39.83175,12.35825],[39.8158,12.40781],[39.86399,12.46409],[39.88345,12.4584],[39.86407,12.53218],[39.80761,12.59701],[39.83345,12.6351],[39.82698,12.69446],[39.88952,12.75649],[39.97886,12.7929],[39.92608,12.89447],[39.86324,12.96272],[39.86393,13.0204],[39.78662,13.26338],[39.76819,13.28594],[39.7206,13.29522],[39.74258,13.35195],[39.7304,13.37947],[39.74663,13.37478],[39.72039,13.47634],[39.74033,13.5638],[39.86478,13.54881],[39.88495,13.74888],[39.85407,13.76714],[39.83458,13.82201],[39.83416,13.91902],[39.80253,13.94622],[39.83008,13.97489],[39.86004,13.96639],[39.88682,14.01281],[39.84488,14.05086],[39.8385,14.1548],[39.76801,14.14064],[39.65084,14.18921],[39.69496,14.2419],[39.75818,14.24043],[39.75848,14.27776],[39.72712,14.30355],[39.78008,14.33111],[39.77293,14.37443],[39.80183,14.38776],[39.95115,14.361],[39.99173,14.38254],[39.98473,14.42418],[39.98514,14.43291]]]}}]}
