{"type":"FeatureCollection","crs":{"type":"name","properties":{"name":"urn:ogc:def:crs:OGC:1.3:CRS84"}},"features":[{"type":"Feature","properties":{"shapeName":"Turkana","shapeISO":"KE-43","shapeID":"32016919B72266624462344"},"geometry":{"type":"Polygon","coordinates":[[[36.05061,4.45622],[35.94395,4.54803],[35.94935,4.62856],[35.81215,4.78241],[35.81184,5.09573],[35.86193,5.15736],[35.86412,5.18254],[35.82771,5.24222],[35.86322,5.32012],[35.77394,5.34715],[35.75086,5.37332],[35.72216,5.37185],[35.71659,5.39117],[35.61804,5.38051],[35.61666,5.40392],[35.60062,5.39836],[35.55983,5.42292],[35.29179,5.43065],[35.19461,5.27668],[34.36576,4.57663],[33.99281,4.22247],[34.04857,4.17834],[34.06702,4.14217],[34.05085,4.12078],[34.09313,4.06871],[34.09035,4.0376],[34.05979,4.02793],[34.06196,4.00937],[34.13439,3.96165],[34.11944,3.90205],[34.09124,3.88557],[34.08846,3.86161],[34.21556,3.88155],[34.22539,3.83083],[34.17952,3.83165],[34.15317,3.80722],[34.18864,3.79539],[34.1718,3.76768],[34.24554,3.78426],[34.30775,3.71241],[34.30257,3.68611],[34.32421,3.72741],[34.36992,3.73507],[34.40313,3.69287],[34.46303,3.66959],[34.45099,3.5188],[34.4235,3.49152],[34.38877,3.49192],[34.41667,3.45052],[34.40063,3.37131],[34.42924,3.34312],[34.44773,3.28287],[34.45544,3.18276],[34.49474,3.14146],[34.51328,3.15108],[34.54759,3.13881],[34.57547,3.09925],[34.59908,2.92609],[34.64014,2.90762],[34.65346,2.86751],[34.69267,2.86293],[34.70229,2.87807],[34.76661,2.82256],[34.78385,2.74992],[34.77489,2.69781],[34.85194,2.58355],[34.86733,2.57082],[34.8794,2.5896],[34.89699,2.58809],[34.91266,2.51675],[34.93182,2.51661],[34.95269,2.47245],[34.94082,2.45311],[35.01168,2.40359],[35.02213,2.44333],[34.99701,2.47866],[35.01614,2.56765],[35.06916,2.4627],[35.10749,2.50515],[35.10484,2.55476],[35.13235,2.64892],[35.17439,2.63681],[35.22493,2.52992],[35.23213,2.35122],[35.27114,2.31973],[35.29804,2.27069],[35.3658,2.03621],[35.37917,1.94801],[35.36503,1.92894],[35.46365,1.84233],[35.46354,1.80817],[35.50992,1.76389],[35.60182,1.75824],[35.79194,1.66362],[36.09659,1.16941],[36.17396,1.17086],[36.31688,0.99126],[36.34037,0.99313],[36.35007,0.96613],[36.38784,0.94825],[36.39206,0.91877],[36.44267,0.97107],[36.43956,1.00252],[36.45937,0.97845],[36.43732,1.08647],[36.4423,1.17292],[36.41864,1.18662],[36.39223,1.17317],[36.38699,1.18662],[36.39397,1.22001],[36.42163,1.2367],[36.4134,1.25962],[36.38774,1.26336],[36.39497,1.27681],[36.44629,1.25115],[36.45351,1.26161],[36.43782,1.30272],[36.41938,1.2945],[36.39048,1.31294],[36.45825,1.36875],[36.46647,1.39864],[36.4276,1.40811],[36.38948,1.44498],[36.35585,1.43601],[36.31823,1.4699],[36.28858,1.46392],[36.29606,1.53318],[36.3399,1.57803],[36.36009,1.57205],[36.36681,1.59572],[36.37205,1.54788],[36.39347,1.52272],[36.44031,1.61565],[36.46547,1.61465],[36.48416,1.70285],[36.52527,1.75492],[36.50758,1.77136],[36.51655,1.76513],[36.5295,1.80524],[36.51356,1.81596],[36.52303,1.84635],[36.51157,1.8765],[36.53648,1.89867],[36.53623,1.9637],[36.52652,1.95349],[36.54485,2.0305],[36.56811,2.05801],[36.56354,2.10381],[36.61089,2.16324],[36.70078,2.19884],[36.72371,2.30097],[36.60096,2.36001],[36.59072,2.4141],[36.5591,2.39707],[36.53768,2.40776],[36.52271,2.44837],[36.52847,2.52222],[36.51298,2.56069],[36.43676,2.63355],[36.44588,2.70515],[36.42706,2.71967],[36.3789,2.83832],[36.35877,2.86077],[36.28164,2.89121],[36.2537,2.96516],[36.24658,2.94912],[36.12399,2.97952],[36.15323,3.08584],[36.1408,3.15375],[36.15355,3.21691],[36.1317,3.21112],[36.05209,3.24057],[36.04982,4.05662],[36.05061,4.45622]]]}},{"type":"Feature","properties":{"shapeName":"Marsabit","shapeISO":"KE-25","shapeID":"32016919B63496705134089"},"geometry":{"type":"Polygon","coordinates":[[[36.60089,2.40574],[36.60889,2.39656],[36.62212,2.41547],[36.63922,2.41098],[36.63791,2.39183],[36.6435,2.41828],[36.68435,2.45793],[36.6986,2.45512],[36.69972,2.51237],[36.7567,2.51606],[36.84352,2.27476],[36.89694,2.19173],[36.91999,2.09953],[36.91576,2.01802],[36.95001,2.02511],[37.00716,1.9851],[37.09668,1.98325],[37.17953,1.95918],[37.19086,1.93042],[37.26598,1.87876],[37.30611,1.76545],[37.35055,1.74214],[37.57943,1.36528],[37.59805,1.39155],[37.62146,1.37694],[37.65292,1.40088],[37.84174,1.42548],[37.85212,1.45906],[37.95062,1.38696],[37.94529,1.26288],[38.33966,1.57742],[38.38317,1.76128],[38.96255,2.09739],[38.93584,2.1612],[38.93474,2.37276],[38.88861,2.54265],[38.9767,2.56691],[39.04342,2.67602],[39.03593,2.68986],[39.06599,2.73758],[39.06507,2.88231],[39.11182,2.88335],[39.12356,2.93132],[39.14741,2.95283],[39.20217,2.95691],[39.34676,3.07008],[39.34174,3.25536],[39.29975,3.44071],[39.31812,3.47197],[39.19309,3.48002],[39.19027,3.4941],[39.08836,3.54129],[39.01998,3.51403],[38.96709,3.52387],[38.95858,3.50891],[38.90434,3.50587],[38.71378,3.56558],[38.68228,3.62018],[38.66538,3.58722],[38.61134,3.60757],[38.57609,3.60113],[38.53428,3.64919],[38.51571,3.64462],[38.52234,3.62222],[38.44759,3.59758],[38.18107,3.61578],[38.12815,3.60076],[37.98958,3.72918],[37.13198,4.29377],[37.04772,4.37623],[37.03218,4.38574],[37.02046,4.37191],[36.84259,4.44996],[36.05061,4.45622],[36.05209,3.24057],[36.1317,3.21112],[36.15355,3.21691],[36.1408,3.15375],[36.15323,3.08584],[36.12399,2.97952],[36.24658,2.94912],[36.2537,2.96516],[36.28164,2.89121],[36.35877,2.86077],[36.3789,2.83832],[36.42706,2.71967],[36.44588,2.70515],[36.43676,2.63355],[36.51298,2.56069],[36.52847,2.52222],[36.52271,2.44837],[36.53768,2.40776],[36.5591,2.39707],[36.59072,2.4141],[36.60089,2.40574]]]}},{"type":"Feature","properties":{"shapeName":"Mandera","shapeISO":"KE-24","shapeID":"32016919B2031803566233"},"geometry":{"type":"Polygon","coordinates":[[[40.99195,2.17919],[40.99252,2.82475],[41.32827,3.15373],[41.90626,3.97638],[41.83534,3.94507],[41.79887,3.95882],[41.79393,3.98313],[41.75531,3.97459],[41.7191,3.99537],[41.67643,3.96009],[41.6358,3.98654],[41.56628,3.9693],[41.54972,3.98563],[41.51274,3.95523],[41.50107,3.96971],[41.41941,3.95005],[41.39519,3.96583],[41.32763,3.94196],[41.23947,3.96041],[41.20691,3.93573],[41.17231,3.94304],[41.10466,3.98795],[41.10539,4.00775],[40.99956,4.11226],[40.90629,4.15762],[40.8856,4.21442],[40.84797,4.24904],[40.76178,4.28305],[40.72732,4.25204],[40.39499,4.11387],[40.19006,4.0454],[40.1562,4.01366],[39.86773,3.8675],[39.77526,3.6681],[39.78684,3.33346],[40.04419,3.22425],[40.26974,2.97062],[40.49295,2.8681],[40.50444,2.81142],[40.49332,2.79963],[40.52221,2.7756],[40.50266,2.71649],[40.61635,2.46179],[40.66103,2.42908],[40.66771,2.3909],[40.7198,2.32801],[40.83873,2.27473],[40.91567,2.19147],[40.96404,2.17629],[40.99195,2.17919]]]}},{"type":"Feature","properties":{"shapeName":"Wajir","shapeISO":"KE-46","shapeID":"32016919B89873713911655"},"geometry":{"type":"Polygon","coordinates":[[[38.96255,2.09739],[38.98531,2.06964],[38.99419,2.00958],[39.06848,1.9146],[39.13109,1.8662],[39.21385,1.69736],[39.30831,1.65453],[39.39997,1.55298],[39.44717,1.52721],[39.27426,1.4678],[39.46069,0.99468],[39.49249,0.96216],[39.56354,0.7572],[39.73286,0.52594],[39.79968,0.4828],[39.90498,0.46208],[39.97908,0.40971],[40.05962,0.3926],[40.16091,0.32591],[40.23345,0.25256],[40.33131,0.19941],[40.40221,0.18387],[40.50727,0.19281],[40.53318,0.22629],[40.58616,0.2154],[40.64768,0.23211],[40.68179,0.25844],[40.71574,0.32009],[40.77314,0.35405],[40.86264,0.37893],[40.99178,0.46442],[40.99195,2.17919],[40.91567,2.19147],[40.83873,2.27473],[40.73262,2.31782],[40.67731,2.37524],[40.66103,2.42908],[40.63364,2.44205],[40.59198,2.5013],[40.50266,2.71649],[40.52221,2.7756],[40.49332,2.79963],[40.50444,2.81142],[40.49295,2.8681],[40.26974,2.97062],[40.04419,3.22425],[39.78684,3.33346],[39.77526,3.6681],[39.60941,3.50109],[39.55299,3.4661],[39.44243,3.45616],[39.31812,3.47197],[39.30453,3.45582],[39.34174,3.25536],[39.34676,3.07008],[39.20217,2.95691],[39.14741,2.95283],[39.12356,2.93132],[39.11182,2.88335],[39.06507,2.88231],[39.06599,2.73758],[39.03593,2.68986],[39.04342,2.67602],[38.9767,2.56691],[38.88861,2.54265],[38.93474,2.37276],[38.92609,2.28411],[38.95419,2.10622],[38.96255,2.09739]]]}},{"type":"Feature","properties":{"shapeName":"West Pokot","shapeISO":"KE-47","shapeID":"32016919B96045830258165"},"geometry":{"type":"Polygon","coordinates":[[[34.94278,2.45547],[34.90037,2.43989],[34.87907,2.39788],[34.9751,2.16294],[34.99235,2.09288],[34.96375,2.06367],[34.98386,1.98062],[35.02585,1.92418],[35.00049,1.83833],[34.98782,1.66525],[34.94221,1.57622],[34.88681,1.55582],[34.86357,1.52663],[34.85842,1.45263],[34.78856,1.41632],[34.80399,1.37337],[34.79324,1.36081],[34.82922,1.31132],[34.82229,1.26259],[34.91066,1.2842],[34.90607,1.25208],[35.01207,1.25424],[35.04445,1.21541],[35.04169,1.19446],[35.08308,1.1692],[35.08704,1.18332],[35.15214,1.19937],[35.32454,1.11645],[35.54386,1.28514],[35.60802,1.28006],[35.69595,1.31901],[35.68702,1.35723],[35.71091,1.40077],[35.70575,1.43838],[35.78274,1.5598],[35.79316,1.62363],[35.77635,1.64355],[35.79194,1.66362],[35.60182,1.75824],[35.50992,1.76389],[35.46354,1.80817],[35.46365,1.84233],[35.36503,1.92894],[35.37917,1.94801],[35.3658,2.03621],[35.29804,2.27069],[35.27114,2.31973],[35.23213,2.35122],[35.22493,2.52992],[35.17439,2.63681],[35.13235,2.64892],[35.10484,2.55476],[35.10749,2.50515],[35.06916,2.4627],[35.01614,2.56765],[34.99701,2.47866],[35.02213,2.44333],[35.01168,2.40359],[34.94082,2.45311],[34.94278,2.45547]]]}},{"type":"Feature","properties":{"shapeName":"Samburu","shapeISO":"KE-37","shapeID":"32016919B77230315601578"},"geometry":{"type":"Polygon","coordinates":[[[36.39206,0.91877],[36.48454,0.85268],[36.48241,0.8135],[36.70841,0.81436],[36.75614,0.8584],[36.79335,0.8694],[36.81561,0.85594],[36.86581,0.73765],[36.88107,0.73322],[36.91707,0.72963],[36.93465,0.7542],[36.96629,0.74213],[37.0695,0.76578],[37.10306,0.78756],[37.16857,0.74267],[37.21994,0.73944],[37.25555,0.76445],[37.30025,0.72086],[37.35393,0.6007],[37.39117,0.5766],[37.47029,0.59334],[37.51428,0.56809],[37.58086,0.57277],[37.58354,0.58843],[37.63284,0.59718],[37.63858,0.62144],[37.68116,0.64258],[37.69067,0.66309],[37.72383,0.65471],[37.74665,0.67618],[37.8321,0.67976],[37.87683,0.74419],[37.91262,0.71197],[38.01149,0.80369],[38.04996,0.77863],[38.08092,0.78144],[38.04751,0.80496],[38.03084,1.08514],[37.94816,1.19432],[37.95062,1.38696],[37.85212,1.45906],[37.84174,1.42548],[37.65292,1.40088],[37.62146,1.37694],[37.59805,1.39155],[37.57943,1.36528],[37.35055,1.74214],[37.30611,1.76545],[37.26598,1.87876],[37.19086,1.93042],[37.17953,1.95918],[37.09668,1.98325],[37.00716,1.9851],[36.95001,2.02511],[36.91576,2.01802],[36.91999,2.09953],[36.89694,2.19173],[36.84352,2.27476],[36.75245,2.5165],[36.69972,2.51237],[36.6986,2.45512],[36.68435,2.45793],[36.6435,2.41828],[36.63791,2.39183],[36.63922,2.41098],[36.62212,2.41547],[36.60889,2.39656],[36.60089,2.40574],[36.60096,2.36001],[36.72371,2.30097],[36.72282,2.27501],[36.70657,2.26194],[36.70078,2.19884],[36.61089,2.16324],[36.56354,2.10381],[36.56811,2.05801],[36.54485,2.0305],[36.52652,1.95349],[36.53623,1.9637],[36.53648,1.89867],[36.51157,1.8765],[36.52303,1.84635],[36.51356,1.81596],[36.5295,1.80524],[36.51655,1.76513],[36.50758,1.77136],[36.52527,1.75492],[36.48416,1.70285],[36.46547,1.61465],[36.44031,1.61565],[36.39347,1.52272],[36.37205,1.54788],[36.36681,1.59572],[36.36009,1.57205],[36.3399,1.57803],[36.29606,1.53318],[36.28858,1.46392],[36.31823,1.4699],[36.35585,1.43601],[36.38948,1.44498],[36.4276,1.40811],[36.46647,1.39864],[36.45825,1.36875],[36.39048,1.31294],[36.41938,1.2945],[36.43782,1.30272],[36.45351,1.26161],[36.44629,1.25115],[36.40817,1.27905],[36.38774,1.2656],[36.40393,1.2514],[36.4134,1.25962],[36.42163,1.2367],[36.39397,1.22001],[36.39023,1.17566],[36.41864,1.18662],[36.4423,1.17292],[36.43732,1.08647],[36.45859,0.9967],[36.4582,0.97729],[36.43956,1.00252],[36.44267,0.97107],[36.40501,0.92604],[36.39206,0.91877]]]}},{"type":"Feature","properties":{"shapeName":"Isiolo","shapeISO":"KE-09","shapeID":"32016919B62684442090944"},"geometry":{"type":"Polygon","coordinates":[[[37.94529,1.26288],[37.94816,1.19432],[38.03084,1.08514],[38.04751,0.80496],[38.08039,0.78042],[38.04996,0.77863],[38.01149,0.80369],[37.91262,0.71197],[37.87683,0.74419],[37.8321,0.67976],[37.74665,0.67618],[37.72383,0.65471],[37.69067,0.66309],[37.68116,0.64258],[37.63858,0.62144],[37.63284,0.59718],[37.5319,0.56524],[37.47029,0.59334],[37.39117,0.5766],[37.36494,0.58695],[37.30025,0.72086],[37.26474,0.75783],[37.24686,0.763],[37.21994,0.73944],[37.16857,0.74267],[37.10306,0.78756],[36.98059,0.74453],[36.93465,0.7542],[36.92375,0.66532],[36.86705,0.59695],[36.86437,0.56575],[37.36905,0.51155],[37.34828,0.43949],[37.3919,0.35313],[37.38583,0.27442],[37.39951,0.2962],[37.42779,0.2978],[37.53705,0.26398],[37.55268,0.32403],[37.58083,0.32752],[37.60324,0.36073],[37.58144,0.42002],[37.58646,0.48116],[37.82598,0.56178],[38.06129,0.66744],[38.17654,0.33006],[38.1959,0.3225],[38.19651,0.22868],[38.29867,0.16011],[38.30824,0.11355],[38.32983,0.09672],[38.32482,0.078],[38.3499,0.06273],[38.35786,0.022],[38.40159,-0.01412],[38.41146,-0.06211],[38.464,-0.08319],[38.48999,-0.05877],[38.52074,-0.06239],[38.55487,-0.01548],[38.61276,-0.02875],[38.6397,-0.05214],[38.68324,-0.05374],[38.69053,-0.03968],[38.7146,-0.06004],[38.76868,-0.06875],[38.72937,0.06822],[38.73342,0.13875],[38.75555,0.19235],[38.67641,0.49462],[38.6617,0.50906],[38.70495,0.50635],[38.72438,0.52447],[38.76634,0.511],[38.85942,0.59919],[38.91052,0.59896],[38.93983,0.62845],[39.00967,0.62443],[39.05346,0.68585],[39.08507,0.67514],[39.14095,0.69043],[39.17518,0.72093],[39.23568,0.84423],[39.31156,0.92402],[39.46069,0.99468],[39.27426,1.4678],[39.44717,1.52721],[39.39997,1.55298],[39.30831,1.65453],[39.21385,1.69736],[39.13109,1.8662],[39.06848,1.9146],[38.99419,2.00958],[38.98531,2.06964],[38.96255,2.09739],[38.38317,1.76128],[38.33966,1.57742],[37.94529,1.26288]]]}},{"type":"Feature","properties":{"shapeName":"Baringo","shapeISO":"KE-01","shapeID":"32016919B50719068904883"},"geometry":{"type":"Polygon","coordinates":[[[35.79194,1.66362],[35.77635,1.64355],[35.79316,1.62363],[35.78274,1.5598],[35.75924,1.50785],[35.7186,1.4715],[35.71091,1.40077],[35.68702,1.35723],[35.70629,1.27074],[35.69575,1.20348],[35.70866,1.14943],[35.6709,1.04533],[35.64256,1.02523],[35.63331,0.99363],[35.62289,0.8688],[35.64272,0.8213],[35.62006,0.7393],[35.6354,0.70167],[35.60536,0.6742],[35.59593,0.61374],[35.61274,0.59229],[35.60223,0.53497],[35.63085,0.50304],[35.65952,0.38633],[35.72161,0.35102],[35.7075,0.25922],[35.72098,0.2133],[35.69133,0.18958],[35.69468,0.17001],[35.58744,0.1695],[35.57274,0.06727],[35.54071,0.08991],[35.54123,0.04761],[35.52645,0.04684],[35.5228,0.01541],[35.54345,-0.00851],[35.58247,-0.00777],[35.63216,-0.0361],[35.64933,-0.0811],[35.68873,-0.07596],[35.69229,-0.10965],[35.72891,-0.16024],[35.72472,-0.21238],[35.75462,-0.22628],[35.78008,-0.19482],[35.78924,-0.11163],[35.8058,-0.10009],[35.82047,-0.1195],[35.87547,-0.03603],[35.91637,-0.08186],[35.95858,-0.03199],[35.97651,0.01311],[35.92814,0.06977],[35.93889,0.09546],[35.95942,0.08772],[35.96367,0.05721],[35.99609,0.05993],[36.00527,0.03126],[36.05036,0.00459],[36.09264,-0.01367],[36.11123,0.00612],[36.10427,0.06144],[36.12642,0.05937],[36.14705,0.18569],[36.19667,0.19926],[36.17754,0.22837],[36.21499,0.25223],[36.18384,0.31439],[36.29404,0.56533],[36.27568,0.63167],[36.34459,0.65928],[36.40445,0.71719],[36.48872,0.8468],[36.39466,0.90596],[36.38784,0.94825],[36.35007,0.96613],[36.34037,0.99313],[36.31688,0.99126],[36.17396,1.17086],[36.09659,1.16941],[35.79194,1.66362]]]}},{"type":"Feature","properties":{"shapeName":"Elgeyo-Marakwet","shapeISO":"KE-05","shapeID":"32016919B59887050611600"},"geometry":{"type":"Polygon","coordinates":[[[35.15214,1.19937],[35.24252,1.07454],[35.35941,1.01839],[35.3416,1.00586],[35.34345,0.94638],[35.41828,0.93748],[35.41383,0.90724],[35.46779,0.8997],[35.4551,0.87487],[35.48704,0.87569],[35.48048,0.8196],[35.49729,0.81819],[35.50246,0.70269],[35.40852,0.7038],[35.47984,0.58898],[35.46064,0.4499],[35.48149,0.38996],[35.4681,0.36935],[35.49603,0.34141],[35.49936,0.27745],[35.48526,0.2509],[35.50509,0.2249],[35.53964,0.22581],[35.51173,0.18877],[35.56655,0.19701],[35.58558,0.16949],[35.69468,0.17001],[35.69133,0.18958],[35.72098,0.2133],[35.7075,0.25922],[35.72161,0.35102],[35.65952,0.38633],[35.63085,0.50304],[35.60223,0.53497],[35.61274,0.59229],[35.59593,0.61374],[35.60536,0.6742],[35.6354,0.70167],[35.62006,0.7393],[35.64272,0.8213],[35.62289,0.8688],[35.63331,0.99363],[35.64256,1.02523],[35.6709,1.04533],[35.70866,1.14943],[35.69595,1.31901],[35.60802,1.28006],[35.54386,1.28514],[35.32454,1.11645],[35.15214,1.19937]]]}},{"type":"Feature","properties":{"shapeName":"Trans Nzoia","shapeISO":"KE-42","shapeID":"32016919B1149170155930"},"geometry":{"type":"Polygon","coordinates":[[[34.82229,1.26259],[34.79435,1.21955],[34.67125,1.208],[34.63845,1.17202],[34.58077,1.15033],[34.61396,1.10839],[34.66391,1.08385],[34.65354,1.05837],[34.73859,0.93728],[34.79796,0.91003],[34.78558,0.88865],[34.80832,0.80429],[35.03835,0.90051],[35.07825,0.89475],[35.10111,0.87326],[35.12782,0.91864],[35.22187,0.91861],[35.2512,0.9399],[35.30508,0.89032],[35.32944,0.93155],[35.34888,0.91976],[35.35963,0.94435],[35.33602,0.96721],[35.35126,0.97875],[35.3416,1.00586],[35.35941,1.01839],[35.24252,1.07454],[35.15214,1.19937],[35.08704,1.18332],[35.08308,1.1692],[35.04169,1.19446],[35.04445,1.21541],[35.01207,1.25424],[34.90607,1.25208],[34.91066,1.2842],[34.82229,1.26259]]]}},{"type":"Feature","properties":{"shapeName":"Bungoma","shapeISO":"KE-03","shapeID":"32016919B68325359473156"},"geometry":{"type":"Polygon","coordinates":[[[34.58077,1.15033],[34.57745,1.10013],[34.52774,1.12157],[34.44599,0.86441],[34.41376,0.84326],[34.41213,0.8116],[34.36053,0.77841],[34.40008,0.75648],[34.4241,0.76708],[34.43362,0.7408],[34.4315,0.72641],[34.40321,0.72893],[34.4171,0.65962],[34.38314,0.64392],[34.36988,0.60658],[34.36831,0.56179],[34.40834,0.50795],[34.38588,0.49541],[34.38874,0.47186],[34.43933,0.46315],[34.48272,0.48435],[34.49776,0.4578],[34.53233,0.44281],[34.55127,0.46986],[34.57991,0.45385],[34.58995,0.41953],[34.59208,0.44503],[34.61605,0.44283],[34.62712,0.46281],[34.6427,0.45027],[34.66651,0.45936],[34.76403,0.56286],[34.80962,0.58564],[34.79856,0.59912],[34.8308,0.62389],[34.84418,0.66826],[34.86275,0.68383],[34.90948,0.6859],[34.92873,0.7092],[34.92857,0.74012],[34.97638,0.75541],[35.02741,0.74398],[35.06278,0.76309],[35.06598,0.78185],[35.02328,0.83084],[35.01771,0.88754],[34.96474,0.87929],[34.93215,0.85252],[34.80832,0.80429],[34.78558,0.88865],[34.79796,0.91003],[34.73859,0.93728],[34.65354,1.05837],[34.66391,1.08385],[34.61396,1.10839],[34.58077,1.15033]]]}},{"type":"Feature","properties":{"shapeName":"Garissa","shapeISO":"KE-07","shapeID":"32016919B57902629823981"},"geometry":{"type":"Polygon","coordinates":[[[39.46069,0.99468],[39.31156,0.92402],[39.23568,0.84423],[39.17518,0.72093],[39.14095,0.69043],[39.08507,0.67514],[39.05346,0.68585],[39.00967,0.62443],[38.93983,0.62845],[38.91052,0.59896],[38.85942,0.59919],[38.76634,0.511],[38.72438,0.52447],[38.70495,0.50635],[38.6617,0.50906],[38.67641,0.49462],[38.75555,0.19235],[38.73141,0.12136],[38.73912,0.00618],[38.76112,-0.06261],[38.83481,-0.09359],[38.92007,-0.08582],[38.93834,-0.09921],[38.96696,-0.08227],[38.97195,-0.059],[39.06532,-0.04632],[39.13477,-0.13015],[39.20263,-0.14275],[39.22645,-0.12999],[39.25732,-0.14654],[39.3133,-0.13298],[39.32469,-0.15785],[39.36242,-0.1627],[39.3841,-0.19052],[39.4273,-0.18976],[39.4979,-0.24833],[39.5126,-0.29817],[39.54271,-0.29021],[39.56173,-0.32874],[39.58752,-0.34141],[39.60218,-0.40956],[39.6142,-0.40977],[39.61093,-0.43981],[39.6353,-0.45728],[39.63063,-0.4899],[39.66864,-0.53158],[39.66327,-0.54893],[39.68641,-0.55164],[39.69693,-0.59155],[39.7387,-0.58758],[39.7766,-0.61313],[39.7795,-0.66177],[39.79985,-0.67103],[39.80798,-0.73582],[39.82391,-0.74189],[39.80866,-0.77124],[39.83415,-0.79294],[39.8254,-0.80377],[39.84218,-0.80436],[39.84151,-0.85247],[39.85874,-0.84846],[39.85012,-0.88649],[39.86073,-0.92606],[39.87846,-0.93669],[39.8696,-0.95879],[39.8818,-0.95102],[39.89355,-0.97361],[39.88583,-1.00058],[39.92594,-1.07772],[39.93239,-1.12909],[39.9558,-1.14454],[39.97985,-1.20238],[40.00042,-1.2152],[39.99535,-1.23842],[40.00797,-1.2401],[40.00227,-1.36136],[40.03429,-1.43264],[40.03256,-1.48737],[40.08728,-1.47434],[40.11489,-1.5529],[40.154,-1.60781],[40.17075,-1.72387],[40.16302,-1.82338],[40.18752,-1.86291],[40.18599,-1.95979],[40.20794,-2.03289],[40.9029,-1.71448],[41.56198,-1.65865],[41.56224,-1.5975],[40.9924,-0.82909],[40.99178,0.46442],[40.86264,0.37893],[40.77314,0.35405],[40.71574,0.32009],[40.68179,0.25844],[40.64768,0.23211],[40.58616,0.2154],[40.53318,0.22629],[40.50727,0.19281],[40.47388,0.18648],[40.33131,0.19941],[40.23345,0.25256],[40.16091,0.32591],[40.05962,0.3926],[39.97908,0.40971],[39.90498,0.46208],[39.79968,0.4828],[39.73286,0.52594],[39.56354,0.7572],[39.49249,0.96216],[39.46617,0.98735],[39.46069,0.99468]]]}},{"type":"Feature","properties":{"shapeName":"Uasin Gishu","shapeISO":"KE-44","shapeID":"32016919B81086936948851"},"geometry":{"type":"Polygon","coordinates":[[[35.58744,0.1695],[35.56655,0.19701],[35.51173,0.18877],[35.53964,0.22581],[35.50509,0.2249],[35.48526,0.2509],[35.49936,0.27745],[35.49603,0.34141],[35.4681,0.36935],[35.48149,0.38996],[35.46064,0.4499],[35.47984,0.58898],[35.40852,0.7038],[35.50246,0.70269],[35.49729,0.81819],[35.48048,0.8196],[35.48704,0.87569],[35.4551,0.87487],[35.46779,0.8997],[35.41383,0.90724],[35.41828,0.93748],[35.38496,0.94358],[35.35963,0.94435],[35.34888,0.91976],[35.32944,0.93155],[35.30508,0.89032],[35.2512,0.9399],[35.22187,0.91861],[35.12782,0.91864],[35.11136,0.85459],[35.12395,0.81951],[35.14539,0.82646],[35.15402,0.66113],[35.08524,0.62946],[35.03722,0.64145],[35.02704,0.61383],[34.99783,0.63591],[34.92003,0.59142],[34.88889,0.60555],[34.8503,0.54573],[35.0444,0.56148],[35.09867,0.53909],[35.1054,0.55457],[35.13955,0.53469],[35.16523,0.54617],[35.13925,0.47168],[35.30319,0.21127],[35.34,0.19382],[35.33589,0.14309],[35.386,0.10185],[35.40132,0.10796],[35.43483,0.02547],[35.47063,0.01986],[35.45914,0.01063],[35.5228,0.01541],[35.52645,0.04684],[35.54123,0.04761],[35.54071,0.08991],[35.57274,0.06727],[35.58963,0.14907],[35.58744,0.1695]]]}},{"type":"Feature","properties":{"shapeName":"Kakamega","shapeISO":"KE-11","shapeID":"32016919B72187572718143"},"geometry":{"type":"Polygon","coordinates":[[[35.01771,0.88754],[35.01217,0.85962],[35.02658,0.82474],[35.06253,0.79482],[35.06278,0.76309],[35.02362,0.74287],[34.97638,0.75541],[34.92857,0.74012],[34.92558,0.70103],[34.90601,0.68473],[34.85966,0.68298],[34.8308,0.62389],[34.79856,0.59912],[34.80962,0.58564],[34.76403,0.56286],[34.66651,0.45936],[34.6427,0.45027],[34.62712,0.46281],[34.61605,0.44283],[34.59208,0.44503],[34.58995,0.41953],[34.57749,0.45608],[34.55127,0.46986],[34.53233,0.44281],[34.49776,0.4578],[34.48272,0.48435],[34.43933,0.46315],[34.40498,0.47536],[34.36227,0.45772],[34.34332,0.42548],[34.42338,0.37449],[34.37066,0.30656],[34.40141,0.26157],[34.3981,0.23408],[34.3838,0.22926],[34.38509,0.1806],[34.44482,0.2186],[34.45141,0.20683],[34.42593,0.18686],[34.44173,0.16802],[34.42514,0.15232],[34.4819,0.15163],[34.48172,0.13836],[34.45673,0.13069],[34.48008,0.11528],[34.47357,0.1026],[34.54165,0.13857],[34.56035,0.09393],[34.62023,0.12675],[34.68254,0.12155],[34.73832,0.14908],[34.74734,0.136],[34.81552,0.16183],[34.81089,0.18405],[34.84584,0.18309],[34.89221,0.20682],[34.92514,0.19919],[34.95515,0.24105],[34.97722,0.24043],[34.93529,0.35714],[34.95403,0.36677],[34.95604,0.41502],[34.90627,0.50256],[34.8503,0.54573],[34.88889,0.60555],[34.92003,0.59142],[34.99783,0.63591],[35.02704,0.61383],[35.03722,0.64145],[35.08524,0.62946],[35.15402,0.66113],[35.14539,0.82646],[35.12395,0.81951],[35.112,0.87981],[35.08649,0.87941],[35.07132,0.8976],[35.02372,0.8944],[35.01771,0.88754]]]}},{"type":"Feature","properties":{"shapeName":"Laikipia","shapeISO":"KE-20","shapeID":"32016919B40191501607276"},"geometry":{"type":"Polygon","coordinates":[[[36.48872,0.8468],[36.40445,0.71719],[36.34459,0.65928],[36.27568,0.63167],[36.29404,0.56533],[36.18384,0.31439],[36.21499,0.25223],[36.20185,0.23466],[36.23565,0.2091],[36.28371,0.12747],[36.25513,0.05615],[36.25549,-0.02196],[36.29269,0.01193],[36.34561,0.03101],[36.33643,0.06284],[36.34877,0.07051],[36.3848,0.03168],[36.42394,0.04599],[36.40073,0.05964],[36.44108,0.09152],[36.46245,0.1403],[36.51044,0.08513],[36.52135,0.04869],[36.57384,0.07078],[36.59919,0.00337],[36.63464,0.01618],[36.64949,-0.01692],[36.57941,-0.02265],[36.54458,-0.06837],[36.55216,-0.09147],[36.63291,-0.10874],[36.6538,-0.15419],[36.76319,-0.10932],[36.82906,-0.1036],[36.82901,-0.13569],[36.85957,-0.14349],[36.86912,-0.17776],[36.83759,-0.19774],[36.85474,-0.2543],[36.98541,-0.29619],[37.0168,-0.1808],[36.9836,-0.13499],[36.97699,-0.07082],[37.02436,-0.0491],[37.07686,0.00981],[37.1237,-0.05447],[37.1315,-0.02983],[37.0881,0.02264],[37.223,0.07672],[37.23505,0.10246],[37.2534,0.09809],[37.3072,0.17972],[37.34857,0.1963],[37.35975,0.2537],[37.39404,0.28945],[37.3919,0.35313],[37.34828,0.43949],[37.36905,0.51155],[36.86437,0.56575],[36.86705,0.59695],[36.92375,0.66532],[36.9316,0.74342],[36.91398,0.72856],[36.86581,0.73765],[36.81561,0.85594],[36.79335,0.8694],[36.75614,0.8584],[36.70841,0.81436],[36.48241,0.8135],[36.48278,0.82514],[36.48872,0.8468]]]}},{"type":"Feature","properties":{"shapeName":"Busia","shapeISO":"KE-04","shapeID":"32016919B17784979587790"},"geometry":{"type":"Polygon","coordinates":[[[34.36053,0.77841],[34.31299,0.76372],[34.31281,0.69732],[34.27827,0.6809],[34.27557,0.64229],[34.20032,0.62823],[34.13764,0.58584],[34.11711,0.5233],[34.12081,0.48041],[34.08977,0.45631],[34.10892,0.37824],[34.10035,0.34987],[34.05895,0.32468],[34.04233,0.27679],[33.91392,0.1114],[33.95052,-0.02598],[34.0194,-0.02697],[34.04213,-0.00014],[34.07183,0.11965],[34.09995,0.13585],[34.10317,0.12548],[34.11421,0.14516],[34.11609,0.24198],[34.15876,0.30052],[34.20448,0.26006],[34.20765,0.28833],[34.23738,0.28965],[34.24992,0.31338],[34.36191,0.29778],[34.42338,0.37449],[34.34332,0.42548],[34.36227,0.45772],[34.39062,0.46273],[34.38588,0.49541],[34.40865,0.50461],[34.36831,0.56179],[34.36988,0.60658],[34.38314,0.64392],[34.4171,0.65962],[34.40321,0.72893],[34.4315,0.72641],[34.43362,0.7408],[34.4241,0.76708],[34.40008,0.75648],[34.36926,0.77219],[34.36053,0.77841]]]}},{"type":"Feature","properties":{"shapeName":"Meru","shapeISO":"KE-26","shapeID":"32016919B42702125036935"},"geometry":{"type":"Polygon","coordinates":[[[37.38583,0.27442],[37.35975,0.2537],[37.34857,0.1963],[37.3072,0.17972],[37.2534,0.09809],[37.23505,0.10246],[37.223,0.07672],[37.0881,0.02264],[37.13541,-0.04134],[37.30779,-0.15107],[37.59076,-0.18326],[37.66167,-0.21647],[37.66551,-0.20421],[37.72268,-0.20326],[37.76859,-0.15599],[37.79663,-0.16198],[37.85721,-0.12105],[37.85013,-0.01868],[37.89171,-0.01857],[37.89997,0.01025],[37.93604,0.00708],[37.96395,0.06841],[38.01538,0.06145],[38.05925,0.02469],[38.11362,0.0574],[38.12947,0.05293],[38.19204,0.01507],[38.22363,0.01262],[38.2461,-0.0188],[38.28859,-0.02227],[38.32956,-0.06546],[38.34649,-0.06113],[38.38149,-0.08551],[38.4207,-0.06928],[38.40159,-0.01412],[38.35786,0.022],[38.3499,0.06273],[38.32482,0.078],[38.32983,0.09672],[38.30824,0.11355],[38.29867,0.16011],[38.19651,0.22868],[38.1959,0.3225],[38.17654,0.33006],[38.06129,0.66744],[37.82598,0.56178],[37.58646,0.48116],[37.58144,0.42002],[37.60324,0.36073],[37.58083,0.32752],[37.55268,0.32403],[37.53705,0.26398],[37.42779,0.2978],[37.39951,0.2962],[37.39955,0.284],[37.38583,0.27442]]]}},{"type":"Feature","properties":{"shapeName":"Nandi","shapeISO":"KE-32","shapeID":"32016919B10848562282373"},"geometry":{"type":"Polygon","coordinates":[[[34.8503,0.54573],[34.90627,0.50256],[34.95604,0.41502],[34.95403,0.36677],[34.93529,0.35714],[34.97722,0.24043],[34.95515,0.24105],[34.94146,0.20702],[34.92786,0.2073],[34.91501,0.15512],[34.85907,0.12075],[34.83751,0.03628],[34.81043,0.03685],[34.76241,-0.00356],[34.75739,0.00934],[34.73985,0.00448],[34.75057,-0.03305],[34.83067,0.02391],[34.80905,-0.02284],[34.92372,-0.03668],[34.98942,-0.02013],[35.05,-0.03561],[35.06561,-0.06877],[35.10138,-0.02669],[35.1003,-0.00372],[35.15184,-0.03925],[35.19374,-0.02638],[35.22075,-0.03709],[35.22648,-0.10657],[35.30794,-0.08674],[35.37161,-0.11034],[35.424,-0.0782],[35.40369,-0.02447],[35.41351,0.00516],[35.43748,0.01878],[35.4038,0.10529],[35.386,0.10185],[35.33589,0.14309],[35.34,0.19382],[35.30319,0.21127],[35.13925,0.47168],[35.16523,0.54617],[35.13955,0.53469],[35.1054,0.55457],[35.09867,0.53909],[35.0444,0.56148],[34.8503,0.54573]]]}},{"type":"Feature","properties":{"shapeName":"Siaya","shapeISO":"KE-38","shapeID":"32016919B12007380424127"},"geometry":{"type":"Polygon","coordinates":[[[34.37066,0.30656],[34.24992,0.31338],[34.23738,0.28965],[34.20765,0.28833],[34.20448,0.26006],[34.15876,0.30052],[34.11609,0.24198],[34.11421,0.14516],[34.10317,0.12548],[34.09995,0.13585],[34.07183,0.11965],[34.04213,-0.00014],[34.0194,-0.02697],[33.95052,-0.02598],[33.98222,-0.12941],[33.94766,-0.33718],[34.23979,-0.33748],[34.28217,-0.4131],[34.30756,-0.42535],[34.48342,-0.29927],[34.41161,-0.0784],[34.54349,-0.00439],[34.56075,0.10693],[34.54502,0.11327],[34.55547,0.12721],[34.54165,0.13857],[34.47357,0.1026],[34.48008,0.11528],[34.45673,0.13069],[34.48172,0.13836],[34.4819,0.15163],[34.42514,0.15232],[34.44173,0.16802],[34.42593,0.18686],[34.45141,0.20683],[34.44482,0.2186],[34.38509,0.1806],[34.3838,0.22926],[34.3981,0.23408],[34.40141,0.26157],[34.39162,0.28778],[34.37066,0.30656]]]}},{"type":"Feature","properties":{"shapeName":"Nakuru","shapeISO":"KE-31","shapeID":"32016919B58088177642376"},"geometry":{"type":"Polygon","coordinates":[[[35.64015,-0.06097],[35.59688,-0.12943],[35.60976,-0.15897],[35.63895,-0.15061],[35.66954,-0.16319],[35.64856,-0.26658],[35.63023,-0.28777],[35.60369,-0.29358],[35.59131,-0.27753],[35.5801,-0.30801],[35.57147,-0.28222],[35.52813,-0.25961],[35.41247,-0.30244],[35.58665,-0.58811],[35.6008,-0.67155],[35.64507,-0.70259],[35.68027,-0.65223],[35.70872,-0.55392],[35.7375,-0.53103],[35.77118,-0.53685],[35.79924,-0.456],[35.81371,-0.47658],[35.83515,-0.46658],[35.83033,-0.49451],[35.90305,-0.54739],[35.94349,-0.5552],[35.98143,-0.63034],[35.94932,-0.66567],[35.91482,-0.63519],[35.87558,-0.63709],[35.92883,-0.70556],[35.94588,-0.71431],[36.0111,-0.66348],[36.02862,-0.67887],[36.09748,-0.63959],[36.10026,-0.67594],[36.19174,-0.76608],[36.18711,-0.80468],[36.15706,-0.83699],[36.1846,-0.91549],[36.2035,-0.93348],[36.26252,-0.91319],[36.33392,-1.04937],[36.53373,-1.15591],[36.58827,-1.06338],[36.59541,-0.9917],[36.57801,-0.92928],[36.54292,-0.90822],[36.55809,-0.83781],[36.51697,-0.71132],[36.5397,-0.69645],[36.51716,-0.6239],[36.50991,-0.60958],[36.46477,-0.63073],[36.44637,-0.5712],[36.40018,-0.57274],[36.38701,-0.44204],[36.35884,-0.37971],[36.31015,-0.39071],[36.30745,-0.37187],[36.27316,-0.39489],[36.26131,-0.34408],[36.22928,-0.34351],[36.22247,-0.35658],[36.20864,-0.27429],[36.24397,-0.25784],[36.20996,-0.20527],[36.19844,-0.14009],[36.21972,-0.10902],[36.24446,-0.12117],[36.26503,0.02632],[36.25513,0.05615],[36.28694,0.11147],[36.23565,0.2091],[36.20185,0.23466],[36.17754,0.22837],[36.19667,0.19926],[36.14705,0.18569],[36.12642,0.05937],[36.10427,0.06144],[36.11123,0.00612],[36.09264,-0.01367],[36.00527,0.03126],[35.99609,0.05993],[35.96367,0.05721],[35.95942,0.08772],[35.93889,0.09546],[35.92814,0.06977],[35.97423,0.02073],[35.96766,-0.01593],[35.92635,-0.07755],[35.87547,-0.03603],[35.82047,-0.1195],[35.8058,-0.10009],[35.78924,-0.11163],[35.78974,-0.16208],[35.76321,-0.22489],[35.72472,-0.21238],[35.72891,-0.16024],[35.69229,-0.10965],[35.68873,-0.07596],[35.64933,-0.0811],[35.64154,-0.06694],[35.64015,-0.06097]]]}},{"type":"Feature","properties":{"shapeName":"Vihiga","shapeISO":"KE-45","shapeID":"32016919B20488296424250"},"geometry":{"type":"Polygon","coordinates":[[[34.56035,0.09393],[34.56018,0.04687],[34.53411,-0.01537],[34.56282,-0.01582],[34.56493,-0.04011],[34.60384,0.01237],[34.66279,-0.01444],[34.69057,-0.0106],[34.68669,-0.02647],[34.72757,-0.00655],[34.74707,-0.02473],[34.74254,0.00725],[34.76241,-0.00356],[34.81043,0.03685],[34.83751,0.03628],[34.85907,0.12075],[34.91501,0.15512],[34.92514,0.19919],[34.85974,0.19896],[34.84584,0.18309],[34.81089,0.18405],[34.81552,0.16183],[34.74734,0.136],[34.73832,0.14908],[34.68254,0.12155],[34.62023,0.12675],[34.56655,0.09754],[34.56035,0.09393]]]}},{"type":"Feature","properties":{"shapeName":"Nyandarua","shapeISO":"KE-35","shapeID":"32016919B99956097556155"},"geometry":{"type":"Polygon","coordinates":[[[36.25549,-0.02196],[36.24446,-0.12117],[36.21972,-0.10902],[36.19844,-0.14009],[36.20996,-0.20527],[36.24397,-0.25784],[36.20864,-0.27429],[36.22247,-0.35658],[36.22928,-0.34351],[36.26131,-0.34408],[36.27316,-0.39489],[36.30745,-0.37187],[36.31015,-0.39071],[36.35884,-0.37971],[36.38701,-0.44204],[36.40018,-0.57274],[36.44637,-0.5712],[36.46477,-0.63073],[36.50991,-0.60958],[36.5397,-0.69645],[36.51697,-0.71132],[36.55809,-0.83781],[36.54292,-0.90822],[36.55285,-0.92],[36.59797,-0.86185],[36.58598,-0.82653],[36.61856,-0.8298],[36.60829,-0.80562],[36.65028,-0.76462],[36.68559,-0.76481],[36.72004,-0.80637],[36.71766,-0.78012],[36.73264,-0.77943],[36.70359,-0.69927],[36.70411,-0.62867],[36.66753,-0.57156],[36.65455,-0.51667],[36.66236,-0.46533],[36.62251,-0.40378],[36.63044,-0.38954],[36.60115,-0.373],[36.61252,-0.31153],[36.68586,-0.17446],[36.6538,-0.15419],[36.63291,-0.10874],[36.56867,-0.10366],[36.54458,-0.06837],[36.58176,-0.02114],[36.64949,-0.01692],[36.63464,0.01618],[36.59919,0.00337],[36.57384,0.07078],[36.52135,0.04869],[36.51044,0.08513],[36.46245,0.1403],[36.44108,0.09152],[36.40073,0.05964],[36.42394,0.04599],[36.3848,0.03168],[36.34877,0.07051],[36.33643,0.06284],[36.34561,0.03101],[36.27126,-0.0011],[36.26727,-0.02158],[36.25549,-0.02196]]]}},{"type":"Feature","properties":{"shapeName":"Tharaka","shapeISO":"KE-41","shapeID":"32016919B40030396675644"},"geometry":{"type":"Polygon","coordinates":[[[37.30779,-0.15107],[37.55381,-0.35989],[37.63038,-0.38858],[37.72032,-0.44985],[37.76883,-0.44833],[37.84568,-0.40313],[37.88662,-0.34214],[37.88981,-0.39152],[37.92377,-0.42585],[37.95184,-0.42537],[37.99805,-0.26594],[38.11368,-0.27518],[38.16246,-0.23491],[38.18579,-0.15228],[38.20641,-0.14304],[38.22124,-0.10254],[38.25029,-0.08407],[38.28762,-0.08431],[38.30913,-0.05148],[38.28859,-0.02227],[38.2461,-0.0188],[38.22363,0.01262],[38.19204,0.01507],[38.12947,0.05293],[38.11362,0.0574],[38.05925,0.02469],[38.01538,0.06145],[37.96395,0.06841],[37.93604,0.00708],[37.89997,0.01025],[37.89171,-0.01857],[37.85013,-0.01868],[37.85721,-0.12105],[37.79663,-0.16198],[37.76859,-0.15599],[37.73281,-0.1989],[37.66551,-0.20421],[37.66167,-0.21647],[37.59076,-0.18326],[37.52755,-0.18145],[37.30779,-0.15107]]]}},{"type":"Feature","properties":{"shapeName":"Kericho","shapeISO":"KE-12","shapeID":"32016919B28150779100642"},"geometry":{"type":"Polygon","coordinates":[[[35.5228,0.01541],[35.45914,0.01063],[35.46517,0.02735],[35.43483,0.02547],[35.40369,-0.02447],[35.424,-0.0782],[35.37161,-0.11034],[35.30794,-0.08674],[35.22648,-0.10657],[35.27032,-0.15259],[35.27737,-0.1448],[35.28027,-0.16596],[35.33032,-0.17625],[35.34032,-0.2398],[35.31371,-0.24884],[35.26163,-0.23351],[35.24479,-0.20176],[35.1863,-0.16005],[35.12834,-0.1561],[35.1039,-0.20168],[35.06351,-0.21571],[35.05248,-0.29442],[35.00825,-0.33871],[35.01233,-0.39142],[35.04485,-0.44682],[35.03283,-0.49717],[35.14139,-0.45649],[35.18415,-0.48537],[35.21811,-0.47945],[35.20858,-0.46607],[35.23198,-0.42235],[35.40905,-0.40521],[35.45109,-0.3654],[35.41247,-0.30244],[35.46929,-0.27775],[35.52813,-0.25961],[35.57147,-0.28222],[35.5801,-0.30801],[35.59131,-0.27753],[35.60369,-0.29358],[35.63023,-0.28777],[35.67251,-0.18892],[35.66954,-0.16319],[35.59971,-0.14711],[35.59861,-0.12263],[35.62292,-0.10301],[35.61497,-0.08439],[35.63838,-0.05028],[35.58247,-0.00777],[35.54345,-0.00851],[35.5228,0.01541]]]}},{"type":"Feature","properties":{"shapeName":"Kisumu","shapeISO":"KE-17","shapeID":"32016919B35081513576883"},"geometry":{"type":"Polygon","coordinates":[[[34.74707,-0.02473],[34.72757,-0.00655],[34.68669,-0.02647],[34.69057,-0.0106],[34.66279,-0.01444],[34.60384,0.01237],[34.57579,-0.03589],[34.56126,-0.03527],[34.56282,-0.01582],[34.53411,-0.01537],[34.41161,-0.0784],[34.48342,-0.29927],[34.53242,-0.27171],[34.70638,-0.25805],[34.78553,-0.32198],[34.82404,-0.38778],[34.88774,-0.40144],[34.91502,-0.38508],[34.91408,-0.40311],[34.95896,-0.416],[35.01233,-0.39142],[35.00825,-0.33871],[35.05248,-0.29442],[35.06351,-0.21571],[35.1039,-0.20168],[35.12834,-0.1561],[35.20377,-0.16593],[35.27044,-0.23782],[35.31371,-0.24884],[35.34221,-0.23648],[35.33032,-0.17625],[35.28027,-0.16596],[35.27737,-0.1448],[35.27032,-0.15259],[35.22648,-0.10657],[35.22075,-0.03709],[35.20611,-0.02918],[35.15184,-0.03925],[35.1003,-0.00372],[35.10138,-0.02669],[35.06561,-0.06877],[35.05,-0.03561],[34.98942,-0.02013],[34.92372,-0.03668],[34.80905,-0.02284],[34.83067,0.02391],[34.75057,-0.03305],[34.74707,-0.02473]]]}},{"type":"Feature","properties":{"shapeName":"Nyeri","shapeISO":"KE-36","shapeID":"32016919B26862024603939"},"geometry":{"type":"Polygon","coordinates":[[[36.65747,-0.15308],[36.68586,-0.17446],[36.61252,-0.31153],[36.60115,-0.373],[36.63044,-0.38954],[36.62251,-0.40378],[36.66236,-0.46533],[36.65455,-0.51667],[36.69681,-0.62244],[36.72111,-0.57166],[36.7779,-0.56643],[36.86008,-0.60812],[36.92128,-0.60933],[36.98684,-0.57606],[37.04843,-0.59484],[37.10934,-0.64117],[37.17662,-0.63309],[37.17662,-0.59994],[37.14413,-0.5703],[37.14642,-0.53425],[37.17679,-0.48293],[37.17483,-0.44252],[37.19967,-0.43904],[37.30779,-0.15107],[37.13047,-0.03687],[37.1237,-0.05447],[37.07686,0.00981],[37.02436,-0.0491],[36.97699,-0.07082],[36.9836,-0.13499],[37.0168,-0.1808],[36.98541,-0.29619],[36.85474,-0.2543],[36.83759,-0.19774],[36.86912,-0.17776],[36.85957,-0.14349],[36.82901,-0.13569],[36.82906,-0.1036],[36.76319,-0.10932],[36.7108,-0.13674],[36.65747,-0.15308]]]}},{"type":"Feature","properties":{"shapeName":"Tana River","shapeISO":"KE-40","shapeID":"32016919B56782604912852"},"geometry":{"type":"Polygon","coordinates":[[[38.43415,-0.07482],[38.82981,-0.76018],[38.95341,-1.03176],[38.9997,-1.67692],[38.95846,-1.70279],[39.01513,-1.91405],[38.79523,-2.33967],[38.73708,-2.36578],[38.68478,-2.4132],[38.62653,-2.41048],[39.07917,-3.05037],[39.12729,-3.01918],[39.1631,-3.06566],[39.17443,-3.05675],[39.21737,-3.07293],[39.88972,-2.31006],[40.17904,-2.71841],[40.19077,-2.70471],[40.1751,-2.70296],[40.18209,-2.68119],[40.20189,-2.6791],[40.19614,-2.73261],[40.29055,-2.6131],[40.34037,-2.58427],[40.26658,-2.64261],[40.40029,-2.56052],[40.5165,-2.52729],[40.49353,-2.51825],[40.44433,-2.5319],[40.46288,-2.50276],[40.47371,-2.5093],[40.46589,-2.49847],[40.50936,-2.49676],[40.51086,-2.51947],[40.6063,-2.55755],[40.73062,-2.45602],[40.66366,-2.46789],[40.44067,-2.39752],[40.24951,-2.39807],[40.24951,-2.24878],[40.18599,-1.95979],[40.18752,-1.86291],[40.16302,-1.82338],[40.17075,-1.72387],[40.154,-1.60781],[40.11489,-1.5529],[40.08728,-1.47434],[40.03256,-1.48737],[40.03429,-1.43264],[40.00227,-1.36136],[40.00797,-1.2401],[39.99535,-1.23842],[40.00042,-1.2152],[39.97985,-1.20238],[39.9558,-1.14454],[39.93239,-1.12909],[39.92594,-1.07772],[39.88583,-1.00058],[39.89355,-0.97361],[39.8818,-0.95102],[39.8696,-0.95879],[39.87846,-0.93669],[39.85157,-0.89691],[39.85874,-0.84846],[39.84151,-0.85247],[39.84218,-0.80436],[39.8254,-0.80377],[39.83415,-0.79294],[39.80866,-0.77124],[39.82391,-0.74189],[39.80798,-0.73582],[39.79985,-0.67103],[39.7795,-0.66177],[39.7766,-0.61313],[39.7387,-0.58758],[39.69693,-0.59155],[39.68641,-0.55164],[39.66327,-0.54893],[39.66864,-0.53158],[39.63063,-0.4899],[39.6353,-0.45728],[39.61093,-0.43981],[39.59685,-0.35873],[39.54271,-0.29021],[39.5126,-0.29817],[39.4979,-0.24833],[39.46734,-0.22113],[39.4273,-0.18976],[39.40022,-0.19543],[39.36242,-0.1627],[39.33914,-0.1671],[39.3133,-0.13298],[39.25732,-0.14654],[39.22645,-0.12999],[39.20263,-0.14275],[39.13477,-0.13015],[39.06532,-0.04632],[38.97195,-0.059],[38.96696,-0.08227],[38.93834,-0.09921],[38.92007,-0.08582],[38.83481,-0.09359],[38.7146,-0.06004],[38.69053,-0.03968],[38.68324,-0.05374],[38.6397,-0.05214],[38.61276,-0.02875],[38.55487,-0.01548],[38.52074,-0.06239],[38.48999,-0.05877],[38.45872,-0.08479],[38.43822,-0.07024],[38.43415,-0.07482]]]}},{"type":"Feature","properties":{"shapeName":"Kitui","shapeISO":"KE-18","shapeID":"32016919B87039477224343"},"geometry":{"type":"Polygon","coordinates":[[[38.4207,-0.06928],[38.38149,-0.08551],[38.30913,-0.05148],[38.28762,-0.08431],[38.25029,-0.08407],[38.22124,-0.10254],[38.20641,-0.14304],[38.18579,-0.15228],[38.16246,-0.23491],[38.11368,-0.27518],[37.99805,-0.26594],[37.96492,-0.41115],[37.93462,-0.42905],[37.88199,-0.53469],[37.88278,-0.58166],[37.92192,-0.62319],[37.89304,-0.64475],[37.89932,-0.70768],[37.91161,-0.7072],[37.91541,-0.72843],[37.88326,-0.80249],[37.84551,-0.80983],[37.84925,-0.83078],[37.82068,-0.8813],[37.85218,-0.93599],[37.84523,-0.96375],[37.86821,-0.97468],[37.84655,-0.99369],[37.84485,-1.04692],[37.79652,-1.12707],[37.73815,-1.07755],[37.59398,-1.08594],[37.5969,-1.14715],[37.6177,-1.14296],[37.63362,-1.16181],[37.74451,-1.35629],[37.76516,-1.35454],[37.80355,-1.39453],[37.81915,-1.44732],[37.77324,-1.48596],[37.69458,-1.49856],[37.7718,-1.58357],[37.83682,-1.69067],[37.85495,-1.75435],[37.83771,-1.7792],[37.89058,-1.83801],[37.88351,-1.85239],[37.90005,-1.86324],[37.90495,-1.90348],[37.91698,-1.90341],[37.90769,-1.93322],[37.95306,-2.04722],[37.9628,-2.16533],[38.01946,-2.14605],[38.04757,-2.1676],[38.07372,-2.25943],[38.1105,-2.28458],[38.11606,-2.31195],[38.21081,-2.35416],[38.2222,-2.39878],[38.27346,-2.42317],[38.28711,-2.48208],[38.33743,-2.55562],[38.33776,-2.58456],[38.43144,-2.78723],[38.41784,-2.81168],[38.42738,-2.84993],[38.47569,-2.93645],[38.51908,-2.97483],[38.64285,-3.01215],[38.66542,-3.03953],[38.77452,-3.04402],[38.80934,-3.05309],[38.8056,-3.06855],[38.89356,-3.03852],[38.97294,-3.04056],[39.02449,-3.0205],[39.07511,-3.04114],[38.62653,-2.41048],[38.68478,-2.4132],[38.73708,-2.36578],[38.79523,-2.33967],[39.01513,-1.91405],[38.95846,-1.70279],[38.9997,-1.67692],[38.95341,-1.03176],[38.82981,-0.76018],[38.42791,-0.07401],[38.4207,-0.06928]]]}},{"type":"Feature","properties":{"shapeName":"Kirinyaga","shapeISO":"KE-15","shapeID":"32016919B58720683486854"},"geometry":{"type":"Polygon","coordinates":[[[37.16912,-0.63562],[37.17917,-0.66719],[37.19943,-0.6635],[37.21236,-0.68858],[37.23709,-0.66749],[37.26973,-0.75366],[37.25541,-0.75486],[37.26729,-0.78533],[37.27525,-0.75558],[37.31725,-0.74943],[37.35892,-0.76886],[37.43891,-0.73361],[37.49589,-0.73181],[37.47389,-0.68597],[37.48318,-0.58235],[37.42607,-0.5105],[37.42342,-0.40845],[37.30779,-0.15107],[37.19967,-0.43904],[37.17483,-0.44252],[37.17679,-0.48293],[37.14642,-0.53425],[37.14413,-0.5703],[37.17861,-0.60505],[37.17072,-0.63174],[37.16912,-0.63562]]]}},{"type":"Feature","properties":{"shapeName":"Embu","shapeISO":"KE-06","shapeID":"32016919B43560273720920"},"geometry":{"type":"Polygon","coordinates":[[[37.30779,-0.15107],[37.42342,-0.40845],[37.42607,-0.5105],[37.48318,-0.58235],[37.47389,-0.68597],[37.49589,-0.73181],[37.43891,-0.73361],[37.35892,-0.76886],[37.31725,-0.74943],[37.27525,-0.75558],[37.26729,-0.78533],[37.30453,-0.80007],[37.3288,-0.84444],[37.4121,-0.85026],[37.47367,-0.87586],[37.49434,-0.9048],[37.51632,-0.90004],[37.52117,-0.91459],[37.54659,-0.88097],[37.58841,-0.87618],[37.63018,-0.83697],[37.6655,-0.84412],[37.68227,-0.79439],[37.70773,-0.77985],[37.74162,-0.77609],[37.75813,-0.82188],[37.78734,-0.82096],[37.80549,-0.79985],[37.80796,-0.81373],[37.88326,-0.80249],[37.91541,-0.72843],[37.91161,-0.7072],[37.89932,-0.70768],[37.89304,-0.64475],[37.92192,-0.62319],[37.88278,-0.58166],[37.88199,-0.53469],[37.93647,-0.42731],[37.88981,-0.39152],[37.88662,-0.34214],[37.84568,-0.40313],[37.76883,-0.44833],[37.72032,-0.44985],[37.63038,-0.38858],[37.55381,-0.35989],[37.30779,-0.15107]]]}},{"type":"Feature","properties":{"shapeName":"Homa Bay","shapeISO":"KE-08","shapeID":"32016919B3301153840115"},"geometry":{"type":"Polygon","coordinates":[[[33.94766,-0.33718],[33.91998,-0.5618],[33.92824,-0.80242],[34.08098,-0.80242],[34.09692,-0.7823],[34.17197,-0.77147],[34.20202,-0.75044],[34.31927,-0.86509],[34.3818,-0.8461],[34.39083,-0.81465],[34.46372,-0.8617],[34.49669,-0.81041],[34.48531,-0.78449],[34.5336,-0.7477],[34.56089,-0.66598],[34.60457,-0.65174],[34.63766,-0.66513],[34.66223,-0.60426],[34.68586,-0.60024],[34.70434,-0.57447],[34.93877,-0.46549],[35.0214,-0.40518],[35.01023,-0.39123],[34.98687,-0.41309],[34.94937,-0.41571],[34.91408,-0.40311],[34.91502,-0.38508],[34.88774,-0.40144],[34.82404,-0.38778],[34.78553,-0.32198],[34.70638,-0.25805],[34.53242,-0.27171],[34.42244,-0.33362],[34.30756,-0.42535],[34.28217,-0.4131],[34.23979,-0.33748],[33.94766,-0.33718]]]}},{"type":"Feature","properties":{"shapeName":"Bomet","shapeISO":"KE-02","shapeID":"32016919B53683499362611"},"geometry":{"type":"Polygon","coordinates":[[[35.45109,-0.3654],[35.40905,-0.40521],[35.23198,-0.42235],[35.20858,-0.46607],[35.21811,-0.47945],[35.18415,-0.48537],[35.14139,-0.45649],[35.05233,-0.49628],[35.05466,-0.65622],[35.07153,-0.69221],[35.04757,-0.70625],[35.09114,-0.8005],[35.04431,-0.85258],[35.02121,-0.84681],[35.01296,-0.88946],[35.08222,-0.9055],[35.24015,-1.03319],[35.35197,-0.96634],[35.36472,-0.97617],[35.41938,-0.94689],[35.42956,-0.89569],[35.45421,-0.88507],[35.48542,-0.83115],[35.52985,-0.80488],[35.42565,-0.72124],[35.39608,-0.64488],[35.58665,-0.58811],[35.45109,-0.3654]]]}},{"type":"Feature","properties":{"shapeName":"Nyamira","shapeISO":"KE-34","shapeID":"32016919B45734544235065"},"geometry":{"type":"Polygon","coordinates":[[[35.01961,-0.4124],[34.86206,-0.50133],[34.88283,-0.52387],[34.87234,-0.57443],[34.88666,-0.61518],[34.87054,-0.61997],[34.84589,-0.59545],[34.8159,-0.63168],[34.81229,-0.66965],[34.78617,-0.67369],[34.94389,-0.77312],[35.01296,-0.88946],[35.02121,-0.84681],[35.04431,-0.85258],[35.09114,-0.8005],[35.04757,-0.70625],[35.07153,-0.69221],[35.04709,-0.57072],[35.05602,-0.50747],[35.03283,-0.49717],[35.04485,-0.44682],[35.02579,-0.41378],[35.01961,-0.4124]]]}},{"type":"Feature","properties":{"shapeName":"Narok","shapeISO":"KE-33","shapeID":"32016919B83281423333591"},"geometry":{"type":"Polygon","coordinates":[[[35.58665,-0.58811],[35.39608,-0.64488],[35.42565,-0.72124],[35.52985,-0.80488],[35.48542,-0.83115],[35.45421,-0.88507],[35.42956,-0.89569],[35.41938,-0.94689],[35.36472,-0.97617],[35.33174,-0.97625],[35.24867,-1.03359],[35.08222,-0.9055],[35.01296,-0.88946],[34.67593,-0.97319],[34.64196,-0.96826],[34.59033,-1.01769],[34.59473,-1.04546],[34.61694,-1.07252],[34.63219,-1.15935],[34.68863,-1.21055],[34.73057,-1.38903],[36.00021,-2.10441],[36.00021,-2.08307],[36.02817,-2.08295],[36.044,-1.90909],[36.02692,-1.89033],[36.05025,-1.85744],[36.03985,-1.82167],[36.01638,-1.80404],[36.04973,-1.7296],[36.03811,-1.7102],[36.06462,-1.69883],[36.04728,-1.64948],[36.08525,-1.57424],[36.05203,-1.49089],[36.34618,-1.17568],[36.33392,-1.04937],[36.26252,-0.91319],[36.2035,-0.93348],[36.1846,-0.91549],[36.15706,-0.83699],[36.18711,-0.80468],[36.19174,-0.76608],[36.10026,-0.67594],[36.09748,-0.63959],[36.02862,-0.67887],[36.0111,-0.66348],[35.94588,-0.71431],[35.89128,-0.64963],[35.87611,-0.65049],[35.87558,-0.63709],[35.91482,-0.63519],[35.94932,-0.66567],[35.98143,-0.63034],[35.94349,-0.5552],[35.90305,-0.54739],[35.83033,-0.49451],[35.83515,-0.46658],[35.81371,-0.47658],[35.79924,-0.456],[35.77118,-0.53685],[35.7375,-0.53103],[35.70872,-0.55392],[35.68027,-0.65223],[35.64507,-0.70259],[35.6008,-0.67155],[35.58665,-0.58811]]]}},{"type":"Feature","properties":{"shapeName":"Kisii","shapeISO":"KE-16","shapeID":"32016919B92888924192138"},"geometry":{"type":"Polygon","coordinates":[[[34.63766,-0.66513],[34.61848,-0.90078],[34.63272,-0.96554],[34.67593,-0.97319],[35.01296,-0.88946],[34.94389,-0.77312],[34.78617,-0.67369],[34.81229,-0.66965],[34.8159,-0.63168],[34.84589,-0.59545],[34.87054,-0.61997],[34.88666,-0.61518],[34.87234,-0.57443],[34.88283,-0.52387],[34.86206,-0.50133],[34.70434,-0.57447],[34.6445,-0.63355],[34.63766,-0.66513]]]}},{"type":"Feature","properties":{"shapeName":"Murang'a","shapeISO":"KE-29","shapeID":"32016919B92229445677015"},"geometry":{"type":"Polygon","coordinates":[[[36.72004,-0.80637],[36.88552,-0.89589],[37.0363,-1.03083],[37.07125,-1.02596],[37.15366,-1.05393],[37.17623,-1.03462],[37.19273,-1.04288],[37.23148,-1.01812],[37.26433,-1.01704],[37.30989,-1.06615],[37.36282,-1.09474],[37.42004,-1.03506],[37.38232,-0.99943],[37.33864,-0.98469],[37.36621,-0.96245],[37.35399,-0.94584],[37.33665,-0.96489],[37.31327,-0.9402],[37.31764,-0.91793],[37.22492,-0.85155],[37.23495,-0.83588],[37.25719,-0.83807],[37.26729,-0.78533],[37.25541,-0.75486],[37.26973,-0.75366],[37.23709,-0.66749],[37.21236,-0.68858],[37.19943,-0.6635],[37.17917,-0.66719],[37.16912,-0.63562],[37.10934,-0.64117],[37.04843,-0.59484],[36.98684,-0.57606],[36.92128,-0.60933],[36.88372,-0.6113],[36.80378,-0.57045],[36.72111,-0.57166],[36.70467,-0.59021],[36.70169,-0.64916],[36.7145,-0.75083],[36.73264,-0.77943],[36.71766,-0.78012],[36.71925,-0.79888],[36.72004,-0.80637]]]}},{"type":"Feature","properties":{"shapeName":"Migori","shapeISO":"KE-27","shapeID":"32016919B50702580177250"},"geometry":{"type":"Polygon","coordinates":[[[33.92824,-0.80242],[33.93507,-1.0011],[34.01692,-1.00242],[34.03885,-1.04556],[34.08403,-1.02506],[34.73057,-1.38903],[34.68863,-1.21055],[34.63219,-1.15935],[34.59033,-1.01769],[34.64196,-0.96826],[34.61848,-0.90078],[34.63766,-0.66513],[34.60457,-0.65174],[34.55663,-0.66979],[34.5336,-0.7477],[34.48531,-0.78449],[34.49669,-0.81041],[34.46372,-0.8617],[34.39083,-0.81465],[34.3818,-0.8461],[34.31927,-0.86509],[34.20202,-0.75044],[34.17197,-0.77147],[34.09692,-0.7823],[34.08098,-0.80242],[33.92824,-0.80242]]]}},{"type":"Feature","properties":{"shapeName":"Kiambu","shapeISO":"KE-13","shapeID":"32016919B11020559484650"},"geometry":{"type":"Polygon","coordinates":[[[36.53373,-1.15591],[36.48823,-1.27179],[36.66389,-1.31521],[36.69019,-1.25891],[36.71754,-1.26146],[36.72618,-1.23238],[36.74454,-1.2355],[36.75317,-1.22087],[36.77381,-1.22982],[36.78805,-1.19109],[36.84549,-1.21149],[36.85921,-1.18929],[36.8965,-1.1925],[36.88504,-1.1721],[36.89597,-1.16046],[36.93923,-1.17396],[36.90923,-1.20637],[36.92075,-1.21777],[37.00463,-1.23675],[37.06042,-1.20575],[37.1083,-1.26072],[37.12048,-1.23531],[37.15475,-1.22175],[37.15538,-1.19547],[37.18205,-1.16678],[37.17519,-1.11614],[37.21087,-1.08002],[37.28099,-1.06609],[37.3429,-1.11758],[37.36282,-1.09474],[37.30989,-1.06615],[37.26433,-1.01704],[37.23148,-1.01812],[37.19273,-1.04288],[37.17623,-1.03462],[37.15366,-1.05393],[37.07125,-1.02596],[37.0363,-1.03083],[36.88552,-0.89589],[36.74769,-0.83152],[36.67156,-0.75849],[36.60829,-0.80562],[36.61856,-0.8298],[36.58598,-0.82653],[36.59797,-0.86185],[36.55285,-0.92],[36.57801,-0.92928],[36.59541,-0.9917],[36.58827,-1.06338],[36.54166,-1.127],[36.53373,-1.15591]]]}},{"type":"Feature","properties":{"shapeName":"Machakos","shapeISO":"KE-22","shapeID":"32016919B39119671019936"},"geometry":{"type":"Polygon","coordinates":[[[37.84551,-0.80983],[37.80796,-0.81373],[37.80549,-0.79985],[37.78734,-0.82096],[37.75813,-0.82188],[37.74162,-0.77609],[37.70773,-0.77985],[37.68227,-0.79439],[37.6655,-0.84412],[37.63018,-0.83697],[37.58841,-0.87618],[37.54659,-0.88097],[37.52117,-0.91459],[37.51632,-0.90004],[37.49434,-0.9048],[37.47367,-0.87586],[37.4121,-0.85026],[37.3288,-0.84444],[37.28572,-0.78289],[37.26193,-0.7928],[37.25719,-0.83807],[37.23495,-0.83588],[37.22492,-0.85155],[37.31764,-0.91793],[37.31327,-0.9402],[37.33665,-0.96489],[37.35399,-0.94584],[37.36621,-0.96245],[37.33864,-0.98469],[37.38232,-0.99943],[37.42004,-1.03506],[37.3429,-1.11758],[37.28099,-1.06609],[37.21087,-1.08002],[37.17519,-1.11614],[37.18205,-1.16678],[37.15538,-1.19547],[37.15475,-1.22175],[37.12048,-1.23531],[37.07634,-1.30312],[37.00259,-1.30068],[36.99507,-1.28156],[36.97282,-1.28939],[36.97909,-1.31666],[36.90468,-1.36562],[36.96113,-1.43928],[36.88773,-1.41565],[36.87598,-1.47938],[36.88831,-1.48714],[36.94143,-1.45484],[36.9759,-1.47802],[36.95893,-1.54316],[37.11086,-1.73397],[37.14791,-1.738],[37.1535,-1.77908],[37.2205,-1.76958],[37.24436,-1.73565],[37.27951,-1.77055],[37.30186,-1.75317],[37.28685,-1.71827],[37.3116,-1.70024],[37.37338,-1.70516],[37.41347,-1.68849],[37.33486,-1.56171],[37.37984,-1.52023],[37.4355,-1.53267],[37.48721,-1.51699],[37.55257,-1.53913],[37.57231,-1.56489],[37.59689,-1.55097],[37.64046,-1.58639],[37.65937,-1.64516],[37.68121,-1.62532],[37.68222,-1.58587],[37.70061,-1.58291],[37.7189,-1.60839],[37.73393,-1.59508],[37.74979,-1.55535],[37.69458,-1.49856],[37.77324,-1.48596],[37.81915,-1.44732],[37.80355,-1.39453],[37.73159,-1.34005],[37.68827,-1.24008],[37.62435,-1.14922],[37.5969,-1.14715],[37.59398,-1.08594],[37.73815,-1.07755],[37.79652,-1.12707],[37.84485,-1.04692],[37.84655,-0.99369],[37.86821,-0.97468],[37.84523,-0.96375],[37.85067,-0.93107],[37.8186,-0.89693],[37.84613,-0.8122],[37.84551,-0.80983]]]}},{"type":"Feature","properties":{"shapeName":"Kajiado","shapeISO":"KE-10","shapeID":"32016919B31527762068828"},"geometry":{"type":"Polygon","coordinates":[[[36.33392,-1.04937],[36.34618,-1.17568],[36.05203,-1.49089],[36.08525,-1.57424],[36.04728,-1.64948],[36.06462,-1.69883],[36.03811,-1.7102],[36.04973,-1.7296],[36.01638,-1.80404],[36.03985,-1.82167],[36.05025,-1.85744],[36.02692,-1.89033],[36.044,-1.90909],[36.02817,-2.08295],[36.00021,-2.08307],[36.00021,-2.10441],[37.52025,-2.95613],[37.67139,-3.05868],[37.69059,-3.17889],[37.80428,-3.1658],[37.84777,-3.18241],[37.85415,-3.07854],[37.87077,-3.07744],[37.89512,-2.88588],[37.91831,-2.86848],[37.9394,-2.77698],[37.92155,-2.70435],[37.90091,-2.70242],[37.84947,-2.60393],[37.59734,-2.31091],[37.66886,-2.28728],[37.67423,-2.22819],[37.72318,-2.18722],[37.66434,-2.15416],[37.59395,-2.15276],[37.53517,-2.10569],[37.45196,-2.07379],[37.36049,-2.01277],[37.28037,-1.99484],[37.23586,-1.93677],[37.18616,-1.93449],[37.15209,-1.88806],[37.1616,-1.85711],[37.14187,-1.83916],[37.16009,-1.78018],[37.14791,-1.738],[37.11086,-1.73397],[36.95893,-1.54316],[36.9759,-1.47802],[36.93533,-1.4554],[36.8826,-1.48901],[36.89127,-1.41093],[36.81746,-1.38101],[36.73174,-1.37842],[36.65987,-1.32207],[36.65764,-1.30479],[36.48823,-1.27179],[36.53373,-1.15591],[36.48927,-1.12253],[36.33392,-1.04937]]]}},{"type":"Feature","properties":{"shapeName":"Nairobi","shapeISO":"KE-30","shapeID":"32016919B57908315498598"},"geometry":{"type":"Polygon","coordinates":[[[36.66389,-1.31521],[36.73174,-1.37842],[36.84179,-1.38604],[36.95895,-1.44406],[36.90468,-1.36562],[36.97909,-1.31666],[36.97282,-1.28939],[36.99507,-1.28156],[37.00259,-1.30068],[37.07634,-1.30312],[37.07712,-1.28481],[37.10452,-1.26664],[37.06042,-1.20575],[37.00463,-1.23675],[36.92075,-1.21777],[36.90923,-1.20637],[36.93923,-1.17396],[36.89597,-1.16046],[36.88504,-1.1721],[36.8965,-1.1925],[36.85921,-1.18929],[36.84549,-1.21149],[36.78805,-1.19109],[36.77381,-1.22982],[36.75317,-1.22087],[36.74454,-1.2355],[36.72618,-1.23238],[36.71754,-1.26146],[36.69019,-1.25891],[36.66872,-1.30696],[36.66389,-1.31521]]]}},{"type":"Feature","properties":{"shapeName":"Makueni","shapeISO":"KE-23","shapeID":"32016919B42227953152284"},"geometry":{"type":"Polygon","coordinates":[[[37.75332,-1.56638],[37.7189,-1.60839],[37.70061,-1.58291],[37.68222,-1.58587],[37.68121,-1.62532],[37.65937,-1.64516],[37.64046,-1.58639],[37.59689,-1.55097],[37.57231,-1.56489],[37.55257,-1.53913],[37.48721,-1.51699],[37.4355,-1.53267],[37.37984,-1.52023],[37.33486,-1.56171],[37.41347,-1.68849],[37.37338,-1.70516],[37.3116,-1.70024],[37.28685,-1.71827],[37.30186,-1.75317],[37.27951,-1.77055],[37.24436,-1.73565],[37.2205,-1.76958],[37.16009,-1.78018],[37.14127,-1.81276],[37.16251,-1.86254],[37.15209,-1.88806],[37.18616,-1.93449],[37.23586,-1.93677],[37.26432,-1.95857],[37.29925,-2.0058],[37.36049,-2.01277],[37.45196,-2.07379],[37.53517,-2.10569],[37.59395,-2.15276],[37.66434,-2.15416],[37.72318,-2.18722],[37.67423,-2.22819],[37.66886,-2.28728],[37.59734,-2.31091],[37.84947,-2.60393],[37.90091,-2.70242],[37.92155,-2.70435],[37.94412,-2.78079],[37.97371,-2.78859],[38.12765,-2.69896],[38.15104,-2.69922],[38.16154,-2.67987],[38.27061,-2.77002],[38.35123,-2.88692],[38.40856,-2.9283],[38.45745,-2.99029],[38.51318,-2.98317],[38.42738,-2.84993],[38.41784,-2.81168],[38.43144,-2.78723],[38.33776,-2.58456],[38.33743,-2.55562],[38.28711,-2.48208],[38.27346,-2.42317],[38.2222,-2.39878],[38.21081,-2.35416],[38.11606,-2.31195],[38.1105,-2.28458],[38.07372,-2.25943],[38.04757,-2.1676],[38.01946,-2.14605],[37.9628,-2.16533],[37.95306,-2.04722],[37.90769,-1.93322],[37.91698,-1.90341],[37.90495,-1.90348],[37.90005,-1.86324],[37.88351,-1.85239],[37.89058,-1.83801],[37.83771,-1.7792],[37.85495,-1.75435],[37.83682,-1.69067],[37.75723,-1.57027],[37.75332,-1.56638]]]}},{"type":"Feature","properties":{"shapeName":"Lamu","shapeISO":"KE-21","shapeID":"32016919B38538724963648"},"geometry":{"type":"MultiPolygon","coordinates":[[[[40.20794,-2.03289],[40.24951,-2.24878],[40.24951,-2.39807],[40.44067,-2.39752],[40.66366,-2.46789],[40.76788,-2.44989],[40.77612,-2.42572],[40.82233,-2.38922],[40.82312,-2.36963],[40.79468,-2.3399],[40.77228,-2.39447],[40.75909,-2.3952],[40.78113,-2.3606],[40.76367,-2.3504],[40.75873,-2.31732],[40.7041,-2.3089],[40.69092,-2.28888],[40.7157,-2.28558],[40.70569,-2.2699],[40.7251,-2.27148],[40.75812,-2.30719],[40.73767,-2.2821],[40.7561,-2.27539],[40.73431,-2.25623],[40.70471,-2.26117],[40.72589,-2.23993],[40.6955,-2.20471],[40.7439,-2.24487],[40.74573,-2.22711],[40.75787,-2.25262],[40.77472,-2.23749],[40.78088,-2.26038],[40.79529,-2.2323],[40.84131,-2.23108],[40.82788,-2.24329],[40.87653,-2.2326],[40.86108,-2.23199],[40.87848,-2.22131],[40.85968,-2.21167],[40.88232,-2.21283],[40.8689,-2.20062],[40.88232,-2.1864],[40.88672,-2.20288],[40.9259,-2.22101],[40.91229,-2.08942],[40.89789,-2.07019],[40.8761,-2.0741],[40.88428,-2.06189],[40.86853,-2.0766],[40.85052,-2.06982],[40.8941,-2.06122],[40.87488,-2.04419],[40.88751,-2.0321],[40.90009,-2.0462],[40.90308,-2.01062],[40.82867,-2.01758],[40.87207,-2.00049],[40.81372,-1.97467],[40.77368,-1.93378],[40.84229,-1.95959],[40.84088,-1.93048],[40.86407,-1.97119],[40.87347,-1.95032],[40.87872,-1.98853],[40.90271,-1.98279],[40.93671,-2.00861],[40.91949,-2.03021],[40.94769,-2.07611],[40.96228,-2.06421],[40.94952,-2.02667],[40.96973,-1.98352],[40.96173,-1.94232],[40.99188,-1.9173],[40.9801,-1.90448],[40.99353,-1.9115],[41.00311,-1.88599],[41.01947,-1.89209],[41.04108,-1.86548],[41.04773,-1.89001],[40.98309,-1.94641],[40.9939,-1.9588],[40.98273,-2.01617],[41.01208,-2.04749],[41.05292,-2.00421],[41.05988,-2.01349],[41.0661,-1.97882],[41.1131,-1.96008],[41.1189,-1.97198],[41.22552,-1.8869],[41.21851,-1.90979],[41.25153,-1.9079],[41.23608,-1.9494],[41.26233,-1.93201],[41.28009,-1.93842],[41.27728,-1.98169],[41.30328,-1.9541],[41.31152,-1.96082],[41.38989,-1.86499],[41.36627,-1.8598],[41.38751,-1.862],[41.56207,-1.65857],[40.9029,-1.71448],[40.20794,-2.03289]]],[[[41.08551,-2.05243],[41.05933,-2.08282],[41.06812,-2.09729],[41.04547,-2.13342],[41.08972,-2.11072],[41.08508,-2.13489],[41.10431,-2.1377],[41.11407,-2.12927],[41.09448,-2.0976],[41.1095,-2.0802],[41.13489,-2.08142],[41.13892,-2.09497],[41.1637,-2.08081],[41.09448,-2.05371],[41.08551,-2.05243]]],[[[40.89191,-2.24792],[40.84271,-2.25787],[40.84528,-2.27771],[40.82349,-2.27509],[40.81427,-2.33148],[40.86871,-2.297],[40.91333,-2.2948],[40.90112,-2.263],[40.89191,-2.24792]]],[[[40.9729,-2.22223],[40.97351,-2.24829],[40.96033,-2.25623],[40.96368,-2.24042],[40.94647,-2.22968],[40.93909,-2.25983],[40.93793,-2.23718],[40.90192,-2.2226],[40.92792,-2.27838],[40.96429,-2.27802],[40.95551,-2.2948],[40.92151,-2.29608],[40.9187,-2.31543],[40.95508,-2.30719],[40.9881,-2.25848],[40.97467,-2.22412],[40.9729,-2.22223]]],[[[41.05353,-2.08588],[41.00653,-2.09692],[41.00549,-2.11627],[40.99048,-2.09888],[40.97028,-2.11432],[41.01288,-2.13818],[41.00848,-2.12592],[41.0517,-2.10773],[41.05768,-2.08698],[41.05353,-2.08588]]],[[[41.27893,-2.0014],[41.3045,-1.96448],[41.24969,-2.02991],[41.26569,-2.01361],[41.27893,-2.0014]]],[[[41.43811,-1.83643],[41.38452,-1.8855],[41.43188,-1.84412],[41.43811,-1.83643]]],[[[41.14008,-2.10419],[41.13129,-2.08661],[41.12732,-2.10663],[41.15411,-2.10852],[41.14252,-2.104],[41.14008,-2.10419]]],[[[41.16467,-1.95831],[41.14392,-1.96887],[41.17651,-1.96503],[41.16492,-1.96252],[41.16467,-1.95831]]],[[[41.05847,-2.15948],[41.04907,-2.14752],[41.05267,-2.16138],[41.05847,-2.15948]]],[[[41.15729,-1.97571],[41.14227,-1.98358],[41.1629,-1.97742],[41.15729,-1.97571]]],[[[40.98608,-2.14111],[40.97571,-2.15179],[40.98828,-2.14172],[40.98608,-2.14111]]],[[[41.50452,-1.75513],[41.5127,-1.74792],[41.49371,-1.7688],[41.50488,-1.758],[41.50452,-1.75513]]],[[[41.34351,-1.92542],[41.34088,-1.92139],[41.3399,-1.92181],[41.34351,-1.92542]]],[[[41.20227,-2.00269],[41.21368,-2.01489],[41.2085,-2.00439],[41.20227,-2.00269]]],[[[40.71307,-2.2951],[40.71149,-2.29291],[40.71008,-2.29321],[40.71307,-2.2951]]],[[[41.3493,-1.92041],[41.36151,-1.90582],[41.34808,-1.9209],[41.3493,-1.92041]]],[[[40.97168,-2.04779],[40.97113,-2.04163],[40.96912,-2.04071],[40.97168,-2.04779]]],[[[41.27728,-1.94641],[41.27533,-1.95758],[41.27948,-1.94678],[41.27728,-1.94641]]],[[[40.75873,-2.26349],[40.75592,-2.26038],[40.75409,-2.26111],[40.75873,-2.26349]]],[[[41.18671,-1.98187],[41.1875,-1.96918],[41.18329,-1.98041],[41.18671,-1.98187]]],[[[41.22589,-1.9115],[41.23468,-1.90552],[41.22467,-1.91052],[41.22589,-1.9115]]],[[[40.9859,-2.22418],[40.9837,-2.22278],[40.98248,-2.22351],[40.9859,-2.22418]]],[[[41.02692,-2.13971],[41.02533,-2.13721],[41.02228,-2.13593],[41.02692,-2.13971]]],[[[40.74512,-2.25519],[40.74213,-2.25519],[40.74091,-2.258],[40.74512,-2.25519]]],[[[40.7829,-2.28607],[40.78229,-2.28308],[40.7851,-2.27979],[40.7829,-2.28607]]],[[[41.21008,-1.91382],[41.20587,-1.91461],[41.20612,-1.92023],[41.21008,-1.91382]]],[[[41.39868,-1.85498],[41.39288,-1.86102],[41.39508,-1.86139],[41.39868,-1.85498]]],[[[40.81653,-2.2511],[40.82428,-2.2428],[40.81567,-2.25067],[40.81653,-2.2511]]],[[[41.17871,-1.9859],[41.17731,-1.9837],[41.17529,-1.98541],[41.17871,-1.9859]]],[[[40.78809,-2.27777],[40.79089,-2.2738],[40.7879,-2.27209],[40.78809,-2.27777]]],[[[41.34729,-1.91431],[41.34167,-1.9129],[41.33728,-1.9187],[41.34729,-1.91431]]],[[[41.07971,-2.13062],[41.08008,-2.12799],[41.07867,-2.13379],[41.07971,-2.13062]]],[[[41.11072,-2.05359],[41.1123,-2.05072],[41.11047,-2.04828],[41.11072,-2.05359]]],[[[40.8161,-2.2337],[40.81189,-2.23383],[40.80933,-2.23688],[40.8161,-2.2337]]],[[[41.25232,-1.9599],[41.24988,-1.95709],[41.24707,-1.95892],[41.25232,-1.9599]]],[[[41.373474121333686,-1.893371581633119],[41.380310058862165,-1.886291504249471],[41.376892090097954,-1.885681152363247],[41.373474121333686,-1.893371581633119]]],[[[41.18628,-1.94812],[41.1853,-1.9436],[41.18488,-1.948],[41.18628,-1.94812]]],[[[41.20929,-1.90802],[41.20892,-1.90637],[41.20691,-1.90649],[41.20929,-1.90802]]],[[[41.26471,-1.948],[41.26727,-1.94708],[41.26727,-1.94568],[41.26471,-1.948]]],[[[41.5097,-1.74738],[41.51093,-1.74542],[41.50787,-1.74139],[41.5097,-1.74738]]],[[[41.22351,-1.91791],[41.22467,-1.91357],[41.2215,-1.91553],[41.22351,-1.91791]]],[[[40.996276855292706,-2.096984862960994],[40.99530029317407,-2.09210205056911],[40.992492675396704,-2.094726562780579],[40.996276855292706,-2.096984862960994]]],[[[41.208496093719816,-1.930786131574678],[41.209472655838454,-1.926086425647952],[41.20587158240767,-1.929077148091835],[41.208496093719816,-1.930786131574678]]],[[[41.23969,-1.9234],[41.24329,-1.91937],[41.23993,-1.91998],[41.23969,-1.9234]]],[[[41.23931884778665,-1.956787109337597],[41.2374877930273,-1.958007812210724],[41.24432373055578,-1.95922851598317],[41.23931884778665,-1.956787109337597]]],[[[41.10553,-2.05121],[41.10571,-2.04871],[41.10309,-2.04761],[41.10553,-2.05121]]],[[[41.45227,-1.81891],[41.45532,-1.81409],[41.45532,-1.81061],[41.45227,-1.81891]]],[[[41.21368,-1.9223],[41.2113,-1.92078],[41.20929,-1.92358],[41.21368,-1.9223]]],[[[41.23328,-1.92853],[41.2337,-1.9267],[41.23108,-1.92352],[41.23328,-1.92853]]],[[[40.81268,-2.24341],[40.81653,-2.24078],[40.81348,-2.24109],[40.81268,-2.24341]]],[[[41.43707275370468,-1.823608398808517],[41.438720702898195,-1.818481445662144],[41.436279297151884,-1.821777344049167],[41.43707275370468,-1.823608398808517]]],[[[40.9325,-2.2301],[40.93268,-2.22858],[40.9303,-2.22748],[40.9325,-2.2301]]],[[[40.75952,-2.27661],[40.76031,-2.27539],[40.75787,-2.2738],[40.75952,-2.27661]]],[[[41.24353027310366,-1.955078124955435],[41.23968505891838,-1.955627441653064],[41.24389648423539,-1.95709228528068],[41.24353027310366,-1.955078124955435]]],[[[41.47509765643173,-1.80328369178892],[41.47631835930491,-1.799621582270163],[41.47351074242687,-1.80297851584578],[41.47509765643173,-1.80328369178892]]],[[[41.23688,-1.95618],[41.23749,-1.9538],[41.23492,-1.95398],[41.23688,-1.95618]]],[[[40.99707,-2.09009],[40.99689,-2.09149],[40.99951,-2.09161],[40.99707,-2.09009]]],[[[41.43988037058267,-1.835021972785796],[41.44067382803479,-1.831909179964612],[41.43908691402993,-1.833618164346774],[41.43988037058267,-1.835021972785796]]],[[[40.72509765613199,-2.256103516064343],[40.724304199579194,-2.253784179796014],[40.72308349580675,-2.254028320550503],[40.72509765613199,-2.256103516064343]]],[[[41.36511230498894,-1.906127929760089],[41.367126464414866,-1.904174804623494],[41.36431884843614,-1.905395506597301],[41.36511230498894,-1.906127929760089]]],[[[41.48431396541724,-1.785400391414896],[41.48413085895203,-1.782775879203427],[41.483276367210635,-1.785095214572436],[41.48431396541724,-1.785400391414896]]],[[[40.97748,-2.16119],[40.97809,-2.1601],[40.97693,-2.15948],[40.97748,-2.16119]]]]}},{"type":"Feature","properties":{"shapeName":"Kilifi","shapeISO":"KE-14","shapeID":"32016919B27781338411646"},"geometry":{"type":"MultiPolygon","coordinates":[[[[39.21737,-3.07293],[39.09229,-3.56708],[39.31891,-3.56378],[39.34711,-3.60022],[39.35651,-3.72668],[39.39093,-3.73541],[39.37732,-3.80658],[39.39673,-3.82349],[39.42029,-3.8194],[39.49432,-3.88428],[39.52789,-3.92981],[39.54272,-3.99139],[39.56732,-3.99292],[39.59808,-3.94733],[39.65009,-3.95758],[39.64191,-3.9231],[39.6889,-3.92187],[39.71228,-3.89331],[39.7135,-3.94641],[39.76428,-3.94952],[39.82953,-3.81799],[39.86969,-3.69299],[39.86713,-3.67743],[39.83868,-3.67401],[39.86511,-3.6745],[39.86151,-3.63959],[39.83649,-3.62891],[39.79529,-3.6438],[39.77948,-3.62091],[39.80908,-3.62048],[39.77972,-3.60968],[39.7713,-3.58838],[39.78571,-3.5777],[39.78149,-3.60791],[39.81311,-3.60162],[39.84387,-3.6308],[39.86969,-3.62799],[39.96832,-3.40082],[39.94733,-3.37671],[39.93512,-3.38672],[39.9375,-3.34729],[39.99591,-3.31201],[39.98328,-3.33148],[39.99652,-3.36371],[39.97131,-3.37329],[39.9743,-3.38611],[40.11951,-3.28668],[40.13129,-3.25421],[40.1167,-3.20178],[40.13348,-3.16162],[40.12469,-3.14697],[40.1369,-3.15668],[40.15991,-3.12878],[40.15308,-3.08289],[40.17212,-3.03888],[40.24109,-2.98401],[40.18451,-2.99249],[40.14471,-3.04431],[40.15948,-2.91449],[40.14789,-2.90918],[40.16193,-2.91229],[40.16949,-2.88867],[40.14429,-2.89178],[40.18372,-2.83008],[40.15527,-2.78967],[40.16229,-2.7569],[40.17389,-2.75702],[40.15668,-2.72913],[40.17568,-2.71367],[39.88972,-2.31006],[39.21837,-3.0695],[39.21737,-3.07293]]],[[[40.16412,-2.93817],[40.16949,-2.89728],[40.16467,-2.9447],[40.16412,-2.93817]]],[[[39.96411,-3.35687],[39.94812,-3.3606],[39.95929,-3.36542],[39.96411,-3.35687]]],[[[40.17856,-2.71773],[40.17468,-2.73761],[40.17904,-2.71841],[40.17856,-2.71773]]],[[[39.97412,-3.35101],[39.96973,-3.33801],[39.97052,-3.35022],[39.97412,-3.35101]]],[[[40.16132,-2.96942],[40.1601,-2.95477],[40.1593,-2.96863],[40.16132,-2.96942]]],[[[40.1825,-2.74512],[40.18231,-2.74139],[40.18048,-2.73969],[40.1825,-2.74512]]],[[[40.17029,-2.88123],[40.17072,-2.8667],[40.16888,-2.88031],[40.17029,-2.88123]]],[[[39.979492187614426,-3.36462402367971],[39.98547363340151,-3.357116699076357],[39.9782714847413,-3.359680176099175],[39.979492187614426,-3.36462402367971]]],[[[40.16571,-2.78748],[40.1651,-2.78058],[40.16089,-2.7807],[40.16571,-2.78748]]],[[[40.18573,-2.75372],[40.19171,-2.74268],[40.18408,-2.75378],[40.18573,-2.75372]]],[[[40.17407,-2.78821],[40.17047,-2.78528],[40.16827,-2.78632],[40.17407,-2.78821]]],[[[40.18268,-2.78162],[40.18591,-2.77301],[40.18408,-2.771],[40.18268,-2.78162]]],[[[40.17712,-2.97479],[40.17029,-2.95929],[40.17633,-2.9704],[40.17712,-2.97479]]],[[[40.17389,-2.77649],[40.17712,-2.7724],[40.17633,-2.76947],[40.17389,-2.77649]]],[[[40.16791,-2.98022],[40.1731,-2.97131],[40.17047,-2.97247],[40.16791,-2.98022]]],[[[40.18487548941238,-2.814208984057302],[40.18432617181543,-2.809204101288174],[40.182128905924344,-2.811828612600323],[40.18487548941238,-2.814208984057302]]],[[[40.1759,-2.76587],[40.18109,-2.75873],[40.17572,-2.76361],[40.1759,-2.76587]]],[[[40.16888,-2.73907],[40.17029,-2.73792],[40.16931,-2.73523],[40.16888,-2.73907]]],[[[40.1723,-2.73358],[40.17169,-2.73053],[40.17047,-2.73022],[40.1723,-2.73358]]],[[[40.18627929695202,-2.746398924570656],[40.18707275440414,-2.740783691713943],[40.18548584039928,-2.744812010565795],[40.18627929695202,-2.746398924570656]]],[[[39.9871215816957,-3.349609375372324],[39.98730468726154,-3.346801757595017],[39.986083984388415,-3.348083495656738],[39.9871215816957,-3.349609375372324]]],[[[40.18048095673083,-2.808471679924025],[40.18048095673083,-2.807006836296409],[40.17907714829181,-2.807373047428143],[40.18048095673083,-2.808471679924025]]]]}},{"type":"Feature","properties":{"shapeName":"Taita Taveta","shapeISO":"KE-39","shapeID":"32016919B21030921481039"},"geometry":{"type":"Polygon","coordinates":[[[39.07511,-3.04114],[39.02449,-3.0205],[38.97294,-3.04056],[38.89356,-3.03852],[38.8056,-3.06855],[38.80934,-3.05309],[38.77452,-3.04402],[38.66542,-3.03953],[38.64285,-3.01215],[38.53897,-2.97374],[38.45883,-2.99105],[38.40856,-2.9283],[38.35123,-2.88692],[38.27061,-2.77002],[38.16154,-2.67987],[38.15104,-2.69922],[38.12765,-2.69896],[37.97371,-2.78859],[37.9394,-2.77698],[37.91831,-2.86848],[37.89512,-2.88588],[37.87077,-3.07744],[37.85415,-3.07854],[37.85286,-3.17816],[37.83305,-3.18552],[37.80428,-3.1658],[37.69059,-3.17889],[37.7112,-3.30797],[37.68445,-3.31998],[37.67954,-3.35266],[37.66135,-3.355],[37.58476,-3.4384],[37.58476,-3.45976],[37.62247,-3.46274],[37.60318,-3.51689],[37.66936,-3.50613],[37.74406,-3.54258],[37.78376,-3.67339],[38.44651,-4.13721],[38.94527,-3.95891],[39.03683,-3.75974],[38.92751,-3.69546],[38.96508,-3.63179],[39.06127,-3.68927],[39.21737,-3.07293],[39.17443,-3.05675],[39.1631,-3.06566],[39.12729,-3.01918],[39.08583,-3.0522],[39.07884,-3.04305],[39.07511,-3.04114]]]}},{"type":"Feature","properties":{"shapeName":"Kwale","shapeISO":"KE-19","shapeID":"32016919B50438423394723"},"geometry":{"type":"MultiPolygon","coordinates":[[[[39.09229,-3.56708],[39.06127,-3.68927],[38.96508,-3.63179],[38.92751,-3.69546],[39.03683,-3.75974],[38.94527,-3.95891],[38.44647,-4.13721],[39.21808,-4.67688],[39.21088,-4.64679],[39.2323,-4.63098],[39.22607,-4.61609],[39.26892,-4.59991],[39.24188,-4.5694],[39.2793,-4.58398],[39.31891,-4.5639],[39.31311,-4.55188],[39.33588,-4.56671],[39.31873,-4.5766],[39.30847,-4.60687],[39.3255,-4.61249],[39.30988,-4.63147],[39.40289,-4.6427],[39.37549,-4.53967],[39.40973,-4.54773],[39.44312,-4.5033],[39.46228,-4.53027],[39.4967,-4.46588],[39.48889,-4.4389],[39.50787,-4.43561],[39.50787,-4.39917],[39.53131,-4.4057],[39.53748,-4.43591],[39.59668,-4.26978],[39.58289,-4.25598],[39.5979,-4.25488],[39.64069,-4.15521],[39.62531,-4.1449],[39.6377,-4.12061],[39.60809,-4.08911],[39.57672,-4.11951],[39.58673,-4.10242],[39.5675,-3.99298],[39.54272,-3.99139],[39.52032,-3.9162],[39.42029,-3.8194],[39.39673,-3.82349],[39.37732,-3.80658],[39.39093,-3.73541],[39.37268,-3.7395],[39.34668,-3.70111],[39.34711,-3.60022],[39.31891,-3.56378],[39.29993,-3.5683],[39.09229,-3.56708]]],[[[39.45349,-4.55878],[39.45288,-4.5321],[39.44531,-4.55859],[39.4259,-4.5553],[39.43628,-4.58789],[39.45227,-4.5614],[39.45349,-4.55878]]],[[[39.36469,-4.65503],[39.4035,-4.6684],[39.37708,-4.6554],[39.36469,-4.65503]]],[[[39.30969,-4.5744],[39.30249,-4.59009],[39.31128,-4.57501],[39.30969,-4.5744]]],[[[39.22992,-4.64783],[39.22729,-4.64038],[39.22308,-4.64252],[39.22992,-4.64783]]],[[[39.24609,-4.62097],[39.24689,-4.61713],[39.24213,-4.6123],[39.24609,-4.62097]]],[[[39.25128,-4.61609],[39.2583,-4.61212],[39.25732,-4.6095],[39.25128,-4.61609]]],[[[39.29028,-4.59528],[39.28833,-4.59192],[39.28967,-4.58972],[39.29028,-4.59528]]],[[[39.40991,-4.57629],[39.40973,-4.57361],[39.40472,-4.57642],[39.40991,-4.57629]]],[[[39.23828,-4.62848],[39.2403,-4.62469],[39.23907,-4.62238],[39.23828,-4.62848]]],[[[39.53333,-4.44421],[39.53589,-4.43921],[39.53192,-4.44098],[39.53333,-4.44421]]],[[[39.23291,-4.63788],[39.23389,-4.63611],[39.23132,-4.6347],[39.23291,-4.63788]]],[[[39.21832,-4.64459],[39.22113,-4.64331],[39.21729,-4.64148],[39.21832,-4.64459]]],[[[39.23108,-4.65143],[39.23413,-4.64838],[39.23248,-4.6463],[39.23108,-4.65143]]],[[[39.265319824150595,-4.611389159781879],[39.258728027376605,-4.608581542903835],[39.26007080062698,-4.61029052728594],[39.265319824150595,-4.611389159781879]]],[[[39.406494140792006,-4.702209472788866],[39.40747070291064,-4.699584960577397],[39.4036865230147,-4.700683593972656],[39.406494140792006,-4.702209472788866]]],[[[39.415283202557816,-4.570312500321563],[39.415527343312306,-4.567504883443576],[39.4136962885529,-4.568481445562213],[39.415283202557816,-4.570312500321563]]],[[[39.40148925802288,-4.57421874969549],[39.400085449583855,-4.572692870879223],[39.39752197256104,-4.572692870879223],[39.40148925802288,-4.57421874969549]]],[[[39.3991088865659,-4.684875488213152],[39.39727783180655,-4.682983398265151],[39.395874023367526,-4.683593750151374],[39.3991088865659,-4.684875488213152]]],[[[39.40167236358877,-4.684814453024558],[39.40209960900978,-4.683288574208291],[39.39990234401802,-4.683593750151374],[39.40167236358877,-4.684814453024558]]],[[[39.40289306556258,-4.572326659747489],[39.40289306556258,-4.570983885597798],[39.40148925802288,-4.570983885597798],[39.40289306556258,-4.572326659747489]]]]}},{"type":"Feature","properties":{"shapeName":"Mombasa","shapeISO":"KE-28","shapeID":"32016919B10079274489584"},"geometry":{"type":"MultiPolygon","coordinates":[[[[39.64771,-3.95068],[39.66211,-3.94769],[39.6723,-3.987],[39.66052,-4.01941],[39.6745,-4.01349],[39.6731,-4.0412],[39.69788,-4.0592],[39.76392,-3.95782],[39.68652,-3.94989],[39.70709,-3.94513],[39.69568,-3.92328],[39.67047,-3.9187],[39.64191,-3.9231],[39.64673,-3.94739],[39.64771,-3.95068]]],[[[39.56738,-3.99278],[39.58472,-4.04327],[39.64789,-4.03198],[39.63428,-3.98828],[39.59668,-3.98523],[39.60773,-3.9754],[39.59808,-3.94733],[39.56952,-3.98718],[39.56738,-3.99278]]],[[[39.62531,-4.1449],[39.64093,-4.15503],[39.67371,-4.08972],[39.64587,-4.07959],[39.63812,-4.04938],[39.61688,-4.05902],[39.62189,-4.07068],[39.59192,-4.06348],[39.58392,-4.0896],[39.5863,-4.11688],[39.60809,-4.08911],[39.6377,-4.12061],[39.63092,-4.13721],[39.62531,-4.1449]]],[[[39.66412,-4.02869],[39.64008,-4.03888],[39.66949,-4.07721],[39.6817,-4.0683],[39.66931,-4.03381],[39.66412,-4.02869]]],[[[39.62311,-3.95959],[39.6167,-3.97388],[39.6601,-3.9845],[39.65472,-3.96021],[39.62769,-3.96191],[39.62311,-3.95959]]],[[[39.57849,-4.1192],[39.58429,-4.1178],[39.5813,-4.11578],[39.57849,-4.1192]]],[[[39.66608,-3.99268],[39.66748,-3.99042],[39.66669,-3.9884],[39.66608,-3.99268]]],[[[39.61431884743689,-3.960998535154204],[39.61450195300279,-3.959411621149343],[39.611511230558904,-3.960021973035566],[39.61431884743689,-3.960998535154204]]],[[[39.64728,-4.03607],[39.64752,-4.03479],[39.64569,-4.03418],[39.64728,-4.03607]]]]}}]}
