{"type":"FeatureCollection","crs":{"type":"name","properties":{"name":"urn:ogc:def:crs:OGC:1.3:CRS84"}},"features":[{"type":"Feature","properties":{"shapeName":"Abyei PCA","shapeISO":"N/A","shapeID":"86620642B69119058579524"},"geometry":{"type":"Polygon","coordinates":[[[27.89844,9.61085],[28.03887,9.34323],[28.76859,9.34842],[28.75859,9.40315],[28.8057,9.48785],[28.99976,9.67091],[28.99983,10.16667],[27.83623,10.16629],[27.83162,9.73659],[27.89844,9.61085]]]}},{"type":"Feature","properties":{"shapeName":"Gezira","shapeISO":"SD-GZ","shapeID":"86620642B80352504723135"},"geometry":{"type":"Polygon","coordinates":[[[33.56927,15.45551],[33.52789,15.4679],[33.36932,15.38129],[33.3089,15.39032],[33.26788,15.32233],[33.21448,15.29352],[33.20673,15.2179],[33.16888,15.21411],[33.11493,15.2793],[33.07489,15.29028],[32.93872,15.26569],[32.8717,15.32391],[32.7851,15.35168],[32.74872,15.40991],[32.72247,15.41388],[32.70691,15.40869],[32.71368,15.38751],[32.67792,15.37512],[32.7077,15.29431],[32.66431,15.27692],[32.67493,15.18573],[32.54089,15.19751],[32.51971,15.11591],[32.56207,15.06232],[32.54169,14.98749],[32.56549,14.84949],[32.55292,14.79608],[32.46887,14.64752],[32.45569,14.67609],[32.38312,14.67188],[32.35352,14.64911],[32.35107,14.59308],[32.41107,14.52393],[32.4201,14.4137],[32.49268,14.28168],[32.44849,14.19769],[32.53632,14.03149],[32.53711,13.97131],[32.62732,13.90088],[32.66748,13.90948],[32.6687,13.84833],[32.71588,13.74408],[32.68109,13.68829],[32.70892,13.68469],[32.7345,13.61249],[32.7901,13.59351],[32.81128,13.55487],[32.89069,13.65613],[32.9043,13.72131],[32.94171,13.6969],[33.01892,13.78131],[33.07629,13.80432],[33.11108,13.7865],[33.06671,13.8407],[33.06189,14.04071],[33.16931,14.0415],[33.23993,14.07489],[33.32031,14.00391],[33.35712,13.90692],[33.41333,13.8905],[33.40912,13.82251],[33.47052,13.83209],[33.48749,13.81293],[33.49988,13.82727],[33.4657,13.6333],[33.48212,13.63611],[33.49268,13.60309],[33.58551,13.58112],[33.58673,13.61249],[33.62653,13.66608],[33.6239,13.70007],[33.56268,13.7171],[33.55908,13.73511],[33.62488,13.7597],[33.56232,13.80847],[33.55713,13.83533],[33.62512,13.85791],[33.62768,13.90772],[33.60413,13.9397],[33.64648,13.96552],[33.6283,14.04431],[33.66333,14.06268],[33.67651,14.10309],[33.7215,14.10089],[33.72949,14.07629],[33.92651,14.00592],[33.98853,14.00549],[33.93073,14.13629],[34.01532,14.21051],[34.03967,14.26312],[33.98889,14.33911],[34.03216,14.33638],[34.25989,14.66748],[34.28552,14.7323],[34.0415,15.14331],[33.73529,15.2915],[33.65228,15.30072],[33.63373,15.39929],[33.57507,15.43848],[33.56927,15.45551]]]}},{"type":"Feature","properties":{"shapeName":"Blue Nile","shapeISO":"SD-NB","shapeID":"86620642B86272532082738"},"geometry":{"type":"Polygon","coordinates":[[[35.05064,11.7395],[34.9187,11.95227],[34.78448,12.42188],[34.65649,12.51251],[34.4505,12.56232],[34.42389,12.52667],[34.29028,12.45111],[34.22272,12.46033],[34.15149,12.34387],[34.02789,12.2265],[33.74127,12.08289],[33.17469,11.74058],[33.14052,11.62809],[33.26572,10.82919],[33.21902,10.73499],[33.48272,10.65789],[33.66782,10.44139],[33.79392,10.33759],[33.90152,10.16159],[33.97002,10.14819],[33.97092,10.09299],[33.99572,10.06209],[33.99282,9.91079],[33.96522,9.80269],[33.92052,9.76179],[33.89862,9.67999],[33.88672,9.59719],[33.89952,9.49859],[34.11272,9.49859],[34.10872,9.56649],[34.22492,9.89919],[34.24292,10.05329],[34.33672,10.11619],[34.34812,10.17039],[34.28622,10.53299],[34.30242,10.57869],[34.39762,10.67529],[34.46802,10.80949],[34.60272,10.90329],[34.75742,10.74959],[34.79499,10.74905],[34.78362,10.70149],[34.86022,10.74809],[34.86922,10.79619],[34.97678,10.88377],[34.95252,10.94329],[35.00867,11.18596],[34.93633,11.24117],[35.05292,11.42719],[35.08622,11.53149],[35.09052,11.64519],[35.06812,11.69659],[35.05064,11.7395]]]}},{"type":"Feature","properties":{"shapeName":"Central Darfur","shapeISO":"SD-DC","shapeID":"86620642B67241023181859"},"geometry":{"type":"Polygon","coordinates":[[[24.44622,13.12663],[24.63904,13.24788],[24.71509,13.38489],[24.68335,13.43066],[24.46753,13.41668],[24.26906,13.35136],[24.24796,13.26504],[24.12988,13.27008],[24.10179,13.23965],[24.02828,13.3307],[23.90811,13.38969],[23.8821,13.37129],[23.80627,13.37988],[23.78149,13.39288],[23.76947,13.44531],[23.62732,13.48993],[23.49432,13.55933],[23.43628,13.54968],[23.39807,13.49872],[23.26208,13.43048],[23.22469,13.42863],[23.2009,13.39841],[23.18609,13.29468],[23.08109,13.25592],[23.0429,13.26312],[23.03289,13.19128],[22.9511,13.10089],[22.97429,13.05987],[22.94249,13.02948],[22.88091,13.01471],[22.91289,12.9815],[22.89645,12.93608],[22.7921,12.89111],[22.7849,12.86072],[22.68267,12.79107],[22.66607,12.73529],[22.61608,12.69311],[22.6115,12.66089],[22.6953,12.47387],[22.69268,12.39068],[22.73211,12.28851],[22.59224,12.06041],[22.63697,12.06089],[22.55322,11.70778],[22.56035,11.63116],[22.65791,11.51552],[22.76071,11.47126],[22.78687,11.40618],[22.94154,11.42605],[22.93393,11.32088],[22.98152,11.30136],[22.98675,11.21666],[22.90867,11.02589],[22.97772,11.02789],[23.0835,11.06628],[23.18109,11.17889],[23.25311,11.15912],[23.33447,11.16272],[23.39349,11.24487],[23.63068,11.31409],[23.6629,11.33569],[23.68311,11.39069],[23.74106,11.42173],[23.71509,11.71033],[23.72028,11.82373],[23.7583,11.85132],[23.76147,11.89709],[23.73169,11.9975],[23.74792,12.03088],[23.70172,12.06171],[23.68988,12.12768],[23.78911,12.44873],[23.77629,12.51104],[23.7867,12.69228],[23.85324,12.71774],[23.85612,12.7686],[23.88333,12.804],[24.10108,12.82971],[24.14467,12.84847],[24.2091,12.93268],[24.38671,12.9889],[24.37349,13.03024],[24.39648,13.10773],[24.4219,13.13074],[24.4461,13.12091],[24.44622,13.12663]]]}},{"type":"Feature","properties":{"shapeName":"East Darfur","shapeISO":"SD-DE","shapeID":"86620642B42892304507154"},"geometry":{"type":"Polygon","coordinates":[[[27.21888,11.76397],[27.15979,11.78672],[27.05899,11.79036],[26.8219,11.74951],[26.63561,11.84292],[26.35123,11.87658],[26.20799,11.9415],[26.21637,11.99634],[26.1665,12.09009],[26.0777,12.10712],[26.03329,12.20894],[25.97247,12.2157],[25.9525,12.28933],[25.89032,12.37457],[25.91662,12.40047],[26.08929,12.41121],[26.08131,12.50183],[25.99663,12.56835],[25.93143,12.67775],[25.84866,12.75643],[25.82233,12.77443],[25.76569,12.7718],[25.56754,12.86554],[25.56564,12.95644],[25.4776,12.97262],[25.45657,12.96119],[25.45955,12.69086],[25.47858,12.64803],[25.41957,12.59568],[25.41481,12.53667],[25.45669,12.40247],[25.411,12.29587],[25.31392,12.20474],[25.3061,12.16547],[25.30969,11.92651],[25.28604,11.69963],[25.30267,11.5379],[25.36987,11.41669],[25.51349,11.34528],[25.54968,11.30713],[25.53772,11.1853],[25.56671,11.1275],[25.59912,11.12311],[25.63893,11.14887],[25.70505,11.05366],[25.71586,11.0099],[25.69414,10.94541],[25.77069,10.75208],[25.97089,10.49768],[25.9325,10.37293],[25.94714,10.13899],[25.98711,10.13709],[25.99092,10.11234],[26.04993,10.08569],[26.12227,9.98481],[26.21437,9.90339],[26.32448,9.60536],[26.39426,9.55914],[26.66219,9.48682],[26.76102,9.4886],[27.07948,9.61619],[27.42127,9.62785],[27.58314,9.6142],[27.48465,9.79173],[27.47795,10.08592],[27.4494,10.23821],[27.47557,10.38811],[27.26132,10.8572],[27.29789,11.04995],[27.25162,11.19711],[27.2468,11.4129],[27.21888,11.76397]]]}},{"type":"Feature","properties":{"shapeName":"Gedaref","shapeISO":"SD-GD","shapeID":"86620642B51630913908628"},"geometry":{"type":"Polygon","coordinates":[[[33.98853,14.00549],[34.03954,13.97794],[34.09833,13.8159],[34.26111,13.65033],[34.3739,13.48547],[34.57568,13.26172],[34.64191,13.24792],[34.64471,13.20728],[34.67754,13.18829],[34.70335,13.19687],[34.72351,13.17572],[34.72949,13.19629],[34.74872,13.18152],[34.77667,13.19592],[34.79291,13.16968],[34.81372,13.17108],[34.86688,13.02869],[35.00293,12.89928],[35.10834,12.89885],[35.23248,12.77947],[35.34088,12.73509],[35.56927,12.72307],[35.69482,12.66539],[35.76724,12.65885],[35.77105,12.67265],[35.99948,12.72214],[36.08323,12.71691],[36.13368,12.68502],[36.16889,12.69216],[36.18222,12.85967],[36.18249,12.89753],[36.15061,12.94274],[36.27577,13.35724],[36.38237,13.54617],[36.4509,13.77365],[36.49849,13.83789],[36.45851,13.97876],[36.54699,14.2209],[36.43573,14.23328],[36.3531,14.27948],[36.07532,14.2063],[35.90177,14.26269],[35.86122,14.29203],[35.85432,14.34208],[35.89227,14.46191],[35.87566,14.51886],[35.9035,14.57448],[35.88272,14.66101],[35.93428,14.77854],[35.91667,14.85102],[35.72855,14.8697],[34.77363,15.45665],[34.69373,15.54028],[34.38068,15.68329],[33.98669,15.76288],[33.66772,15.68872],[33.6225,15.65253],[33.57928,15.55212],[33.56927,15.45551],[33.63373,15.39929],[33.65228,15.30072],[33.73529,15.2915],[34.0415,15.14331],[34.28552,14.7323],[34.25989,14.66748],[34.03216,14.33638],[33.98889,14.33911],[34.03967,14.26312],[34.01532,14.21051],[33.93073,14.13629],[33.99072,14.01788],[33.98853,14.00549]]]}},{"type":"Feature","properties":{"shapeName":"Kassala","shapeISO":"SD-KA","shapeID":"86620642B34113093603931"},"geometry":{"type":"Polygon","coordinates":[[[36.54699,14.2209],[36.56035,14.25668],[36.52171,14.34432],[36.43281,15.16658],[36.53465,15.22893],[36.63887,15.47687],[36.63173,15.50875],[36.71046,15.75015],[36.76832,15.83616],[36.89781,16.22687],[36.96391,16.28779],[36.93423,16.35694],[36.95096,16.3657],[36.96676,16.43436],[36.90632,16.4829],[36.88824,16.55143],[36.89697,16.66715],[36.9583,16.68468],[36.99341,16.73132],[36.98985,16.76441],[37.03103,16.79771],[37.00387,16.83539],[37.00626,16.93738],[36.98294,16.97164],[37.01789,17.04441],[37.00324,17.07327],[36.76331,17.00153],[36.17047,17.03833],[36.08313,17.02112],[35.65692,17.20728],[35.67108,16.41528],[35.62329,16.37268],[35.41772,16.27289],[35.32813,16.30951],[34.40509,16.2915],[34.2156,16.05376],[34.33558,15.84956],[34.38068,15.68329],[34.69373,15.54028],[34.77363,15.45665],[35.72855,14.8697],[35.91667,14.85102],[35.93428,14.77854],[35.88272,14.66101],[35.9035,14.57448],[35.87436,14.51183],[35.89227,14.46191],[35.85432,14.34208],[35.86122,14.29203],[35.90177,14.26269],[36.07532,14.2063],[36.32953,14.27948],[36.52069,14.21808],[36.54699,14.2209]]]}},{"type":"Feature","properties":{"shapeName":"Khartoum","shapeISO":"SD-KH","shapeID":"86620642B69351377969837"},"geometry":{"type":"Polygon","coordinates":[[[33.56927,15.45551],[33.57928,15.55212],[33.6225,15.65253],[33.66772,15.68872],[33.98669,15.76288],[34.38068,15.68329],[34.33551,15.84949],[34.21552,16.05371],[33.96887,16.0033],[33.6651,15.98108],[33.53131,16.03809],[33.43591,16.11353],[33.27612,16.17151],[32.80627,16.25409],[32.69312,16.3349],[32.17432,16.40009],[31.88568,16.63013],[31.69787,16.52789],[32.00543,15.84106],[32.09985,15.72106],[32.35571,15.18793],[32.4353,15.18408],[32.45129,15.22949],[32.53967,15.19427],[32.67493,15.18573],[32.66431,15.27692],[32.7077,15.29431],[32.67792,15.37512],[32.71368,15.38751],[32.70691,15.40869],[32.72247,15.41388],[32.74872,15.40991],[32.7851,15.35168],[32.8717,15.32391],[32.93872,15.26569],[33.07489,15.29028],[33.11493,15.2793],[33.16888,15.21411],[33.20673,15.2179],[33.21448,15.29352],[33.26788,15.32233],[33.3089,15.39032],[33.37909,15.38391],[33.52789,15.4679],[33.56927,15.45551]]]}},{"type":"Feature","properties":{"shapeName":"North Darfur","shapeISO":"SD-DN","shapeID":"86620642B32784125865646"},"geometry":{"type":"Polygon","coordinates":[[[24.44622,13.12663],[24.75852,13.09946],[24.93967,12.99971],[24.98089,12.95331],[25.0917,12.94515],[25.2049,12.97809],[25.26581,12.95232],[25.36609,12.97571],[25.56564,12.95644],[25.56754,12.86554],[25.76569,12.7718],[25.82233,12.77443],[25.84866,12.75643],[25.93143,12.67775],[25.99663,12.56835],[26.0921,12.4864],[26.08929,12.41121],[25.91662,12.40047],[25.89032,12.37457],[25.9525,12.28933],[25.97247,12.2157],[26.03329,12.20894],[26.0777,12.10712],[26.1665,12.09009],[26.21637,11.99634],[26.20799,11.9415],[26.35123,11.87658],[26.63561,11.84292],[26.8219,11.74951],[27.05899,11.79036],[27.15979,11.78672],[27.21888,11.76397],[27.18198,11.8821],[27.06418,12.10232],[27.08182,12.23769],[27.07578,12.39309],[27.12637,12.57851],[27.13797,12.90853],[27.35819,13.17049],[27.34842,13.20229],[27.37778,13.23672],[27.38498,13.34249],[27.51779,13.49288],[27.54318,13.54549],[27.54559,13.61089],[27.54077,13.64427],[27.45517,13.74032],[27.47122,14.0209],[27.44379,14.09746],[27.3418,14.10085],[27.33935,14.27852],[27.19936,14.80369],[27.11971,14.91825],[27.07,15.07752],[26.941,16.5231],[27.49257,16.52626],[27.49628,20.00833],[25.00286,20.02054],[25.00291,20.00705],[24.00015,20.00659],[23.99885,15.71386],[23.81565,15.75246],[23.60335,15.76576],[23.36115,15.69536],[23.10985,15.71386],[23.02725,15.62356],[22.92535,15.55076],[22.92905,15.46786],[22.98945,15.41216],[22.99995,15.23656],[22.92905,15.15666],[22.92665,15.09146],[22.86145,15.08046],[22.85625,15.05006],[22.81195,15.03206],[22.7825,14.98361],[22.87599,14.89868],[22.81768,14.55951],[22.90252,14.50311],[23.01025,14.5491],[23.14241,14.35791],[23.1064,14.21825],[23.15718,14.15887],[23.2206,14.1651],[23.20779,14.10488],[23.24282,13.9909],[23.14919,13.90026],[23.1006,13.75811],[23.20839,13.7163],[23.17702,13.70086],[23.18019,13.58831],[23.13858,13.56581],[23.18801,13.5241],[23.18231,13.46447],[23.22469,13.42863],[23.26208,13.43048],[23.39807,13.49872],[23.43628,13.54968],[23.49432,13.55933],[23.62732,13.48993],[23.76947,13.44531],[23.78149,13.39288],[23.80627,13.37988],[23.8821,13.37129],[23.90811,13.38969],[24.02828,13.3307],[24.10179,13.23965],[24.12988,13.27008],[24.24796,13.26504],[24.26906,13.35136],[24.46753,13.41668],[24.68335,13.43066],[24.71509,13.38489],[24.63904,13.24788],[24.44611,13.13068],[24.44622,13.12663]]]}},{"type":"Feature","properties":{"shapeName":"North Kordofan","shapeISO":"SD-KN","shapeID":"86620642B75144405979625"},"geometry":{"type":"Polygon","coordinates":[[[31.69787,16.52789],[26.94139,16.52953],[27.07,15.07752],[27.11971,14.91825],[27.19936,14.80369],[27.33935,14.27852],[27.3418,14.10085],[27.48075,14.09228],[27.49674,14.11811],[27.7728,14.11864],[27.82363,14.05818],[27.86049,14.07267],[27.87911,14.05803],[27.86271,14.08364],[27.90809,14.08204],[27.90701,14.06261],[27.95936,14.05077],[27.98804,14.05539],[27.98947,14.1194],[28.01262,14.12208],[28.08111,14.05614],[28.05149,14.01933],[28.05666,13.98326],[28.12488,13.95587],[28.19726,13.96966],[28.25342,14.02582],[28.60003,13.8977],[28.63805,13.85969],[28.73266,13.84948],[28.74707,13.81189],[28.76727,13.81091],[28.80145,13.85766],[28.87164,13.8573],[28.87164,13.7763],[29.10663,13.68731],[29.21924,13.5509],[29.26843,13.52825],[29.25964,13.50207],[29.38183,13.43609],[29.51587,13.40747],[29.54608,13.1007],[29.58764,13.08868],[29.78833,12.74573],[30.00928,12.7085],[30.00348,12.64429],[30.03603,12.59477],[30.04071,12.44672],[30.2265,12.52649],[30.3595,12.52667],[30.44971,12.45032],[30.50629,12.31128],[30.56261,12.25393],[30.71088,12.26892],[30.92828,12.34552],[30.94312,12.37769],[31.0213,12.38348],[31.0271,12.47247],[30.97607,12.60028],[30.98712,12.61072],[31.12073,12.62207],[31.17511,12.60852],[31.43793,12.65833],[31.68091,12.60211],[31.66888,12.7179],[31.69568,12.77612],[31.68652,12.86591],[31.73608,12.95367],[31.73108,12.98767],[31.8479,13.10529],[31.99432,13.15991],[32.02612,13.2229],[31.98291,13.3797],[32.0235,13.41608],[32.03527,13.47549],[32.01672,13.49792],[31.96588,13.50067],[31.95288,13.55627],[31.87345,13.62379],[31.7865,13.8725],[31.59387,14.00787],[31.56171,14.0705],[31.53512,14.16958],[31.52948,14.30652],[31.58752,14.4397],[31.60168,14.59949],[31.69269,14.69452],[31.7627,14.66333],[31.87848,14.75732],[31.8941,14.88251],[31.93127,14.88068],[31.95428,14.96692],[32.04327,14.96729],[32.07208,14.98712],[32.07129,15.02631],[32.04388,15.02789],[32.04291,15.0509],[32.35571,15.18793],[32.09985,15.72106],[32.00543,15.84106],[31.82429,16.24579],[31.69787,16.52789]]]}},{"type":"Feature","properties":{"shapeName":"Northern","shapeISO":"SD-NO","shapeID":"86620642B89646054714247"},"geometry":{"type":"Polygon","coordinates":[[[31.88568,16.63013],[32.38452,17.32813],[32.1839,17.85413],[32.33911,18.20227],[32.65369,18.4967],[32.25928,18.8913],[32.31628,19.63373],[32.39429,21.30609],[32.40814,21.99839],[31.40792,21.99969],[31.43272,22.07649],[31.51582,22.18579],[31.47352,22.22539],[31.37782,22.14379],[31.30532,21.99989],[24.99882,22.00039],[25.00286,20.02054],[27.49628,20.00833],[27.49257,16.52626],[31.69787,16.52789],[31.88568,16.63013]]]}},{"type":"Feature","properties":{"shapeName":"Red Sea","shapeISO":"SD-RS","shapeID":"86620642B7664605185235"},"geometry":{"type":"Polygon","coordinates":[[[37.00324,17.07327],[37.03489,17.10405],[37.09622,17.09159],[37.13432,17.06059],[37.31462,17.09799],[37.39462,17.05299],[37.47212,17.18059],[37.51162,17.20439],[37.49072,17.22389],[37.51592,17.26809],[37.49902,17.30919],[37.51162,17.33379],[37.61162,17.37569],[37.76012,17.38169],[37.78482,17.44279],[37.77292,17.48369],[37.83912,17.50269],[37.86672,17.45659],[37.91472,17.45749],[37.97722,17.48949],[38.00372,17.55889],[38.02452,17.54619],[38.06112,17.56569],[38.07112,17.48229],[38.10942,17.47559],[38.11272,17.56269],[38.17792,17.58129],[38.19682,17.54439],[38.21412,17.56319],[38.26552,17.56219],[38.28122,17.62549],[38.34542,17.64929],[38.45202,17.90039],[38.58236,18.01619],[38.5575,18.02878],[38.56132,18.05438],[38.50724,18.11628],[38.52668,18.06819],[38.50037,18.05282],[38.45889,18.08677],[38.45455,18.10577],[38.48173,18.09894],[38.46139,18.12461],[38.44005,18.10127],[38.41221,18.11328],[38.39353,18.15612],[38.4062,18.17329],[38.38202,18.20147],[38.35225,18.20246],[38.36565,18.17815],[38.34133,18.17318],[38.26889,18.20643],[38.28228,18.24216],[38.26789,18.26151],[38.31305,18.25357],[38.31156,18.28681],[38.30015,18.27342],[38.27534,18.30071],[38.28328,18.27342],[38.24656,18.26597],[38.25698,18.24017],[38.23415,18.2238],[38.19743,18.22727],[38.18949,18.25158],[38.18801,18.22925],[38.15923,18.23174],[38.16319,18.25158],[38.11854,18.263],[38.09968,18.2883],[38.10861,18.30766],[38.0868,18.32297],[38.08639,18.38402],[38.11953,18.40342],[38.11407,18.41781],[38.03307,18.46136],[37.93091,18.57247],[37.80276,18.61731],[37.73972,18.70901],[37.69752,18.71031],[37.67616,18.73584],[37.6263,18.71206],[37.53328,18.72296],[37.40946,18.87333],[37.40548,18.99461],[37.3572,19.12378],[37.32919,19.11102],[37.35788,19.13435],[37.33879,19.13887],[37.32855,19.29572],[37.32268,19.28057],[37.30873,19.32786],[37.32609,19.35019],[37.28125,19.47981],[37.29673,19.48244],[37.24571,19.55562],[37.23727,19.60028],[37.23252,19.65604],[37.24127,19.68421],[37.2467,19.65982],[37.26119,19.68441],[37.25315,19.7804],[37.26922,19.84393],[37.25589,19.83348],[37.25343,19.87264],[37.18056,20.00452],[37.21847,20.08989],[37.18773,20.33345],[37.20753,20.40353],[37.18851,20.45314],[37.23495,20.46326],[37.24114,20.54263],[37.17992,20.68694],[37.16266,20.91512],[37.09488,21.03757],[37.09328,21.07364],[37.13166,21.08767],[37.1178,21.11088],[37.13511,21.15479],[37.1028,21.15974],[37.09748,21.18903],[37.14683,21.22421],[37.17283,21.19987],[37.16383,21.14735],[37.18084,21.14018],[37.19451,21.16236],[37.19473,21.13574],[37.23569,21.13735],[37.23352,21.10651],[37.2802,21.04416],[37.19815,21.10582],[37.25503,20.99531],[37.25536,21.01665],[37.29554,21.01998],[37.287,21.04351],[37.30043,21.02927],[37.32282,21.06549],[37.06232,21.35448],[37.02715,21.3534],[37.02203,21.33333],[37.01974,21.35136],[37.00344,21.34761],[37.01562,21.36759],[37.04463,21.35025],[37.0593,21.36192],[37.0261,21.40712],[37.00469,21.39665],[37.01801,21.41426],[36.98803,21.47946],[36.94663,21.47851],[36.98089,21.49469],[36.9552,21.55988],[36.92617,21.58416],[36.93521,21.60843],[36.9019,21.59796],[36.8881,21.62223],[36.9314,21.61985],[36.91189,21.69885],[36.86287,21.70265],[36.9057,21.71027],[36.90713,21.72502],[36.89666,21.74168],[36.86763,21.72074],[36.86954,21.73454],[36.84717,21.73549],[36.85811,21.75928],[36.89714,21.75833],[36.88952,21.78736],[36.86906,21.79069],[36.89143,21.79402],[36.88762,21.83305],[36.84717,21.80925],[36.86097,21.83638],[36.82147,21.83638],[36.88048,21.84875],[36.85899,21.88365],[36.88516,21.94124],[36.8547,21.94885],[36.8666,21.95551],[36.84233,21.97645],[36.86898,21.97883],[36.89087,22.00929],[36.89611,22.06164],[36.84185,22.08115],[36.7719,22.16681],[36.7205,22.163],[36.57345,22.29435],[36.43639,22.35954],[36.42402,22.42855],[36.31695,22.4847],[36.26127,22.61177],[36.18893,22.66887],[36.16323,22.6584],[35.96907,22.70076],[35.9486,22.69124],[35.93766,22.71361],[35.92624,22.69219],[35.92909,22.71504],[35.80964,22.79689],[35.7987,22.85447],[35.79394,22.82592],[35.77252,22.83877],[35.76253,22.85495],[35.78823,22.84733],[35.79108,22.86066],[35.75349,22.923],[35.71922,22.92871],[35.71685,22.9111],[35.66402,22.99581],[35.65403,23.07386],[35.62081,23.14287],[35.19812,22.78452],[34.94472,22.85875],[34.68631,22.29672],[34.15046,22.20249],[34.00341,21.76943],[33.56025,21.72134],[33.25848,21.51471],[33.31848,21.44672],[33.35712,21.27112],[33.34808,21.23389],[33.28748,21.16248],[33.29889,21.0683],[33.27472,20.94849],[33.40271,20.84991],[33.45691,20.7771],[33.5481,20.74213],[33.57971,20.65051],[33.66968,20.49872],[33.60828,20.06952],[33.69348,19.70911],[33.67249,19.43512],[33.6825,19.35468],[33.80109,19.16913],[34.11853,18.36768],[34.44928,18.2619],[34.6087,18.17969],[34.85931,17.94049],[35.17633,17.55847],[35.35107,17.41211],[35.65692,17.20728],[36.08313,17.02112],[36.17047,17.03833],[36.76331,17.00153],[37.00153,17.07172],[37.00324,17.07327]]]}},{"type":"Feature","properties":{"shapeName":"River Nile","shapeISO":"SD-NR","shapeID":"86620642B58839150544065"},"geometry":{"type":"Polygon","coordinates":[[[35.65692,17.20728],[35.35107,17.41211],[35.17633,17.55847],[34.85931,17.94049],[34.6087,18.17969],[34.44928,18.2619],[34.11853,18.36768],[33.80109,19.16913],[33.6825,19.35468],[33.67249,19.43512],[33.69348,19.70911],[33.60828,20.06952],[33.66968,20.49872],[33.57971,20.65051],[33.5481,20.74213],[33.45691,20.7771],[33.40271,20.84991],[33.28668,20.92651],[33.27051,20.97211],[33.29889,21.0683],[33.28748,21.16248],[33.34808,21.23389],[33.35712,21.27112],[33.31848,21.44672],[33.25848,21.51471],[33.56025,21.72134],[33.16414,21.99895],[32.40814,21.99839],[32.39429,21.30609],[32.31628,19.63373],[32.25928,18.8913],[32.65369,18.4967],[32.33911,18.20227],[32.1839,17.85413],[32.38452,17.32813],[31.88568,16.63013],[32.17432,16.40009],[32.69312,16.3349],[32.80627,16.25409],[33.27612,16.17151],[33.43591,16.11353],[33.53131,16.03809],[33.6651,15.98108],[33.96887,16.0033],[34.21552,16.05371],[34.33551,15.84949],[34.38068,15.68329],[34.33558,15.84956],[34.2156,16.05376],[34.40509,16.2915],[35.32813,16.30951],[35.41772,16.27289],[35.62329,16.37268],[35.67108,16.41528],[35.65973,17.08673],[35.65692,17.20728]]]}},{"type":"Feature","properties":{"shapeName":"Sennar","shapeISO":"SD-SI","shapeID":"86620642B212901614698"},"geometry":{"type":"Polygon","coordinates":[[[32.94171,13.6969],[32.96429,13.4209],[32.9115,13.26289],[32.98932,13.15833],[33.04932,13.18268],[33.07812,13.17188],[33.0791,13.14709],[33.01489,13.11151],[33.05951,13.04071],[33.10828,13.04211],[33.11264,13.00813],[33.18573,12.92792],[33.09308,12.75708],[33.06787,12.65088],[33.15808,12.49048],[33.1897,12.39429],[33.22729,12.35687],[33.21912,12.30652],[33.25511,12.21439],[33.29774,12.21197],[33.25681,12.16581],[33.17469,11.74058],[33.74127,12.08289],[34.02789,12.2265],[34.15149,12.34387],[34.22272,12.46033],[34.29028,12.45111],[34.42389,12.52667],[34.4505,12.56232],[34.65649,12.51251],[34.78448,12.42188],[34.9187,11.95227],[35.05064,11.7395],[35.09532,11.81609],[35.27562,11.94449],[35.45742,12.28809],[35.69982,12.66609],[35.56927,12.72307],[35.34088,12.73509],[35.23248,12.77947],[35.10834,12.89885],[35.01788,12.89507],[34.97192,12.9185],[34.86688,13.02869],[34.81372,13.17108],[34.79291,13.16968],[34.77667,13.19592],[34.74872,13.18152],[34.72949,13.19629],[34.72351,13.17572],[34.70335,13.19687],[34.67754,13.18829],[34.64471,13.20728],[34.64191,13.24792],[34.57568,13.26172],[34.3739,13.48547],[34.26111,13.65033],[34.09833,13.8159],[34.03954,13.97794],[33.98853,14.00549],[33.92651,14.00592],[33.72949,14.07629],[33.7215,14.10089],[33.67651,14.10309],[33.66333,14.06268],[33.62372,14.0329],[33.64313,13.9563],[33.6051,13.94952],[33.62768,13.90772],[33.62512,13.85791],[33.55713,13.83533],[33.56232,13.80847],[33.62488,13.7597],[33.55908,13.73511],[33.56268,13.7171],[33.6239,13.70007],[33.62653,13.66608],[33.58673,13.61249],[33.58551,13.58112],[33.49268,13.60309],[33.48212,13.63611],[33.4657,13.6333],[33.49988,13.82727],[33.48749,13.81293],[33.47052,13.83209],[33.40912,13.82251],[33.41333,13.8905],[33.35712,13.90692],[33.32031,14.00391],[33.23993,14.07489],[33.16931,14.0415],[33.06189,14.04071],[33.06671,13.8407],[33.11108,13.7865],[33.07629,13.80432],[32.97791,13.7475],[32.94171,13.6969]]]}},{"type":"Feature","properties":{"shapeName":"South Darfur","shapeISO":"SD-DS","shapeID":"86620642B33888251991816"},"geometry":{"type":"Polygon","coordinates":[[[22.90867,11.02589],[22.87444,10.9216],[23.00436,10.71602],[23.11382,10.65082],[23.15617,10.59133],[23.31845,10.46617],[23.67204,9.8932],[23.69869,9.67572],[23.59828,9.52248],[23.61065,9.47156],[23.6834,9.43069],[23.64582,9.38971],[23.64344,9.33783],[23.60351,9.33736],[23.61636,9.23123],[23.53181,9.16803],[23.61584,9.23123],[23.62201,9.27601],[23.61581,9.23136],[23.59201,9.20899],[23.51429,9.15728],[23.49588,9.17378],[23.47114,9.15188],[23.454,9.05766],[23.46638,9.0391],[23.44213,9.01573],[23.53351,8.97758],[23.56254,9.05468],[23.6134,8.98003],[23.55963,8.86867],[23.51965,8.84345],[23.52094,8.7604],[23.55354,8.7444],[23.59556,8.76051],[23.61969,8.72584],[23.63678,8.76438],[23.71244,8.69205],[23.84807,8.72964],[23.95182,8.69014],[24.02558,8.71727],[24.08221,8.68015],[24.20361,8.69348],[24.2493,8.71679],[24.26357,8.69633],[24.22365,8.64133],[24.24418,8.64798],[24.38361,8.7898],[24.52686,8.845],[24.5792,8.924],[24.54304,9.06296],[24.5654,9.18479],[24.62584,9.3209],[24.59634,9.37657],[24.7391,9.48222],[24.75433,9.51934],[24.73244,9.62689],[24.73958,9.71208],[24.72007,9.74444],[24.81001,9.80297],[24.85379,9.87626],[24.94992,9.93575],[25.00275,10.00285],[25.00894,10.03997],[25.03273,10.03378],[25.03035,10.07185],[25.05938,10.12135],[25.02892,10.17369],[25.0984,10.31313],[25.15218,10.33359],[25.18644,10.3217],[25.24926,10.3512],[25.33968,10.33597],[25.37966,10.3612],[25.46294,10.37404],[25.53527,10.36072],[25.62569,10.39641],[25.69155,10.39899],[25.70629,10.41658],[25.78756,10.4123],[25.81323,10.43986],[25.88975,10.42418],[25.93759,10.37795],[25.97089,10.49768],[25.77069,10.75208],[25.69414,10.94541],[25.71586,11.0099],[25.70505,11.05366],[25.63893,11.14887],[25.59912,11.12311],[25.56671,11.1275],[25.53772,11.1853],[25.54968,11.30713],[25.51349,11.34528],[25.36987,11.41669],[25.29448,11.57566],[25.30964,12.19331],[25.411,12.29587],[25.45669,12.40247],[25.41481,12.53667],[25.41957,12.59568],[25.47858,12.64803],[25.45955,12.69086],[25.4585,12.96907],[25.36609,12.97571],[25.26581,12.95232],[25.2049,12.97809],[25.0917,12.94515],[24.98089,12.95331],[24.93967,12.99971],[24.75852,13.09946],[24.43988,13.1153],[24.4219,13.13074],[24.37631,13.0453],[24.38671,12.9889],[24.2091,12.93268],[24.14467,12.84847],[24.10108,12.82971],[23.88333,12.804],[23.85612,12.7686],[23.85324,12.71774],[23.7867,12.69228],[23.77629,12.51104],[23.78911,12.44873],[23.68988,12.12768],[23.70172,12.06171],[23.74792,12.03088],[23.73169,11.9975],[23.76147,11.89709],[23.7583,11.85132],[23.72028,11.82373],[23.71509,11.71033],[23.74106,11.42173],[23.68311,11.39069],[23.6629,11.33569],[23.63068,11.31409],[23.40613,11.25208],[23.33447,11.16272],[23.25311,11.15912],[23.18109,11.17889],[23.0835,11.06628],[22.97772,11.02789],[22.90867,11.02589]]]}},{"type":"Feature","properties":{"shapeName":"South Kordofan","shapeISO":"SD-KS","shapeID":"86620642B95962932854573"},"geometry":{"type":"Polygon","coordinates":[[[29.78833,12.74573],[29.71182,12.72854],[29.71298,12.66109],[29.64401,12.48708],[29.52341,12.3605],[29.48923,12.2665],[29.437,12.24174],[29.41782,12.15951],[29.35342,12.1285],[29.26962,11.97433],[29.22379,11.74789],[29.25498,11.69649],[29.3768,11.7015],[29.49637,11.39913],[29.46042,11.32693],[29.4708,11.25094],[29.3378,11.13869],[29.33859,11.04653],[29.361,11.00173],[29.39023,10.94729],[29.84238,10.56454],[29.97388,10.2929],[30.52943,9.96068],[30.82733,9.71891],[30.89263,9.74859],[31.18081,9.74967],[31.31465,9.77234],[31.53861,10.00374],[31.93349,10.49048],[32.01915,10.50714],[32.06198,10.48096],[32.15478,10.46669],[32.22854,10.50952],[32.23092,10.56662],[32.19285,10.71415],[32.4599,10.97639],[32.3891,11.17908],[32.3845,11.69658],[32.10658,11.945],[32.12793,11.94509],[31.9101,12.16229],[31.82208,12.15991],[31.68091,12.60211],[31.43793,12.65833],[31.17511,12.60852],[31.12073,12.62207],[30.98712,12.61072],[30.97607,12.60028],[31.0271,12.47247],[31.0213,12.38348],[30.94312,12.37769],[30.92828,12.34552],[30.71088,12.26892],[30.56261,12.25393],[30.50629,12.31128],[30.44971,12.45032],[30.3595,12.52667],[30.2265,12.52649],[30.04071,12.44672],[30.03603,12.59477],[30.00348,12.64429],[30.00928,12.7085],[29.80573,12.73792],[29.78833,12.74573]]]}},{"type":"Feature","properties":{"shapeName":"West Darfur","shapeISO":"SD-DW","shapeID":"86620642B73786067507541"},"geometry":{"type":"Polygon","coordinates":[[[23.22469,13.42863],[23.18231,13.46447],[23.18801,13.5241],[23.13858,13.56581],[23.18019,13.58831],[23.17702,13.70086],[23.20839,13.7163],[23.1006,13.75207],[23.14919,13.90026],[23.24282,13.9909],[23.20779,14.10488],[23.2206,14.1651],[23.15718,14.15887],[23.1064,14.21825],[23.14241,14.35791],[23.01025,14.5491],[22.90252,14.50311],[22.81768,14.55951],[22.87599,14.89868],[22.7825,14.98361],[22.75286,14.95945],[22.7582,14.89607],[22.70442,14.88655],[22.66397,14.83659],[22.71346,14.69572],[22.40937,14.59816],[22.38414,14.51869],[22.44458,14.48347],[22.43554,14.40876],[22.45926,14.33175],[22.43116,14.31315],[22.43031,14.28931],[22.47218,14.23601],[22.50166,14.24655],[22.55016,14.22985],[22.56636,14.18425],[22.53256,14.11095],[22.49074,14.10561],[22.44546,14.05145],[22.40128,14.05231],[22.32604,14.00806],[22.29939,13.96237],[22.23229,13.95143],[22.07239,13.77677],[22.12539,13.73127],[22.1173,13.68225],[22.14486,13.62569],[22.23186,13.54406],[22.22434,13.46675],[22.299,13.38542],[22.30086,13.35972],[22.2152,13.26688],[22.17384,13.24832],[22.13382,13.1679],[22.01347,13.13792],[22.00676,13.11269],[21.93066,13.04845],[21.90033,12.98656],[21.9307,13.04837],[22.02052,13.13922],[21.93123,13.04836],[21.8489,12.83564],[21.81368,12.8028],[21.85746,12.76473],[21.85603,12.72666],[21.88364,12.7062],[21.88688,12.67636],[21.94913,12.62119],[22.15238,12.66916],[22.19906,12.70723],[22.19764,12.75292],[22.46361,12.63293],[22.42793,12.51688],[22.36375,12.44309],[22.42611,12.38497],[22.43943,12.27599],[22.4904,12.18081],[22.48088,12.02187],[22.53699,12.05518],[22.59224,12.06041],[22.73211,12.28851],[22.69268,12.39068],[22.6953,12.47387],[22.6115,12.66089],[22.61608,12.69311],[22.66607,12.73529],[22.68267,12.79107],[22.7849,12.86072],[22.7921,12.89111],[22.89645,12.93608],[22.91289,12.9815],[22.87847,13.00909],[22.97429,13.05987],[22.9511,13.10089],[23.03289,13.19128],[23.03368,13.25268],[23.18609,13.29468],[23.2009,13.39841],[23.21972,13.41632],[23.22469,13.42863]]]}},{"type":"Feature","properties":{"shapeName":"West Kordofan","shapeISO":"SD-GK","shapeID":"86620642B26042209819562"},"geometry":{"type":"Polygon","coordinates":[[[28.99976,9.67091],[29.09836,9.75394],[29.53809,9.75013],[29.53904,10.08183],[29.93903,10.28664],[29.98193,10.28851],[29.95239,10.31894],[29.84238,10.56454],[29.39023,10.94729],[29.361,11.00173],[29.33859,11.04653],[29.3378,11.13869],[29.4708,11.25094],[29.46042,11.32693],[29.49637,11.39913],[29.3768,11.7015],[29.25498,11.69649],[29.22379,11.74789],[29.26962,11.97433],[29.35342,12.1285],[29.41782,12.15951],[29.437,12.24174],[29.48923,12.2665],[29.52341,12.3605],[29.64401,12.48708],[29.71298,12.66109],[29.71182,12.72854],[29.78808,12.74926],[29.58764,13.08868],[29.54608,13.1007],[29.51587,13.40747],[29.38183,13.43609],[29.25964,13.50207],[29.26843,13.52825],[29.21924,13.5509],[29.10663,13.68731],[28.87164,13.7763],[28.87164,13.8573],[28.80145,13.85766],[28.76727,13.81091],[28.74707,13.81189],[28.73266,13.84948],[28.63805,13.85969],[28.60003,13.8977],[28.25342,14.02582],[28.19726,13.96966],[28.12488,13.95587],[28.05666,13.98326],[28.05149,14.01933],[28.08111,14.05614],[28.01262,14.12208],[27.98947,14.1194],[27.98804,14.05539],[27.95936,14.05077],[27.90701,14.06261],[27.90809,14.08204],[27.86271,14.08364],[27.87911,14.05803],[27.86049,14.07267],[27.82363,14.05818],[27.7728,14.11864],[27.49674,14.11811],[27.48075,14.09228],[27.44379,14.09746],[27.4795,13.9827],[27.45517,13.74032],[27.54077,13.64427],[27.54318,13.54549],[27.51779,13.49288],[27.38498,13.34249],[27.37778,13.23672],[27.34842,13.20229],[27.35819,13.17049],[27.13797,12.90853],[27.12637,12.57851],[27.07578,12.39309],[27.08182,12.23769],[27.06418,12.10232],[27.18198,11.8821],[27.21888,11.76397],[27.25162,11.19711],[27.29789,11.04995],[27.26132,10.8572],[27.47557,10.38811],[27.4494,10.23821],[27.47795,10.08592],[27.48465,9.79173],[27.58314,9.6142],[27.89844,9.61085],[27.83162,9.73659],[27.83623,10.16629],[28.99983,10.16667],[28.99976,9.67091]]]}},{"type":"Feature","properties":{"shapeName":"White Nile","shapeISO":"SD-NW","shapeID":"86620642B32971775067484"},"geometry":{"type":"Polygon","coordinates":[[[32.53967,15.19427],[32.45129,15.22949],[32.4353,15.18408],[32.35571,15.18793],[32.04291,15.0509],[32.04388,15.02789],[32.07129,15.02631],[32.07208,14.98712],[32.04327,14.96729],[31.95428,14.96692],[31.93127,14.88068],[31.8941,14.88251],[31.87848,14.75732],[31.7627,14.66333],[31.69269,14.69452],[31.60773,14.61353],[31.58752,14.4397],[31.52948,14.30652],[31.53512,14.16958],[31.59387,14.00787],[31.7865,13.8725],[31.87345,13.62379],[31.95288,13.55627],[31.96588,13.50067],[32.01672,13.49792],[32.03527,13.47549],[32.0235,13.41608],[31.98291,13.3797],[32.02612,13.2229],[31.99432,13.15991],[31.8479,13.10529],[31.74127,13.01111],[31.73608,12.95367],[31.68652,12.86591],[31.69568,12.77612],[31.66888,12.7179],[31.6889,12.54651],[31.82208,12.15991],[31.9101,12.16229],[32.12793,11.94509],[32.74142,11.9469],[32.75903,12.01162],[32.73707,12.23685],[33.25511,12.21439],[33.21912,12.30652],[33.22729,12.35687],[33.1897,12.39429],[33.15808,12.49048],[33.06787,12.65088],[33.09308,12.75708],[33.18573,12.92792],[33.11264,13.00813],[33.10828,13.04211],[33.05951,13.04071],[33.01489,13.11151],[33.0791,13.14709],[33.07812,13.17188],[33.04932,13.18268],[32.98932,13.15833],[32.9115,13.26289],[32.96429,13.4209],[32.94171,13.6969],[32.9043,13.72131],[32.89069,13.65613],[32.81128,13.55487],[32.7901,13.59351],[32.7345,13.61249],[32.70892,13.68469],[32.68109,13.68829],[32.71588,13.74408],[32.6687,13.84833],[32.66748,13.90948],[32.62732,13.90088],[32.53711,13.97131],[32.53632,14.03149],[32.44849,14.19769],[32.49268,14.28168],[32.4201,14.4137],[32.41107,14.52393],[32.3559,14.58191],[32.34949,14.63092],[32.40729,14.68152],[32.45569,14.67609],[32.46887,14.64752],[32.55292,14.79608],[32.56549,14.84949],[32.54169,14.98749],[32.56207,15.06232],[32.51971,15.11591],[32.52209,15.1499],[32.53967,15.19427]]]}}]}
