{"type":"FeatureCollection","crs":{"type":"name","properties":{"name":"urn:ogc:def:crs:OGC:1.3:CRS84"}},"features":[{"type":"Feature","properties":{"shapeName":"Hiiraan","shapeISO":"SO-HI","shapeID":"83879307B66756469447496"},"geometry":{"type":"Polygon","coordinates":[[[44.58957,4.93197],[44.8,3.86],[44.77,3.7],[44.78,3.27],[45.07,3.25],[45.15,3.21],[45.27,3.2],[45.94,3.25],[46.03,3.52],[46.39,3.89],[46.4,4.23],[46.15,4.43],[46.11,4.74],[46.21,4.94],[46.23,5.08],[46.04,5.03],[45.71,5.11],[45.41093,5.53638],[44.97801,4.92338],[44.625,4.93286],[44.58957,4.93197]]]}},{"type":"Feature","properties":{"shapeName":"Sanaag","shapeISO":"SO-SA","shapeID":"83879307B13610404434600"},"geometry":{"type":"Polygon","coordinates":[[[46.01,10.08],[46.84,9.42],[49.06,9.57],[49.03,10.78],[48.91746,11.24094],[48.6583,11.3253],[48.52664,11.31006],[48.46921,11.28356],[48.35429,11.26943],[48.30594,11.22226],[48.23882,11.20478],[48.13998,11.1261],[47.79593,11.12207],[47.69891,11.09051],[47.6303,11.11494],[47.54014,11.18035],[47.41388,11.1774],[47.14958,11.06351],[47.10107,10.98799],[47.00963,10.96091],[46.99013,10.92974],[46.9306,10.91544],[46.81087,10.82382],[46.62535,10.72474],[46.39873,10.68242],[46.33444,10.69739],[46.23317,10.78311],[46.10434,10.76426],[46.03039,10.77261],[46.01,10.08]]]}},{"type":"Feature","properties":{"shapeName":"Banadir","shapeISO":"SO-BN","shapeID":"83879307B32896531038690"},"geometry":{"type":"Polygon","coordinates":[[[45.26926,1.99211],[45.60404,2.18309],[45.39,2.15],[45.26926,1.99211]]]}},{"type":"Feature","properties":{"shapeName":"Togdheer","shapeISO":"SO-TO","shapeID":"83879307B67680758004346"},"geometry":{"type":"Polygon","coordinates":[[[46.01,10.08],[45.1,10.17],[44.83,9.86],[44.69,9.31],[44.69,8.77253],[47.01188,8.00074],[47.1,8.56],[47,8.75],[46.92,8.76],[46.92,8.78158],[46.19,8.82],[46.22,9],[46.04843,10.04944],[46.01,10.08]]]}},{"type":"Feature","properties":{"shapeName":"Bakool","shapeISO":"SO-BK","shapeID":"83879307B58207540839705"},"geometry":{"type":"Polygon","coordinates":[[[44.58957,4.93197],[44.15399,4.95044],[43.80903,4.90211],[43.43469,4.79454],[43.0793,4.60216],[43.03476,4.55904],[42.96926,4.40292],[42.88415,4.30698],[43.14,3.85],[43.12,3.67],[43.41,3.57],[43.58,3.61],[43.68,3.72],[43.75,3.85],[43.88,3.92],[43.95,3.92],[44.18,3.85],[44.31,3.57],[44.31,3.39],[44.28,3.34],[44.41,3.26],[44.61,3.27],[44.66,3.25],[44.78,3.27],[44.77,3.7],[44.8,3.86],[44.60184,4.87031],[44.58957,4.93197]]]}},{"type":"Feature","properties":{"shapeName":"Gedo","shapeISO":"SO-GE","shapeID":"83879307B34714219035659"},"geometry":{"type":"Polygon","coordinates":[[[42.88415,4.30698],[42.8249,4.26676],[42.70299,4.26039],[42.55409,4.20671],[42.08737,4.17911],[42.06305,4.16324],[41.94628,4.05548],[41.94302,4.01666],[41.89958,3.97744],[41.31205,3.14124],[40.98918,2.8283],[40.99326,1.23078],[41.42,1.26],[41.64,1.94],[42.4,1.95],[42.6,3.07],[42.93,3.04],[43.1,3.06],[43.14,3.85],[42.89,4.29],[42.88415,4.30698]]]}},{"type":"Feature","properties":{"shapeName":"Middle Shebelle","shapeISO":"SO-SD","shapeID":"83879307B5242146898757"},"geometry":{"type":"Polygon","coordinates":[[[45.07,3.25],[45.12,3.04],[45.34,2.72],[45.33,2.18],[45.39,2.15],[45.60404,2.18309],[46.00001,2.42146],[46.22026,2.65792],[46.29414,2.70863],[46.34421,2.78694],[46.68661,3.08262],[47.03569,3.47166],[46.39,3.89],[46.03,3.52],[45.94,3.25],[45.27,3.2],[45.15,3.21],[45.07,3.25]]]}},{"type":"Feature","properties":{"shapeName":"Woqooyi Galbeed","shapeISO":"SO-WO","shapeID":"83879307B42572798770371"},"geometry":{"type":"Polygon","coordinates":[[[46.03039,10.77261],[45.97433,10.77965],[45.87414,10.83446],[45.85563,10.83477],[45.88931,10.80838],[45.85895,10.81349],[45.85069,10.83968],[45.8054,10.86866],[45.76991,10.85857],[45.73679,10.8153],[45.59868,10.76436],[45.57044,10.72008],[45.46428,10.66536],[45.32147,10.66103],[45.23306,10.56019],[45.0869,10.50807],[44.94705,10.40897],[44.74707,10.41841],[44.59167,10.37843],[44.45157,10.40081],[44.41184,10.39015],[44.31797,10.41688],[44.23589,10.47268],[44.04,10.17],[43.82,10.29],[43.76,10.3],[43.37,9.8],[43.31,9.69],[43.28387,9.68441],[43.29823,9.60607],[43.3998,9.55202],[43.43225,9.4718],[43.50029,9.41142],[43.54941,9.40444],[43.62827,9.34946],[43.6855,9.28254],[43.80807,9.2003],[43.97953,9.04055],[44.14942,8.94862],[44.69,8.77253],[44.69,9.31],[44.83,9.86],[45.1,10.17],[46.01,10.08],[46.03039,10.77261]]]}},{"type":"Feature","properties":{"shapeName":"Sool","shapeISO":"SO-SO","shapeID":"83879307B65026001570916"},"geometry":{"type":"Polygon","coordinates":[[[46.04843,10.04944],[46.22,9],[46.19,8.82],[46.92,8.78158],[46.92,8.76],[47,8.75],[47.1,8.56],[47.01188,8.00074],[47.91986,7.99983],[48.13,8.21],[48.05,8.24],[48.56,8.78],[48.73,8.78],[49.08006,9.13952],[49.06,9.57],[46.84,9.42],[46.43422,9.74266],[46.04843,10.04944]]]}},{"type":"Feature","properties":{"shapeName":"Nugaal","shapeISO":"SO-NU","shapeID":"83879307B66585548815331"},"geometry":{"type":"Polygon","coordinates":[[[47.91986,7.99983],[47.98238,7.99977],[47.55707,7.56095],[48.5,7.41],[49.03,7.71],[49.19,7.7],[49.44,7.58],[49.5,7.57],[49.64578,7.40243],[49.74023,7.575],[49.76877,7.66735],[49.82553,7.74458],[49.83547,7.79461],[49.81633,7.79817],[49.80208,7.85612],[49.81959,7.9237],[49.97121,8.08288],[50.12523,8.19192],[50.17588,8.32739],[50.05,8.44],[49.93,8.46],[49.84,8.33],[49.78,8.53],[49.68,8.58],[49.45,8.59],[49.18,8.77],[49.11,8.9],[49.08006,9.13952],[48.73,8.78],[48.56,8.78],[48.05,8.24],[48.13,8.21],[47.91986,7.99983]]]}},{"type":"Feature","properties":{"shapeName":"Mudug","shapeISO":"SO-MU","shapeID":"83879307B26517451678825"},"geometry":{"type":"Polygon","coordinates":[[[47.55707,7.56095],[47.33752,7.38262],[46.52147,6.53052],[47.6,6.28],[47.35074,5.75157],[47.47,5.57],[47.61,5.19],[47.5,4.49],[47.82659,4.33487],[47.98147,4.50467],[48.21137,4.91444],[48.64168,5.49212],[48.91087,5.91876],[49.06348,6.2414],[49.08648,6.42625],[49.20989,6.7434],[49.38971,7.04297],[49.64578,7.40243],[49.5,7.57],[49.44,7.58],[49.19,7.7],[49.03,7.71],[48.5,7.41],[47.55707,7.56095]]]}},{"type":"Feature","properties":{"shapeName":"Middle Juba","shapeISO":"SO-JD","shapeID":"83879307B33420401553888"},"geometry":{"type":"Polygon","coordinates":[[[41.42,1.26],[42.43,1.32],[42.63,0.72],[42.73,0.31],[43.1889,0.32669],[43.5183,0.67598],[42.98,1.46],[42.52,1.88],[42.4,1.95],[41.64,1.94],[41.42,1.26]]]}},{"type":"Feature","properties":{"shapeName":"Lower Shebelle","shapeISO":"SO-SH","shapeID":"83879307B35519599536274"},"geometry":{"type":"Polygon","coordinates":[[[44.78,3.27],[44.66,3.25],[44.69,3.05],[44.64,2.81],[44.66,2.75],[44.62,2.48],[44.65,2.22],[43.58,1.76],[42.98,1.46],[43.5183,0.67598],[43.77736,0.90896],[44.02098,1.08802],[44.04528,1.12902],[44.12935,1.18395],[44.32009,1.37554],[44.60019,1.59843],[45.04594,1.88566],[45.26926,1.99211],[45.39,2.15],[45.33,2.18],[45.34,2.72],[45.12,3.04],[45.07,3.25],[44.78,3.27]]]}},{"type":"Feature","properties":{"shapeName":"Lower Juba","shapeISO":"SO-JH","shapeID":"83879307B35818532110087"},"geometry":{"type":"MultiPolygon","coordinates":[[[[42.32488,-0.64044],[42.32756,-0.66338],[42.35316,-0.62706],[42.32604,-0.63786],[42.32488,-0.64044]]],[[[42.2766,-0.73635],[42.30912,-0.70044],[42.26969,-0.74266],[42.2766,-0.73635]]],[[[41.91634,-1.16177],[41.91521,-1.17799],[41.9336,-1.15222],[41.91724,-1.16305],[41.91634,-1.16177]]],[[[41.97639,-1.08986],[41.99582,-1.08134],[41.98034,-1.07904],[41.97639,-1.08986]]],[[[42.04232,-0.99924],[42.02147,-1.02055],[42.05742,-0.98354],[42.04385,-0.99873],[42.04232,-0.99924]]],[[[42.1876,-0.84434],[42.12798,-0.90575],[42.18494,-0.84912],[42.1876,-0.84434]]],[[[40.99326,1.23078],[40.99338,-0.83398],[41.55891,-1.59857],[41.55937,-1.66208],[41.59407,-1.64026],[41.59534,-1.60886],[41.78516,-1.34253],[41.83693,-1.24948],[41.83811,-1.2149],[41.871,-1.22851],[41.90512,-1.19345],[41.87469,-1.2146],[41.95694,-1.08705],[41.97685,-1.03398],[41.96545,-1.01777],[42.02339,-0.98892],[42.10165,-0.86281],[42.08286,-0.84567],[42.06468,-0.86265],[42.06598,-0.84192],[42.11294,-0.8443],[42.17796,-0.8094],[42.41847,-0.49624],[42.45865,-0.45491],[42.47605,-0.46483],[42.47785,-0.42671],[42.52061,-0.37638],[42.54174,-0.3664],[42.55572,-0.37636],[42.54127,-0.38703],[42.55721,-0.38025],[42.61311,-0.26866],[42.86743,-0.02422],[43.1889,0.32669],[42.73,0.31],[42.63,0.72],[42.43,1.32],[41.42,1.26],[40.99326,1.23078]]]]}},{"type":"Feature","properties":{"shapeName":"Galgaduud","shapeISO":"SO-GA","shapeID":"83879307B20044253365087"},"geometry":{"type":"Polygon","coordinates":[[[46.39,3.89],[47.03569,3.47166],[47.47007,3.9206],[47.82659,4.33487],[47.5,4.49],[47.61,5.19],[47.47,5.57],[47.35074,5.75157],[47.6,6.28],[46.52147,6.53052],[45.8452,5.95657],[45.41093,5.53638],[45.71,5.11],[46.04,5.03],[46.23,5.08],[46.21,4.94],[46.11,4.74],[46.15,4.43],[46.4,4.23],[46.39,3.89]]]}},{"type":"Feature","properties":{"shapeName":"Bay","shapeISO":"SO-BY","shapeID":"83879307B67196763494499"},"geometry":{"type":"Polygon","coordinates":[[[43.12,3.67],[43.1,3.06],[42.93,3.04],[42.6,3.07],[42.4,1.95],[42.52,1.88],[42.98,1.46],[43.58,1.76],[44.65,2.22],[44.62,2.48],[44.66,2.75],[44.64,2.81],[44.69,3.05],[44.66,3.25],[44.61,3.27],[44.41,3.26],[44.28,3.34],[44.31,3.39],[44.31,3.57],[44.18,3.85],[43.95,3.92],[43.88,3.92],[43.75,3.85],[43.68,3.72],[43.58,3.61],[43.41,3.57],[43.12,3.67]]]}},{"type":"Feature","properties":{"shapeName":"Bari","shapeISO":"SO-BR","shapeID":"83879307B19000204873860"},"geometry":{"type":"Polygon","coordinates":[[[49.06,9.57],[49.08006,9.13952],[49.11,8.9],[49.18,8.77],[49.45,8.59],[49.68,8.58],[49.78,8.53],[49.84,8.33],[49.93,8.46],[50.05,8.44],[50.18434,8.33314],[50.24004,8.43765],[50.31821,8.51822],[50.32955,8.62263],[50.3842,8.70186],[50.42036,8.85633],[50.63087,9.06437],[50.65641,9.20617],[50.74883,9.29647],[50.84478,9.45428],[50.8045,9.51768],[50.80135,9.58598],[50.85148,9.85693],[50.90057,9.99537],[50.88584,10.09332],[50.90455,10.18071],[50.89962,10.31404],[51.02698,10.38783],[51.18244,10.42181],[51.26212,10.42008],[51.27275,10.37573],[51.37606,10.36421],[51.41551,10.4426],[51.38952,10.47923],[51.30357,10.4761],[51.19548,10.53472],[51.1973,10.48048],[51.23583,10.43247],[51.04649,10.40761],[51.03295,10.44932],[51.10421,10.48358],[51.11069,10.55484],[51.17183,10.57536],[51.12982,10.68617],[51.11846,10.94728],[51.1331,11.03568],[51.18301,11.1434],[51.09453,11.17978],[51.08152,11.31665],[51.12598,11.44499],[51.12561,11.50118],[51.25649,11.67848],[51.24756,11.71644],[51.28679,11.83487],[51.23887,11.83461],[51.14589,11.87241],[51.05782,11.87243],[50.97482,11.92009],[50.77594,11.98804],[50.76235,11.97333],[50.80812,11.97852],[50.59888,11.92481],[50.5484,11.8768],[50.52264,11.79522],[50.56607,11.89107],[50.47647,11.71355],[50.21732,11.56514],[50.07646,11.50863],[49.94714,11.51564],[49.92316,11.50291],[49.9455,11.4816],[49.9183,11.50457],[49.82577,11.46027],[49.75372,11.45845],[49.69413,11.47995],[49.57125,11.45388],[49.51158,11.38429],[49.43296,11.33892],[49.30218,11.33588],[49.25199,11.30287],[48.91746,11.24094],[49.03,10.78],[49.04,10.35],[49.06,9.57]]]}},{"type":"Feature","properties":{"shapeName":"Awdal","shapeISO":"SO-AW","shapeID":"83879307B11376444747055"},"geometry":{"type":"MultiPolygon","coordinates":[[[[43.46573,11.50928],[43.46872,11.51187],[43.46518,11.5152],[43.46573,11.50928]]],[[[44.23589,10.47268],[43.89351,10.73191],[43.65309,10.9969],[43.64692,10.97677],[43.65165,10.99921],[43.55387,11.17707],[43.49952,11.22848],[43.47897,11.3295],[43.50799,11.37191],[43.45495,11.34853],[43.42307,11.381],[43.38547,11.38028],[43.34557,11.43101],[43.32565,11.43018],[43.30476,11.4729],[43.29243,11.44683],[43.28271,11.46398],[43.25744,11.46106],[42.96164,10.98441],[42.70988,10.62219],[42.71988,10.53364],[42.74714,10.51195],[42.85973,10.22896],[43.02479,10.05105],[43.0862,9.90809],[43.12916,9.88629],[43.15004,9.89924],[43.25695,9.8429],[43.28387,9.68441],[43.31,9.69],[43.37,9.8],[43.76,10.3],[43.82,10.29],[44.04,10.17],[44.15,10.32],[44.23589,10.47268]]],[[[43.46514,11.42515],[43.47023,11.44914],[43.44783,11.43884],[43.46174,11.42694],[43.46514,11.42515]]]]}}]}
