{"type":"FeatureCollection","crs":{"type":"name","properties":{"name":"urn:ogc:def:crs:OGC:1.3:CRS84"}},"features":[{"type":"Feature","properties":{"shapeName":"Lakes","shapeISO":"SS-LK","shapeID":"48771326B2646389376646"},"geometry":{"type":"Polygon","coordinates":[[[30.70621,7.21385],[30.61887,7.20139],[30.53654,7.06721],[30.2316,7.09466],[29.92667,7.79601],[29.69796,7.83261],[29.5333,7.7024],[29.32899,7.66581],[29.07894,7.42186],[28.86549,7.05593],[28.98136,6.76014],[29.00271,6.62902],[28.98746,6.53144],[28.89903,6.40642],[28.7923,6.38812],[28.49651,6.4979],[28.46602,6.48662],[28.49956,6.36769],[28.46297,6.29755],[28.52396,6.25181],[28.57275,6.07495],[28.65508,6.0597],[28.81975,5.81576],[29.01491,5.71513],[29.56989,5.67548],[29.63088,5.97432],[29.78945,6.0841],[29.79249,6.30975],[29.85653,6.3128],[29.87178,6.26401],[29.91142,6.25486],[29.89922,6.3128],[29.9675,6.36367],[30.12183,6.35244],[30.15537,6.23657],[30.20721,6.15728],[30.19196,6.09325],[30.52406,6.09168],[30.61188,6.25106],[31.02171,5.90953],[31.69732,5.87275],[31.47383,6.34864],[31.19085,6.80727],[30.70621,7.21385]]]}},{"type":"Feature","properties":{"shapeName":"Central Equatoria","shapeISO":"SS-EC","shapeID":"48771326B10235544430886"},"geometry":{"type":"Polygon","coordinates":[[[30.30394,6.08125],[30.65416,5.74365],[31.01846,5.57451],[30.99569,5.38586],[30.92413,5.38586],[30.93064,5.25575],[30.96317,5.20696],[30.93714,5.15166],[30.90462,5.15166],[30.89161,5.08336],[30.91112,5.03457],[30.86233,4.93048],[30.80379,4.93048],[30.70295,4.84917],[30.53707,4.80038],[30.5143,4.67027],[30.3972,4.60847],[30.29962,4.68328],[30.2053,4.7093],[30.07844,4.6475],[29.95484,4.65076],[29.80938,4.56455],[29.82893,4.55884],[29.80166,4.51201],[29.79697,4.37272],[29.84161,4.33613],[29.89968,4.34855],[29.96479,4.3024],[29.94499,4.24533],[29.9752,4.20657],[30.0232,4.21093],[30.05777,4.13373],[30.12591,4.10902],[30.16216,4.11977],[30.15948,4.05129],[30.19203,4.03249],[30.21117,3.93767],[30.27561,3.95882],[30.29911,3.92122],[30.38638,3.90881],[30.4045,3.86752],[30.44713,3.88229],[30.4666,3.83429],[30.53306,3.85393],[30.57924,3.73854],[30.56604,3.70246],[30.57854,3.65281],[30.5592,3.62168],[30.62759,3.60682],[30.68325,3.64385],[30.7316,3.62545],[30.75612,3.6363],[30.77688,3.68111],[30.7981,3.65706],[30.79881,3.60352],[30.86131,3.56968],[30.85942,3.481],[30.90683,3.59566],[30.97346,3.69114],[31.03338,3.70103],[31.06563,3.74235],[31.09892,3.73679],[31.17485,3.79563],[31.29094,3.79305],[31.52745,3.65549],[31.66034,3.72068],[31.70365,3.71267],[31.80196,3.80848],[31.72429,4.00022],[31.76332,4.0295],[31.86415,4.03926],[31.9845,4.10431],[31.99751,4.24417],[32.04955,4.23767],[32.07232,4.27019],[32.06582,4.47836],[32.00727,4.5174],[32.15039,4.55318],[32.12436,4.59871],[32.17315,4.95325],[32.09834,5.21346],[32.11442,5.85005],[31.02171,5.90953],[30.61188,6.25106],[30.52406,6.09168],[30.30394,6.08125]]]}},{"type":"Feature","properties":{"shapeName":"Eastern Equatoria","shapeISO":"SS-EE","shapeID":"48771326B42994405084241"},"geometry":{"type":"Polygon","coordinates":[[[31.79958,3.82704],[31.85776,3.79656],[31.92318,3.71057],[31.95458,3.58786],[32.0538,3.59121],[32.08613,3.5604],[32.08518,3.53161],[32.20332,3.50556],[32.21954,3.5641],[32.19642,3.59821],[32.41583,3.74473],[32.72286,3.76021],[32.89883,3.81343],[33.02708,3.88986],[33.17976,3.77614],[33.51213,3.7479],[34.37747,4.63272],[35.95099,4.62824],[35.8246,4.78036],[35.81957,5.10835],[35.86589,5.17252],[35.82769,5.25089],[35.86404,5.32266],[35.77351,5.35264],[35.75244,5.37858],[35.72628,5.37557],[35.71308,5.39872],[35.62557,5.38413],[35.62117,5.40543],[35.54083,5.42488],[35.49267,5.42118],[35.41302,5.36607],[35.308,5.33953],[35.29396,5.41507],[35.30662,5.50337],[35.12705,5.6292],[35.1265,5.68785],[34.99786,5.89859],[34.99333,5.96741],[35.01173,6.00819],[34.14426,5.72088],[33.3116,5.84027],[32.11442,5.85005],[32.09834,5.21346],[32.17315,4.95325],[32.12436,4.59871],[32.15039,4.55318],[32.00727,4.5174],[32.06582,4.47836],[32.07232,4.27019],[32.04955,4.23767],[31.99751,4.24417],[31.9845,4.10431],[31.86415,4.03926],[31.76332,4.0295],[31.72429,4.00022],[31.79958,3.82704]]]}},{"type":"Feature","properties":{"shapeName":"Upper Nile","shapeISO":"SS-NU","shapeID":"48771326B2876692069974"},"geometry":{"type":"Polygon","coordinates":[[[33.03565,7.98798],[33.04467,8.01466],[33.07771,8.02267],[33.08497,8.07437],[33.12074,8.06228],[33.11972,8.11049],[33.19375,8.13152],[33.1665,8.19626],[33.20568,8.23668],[33.17536,8.25627],[33.16991,8.29528],[33.19801,8.30056],[33.19256,8.33449],[33.21811,8.34369],[33.21624,8.36004],[33.1941,8.35238],[33.18898,8.40025],[33.26983,8.46132],[33.29249,8.43992],[33.3136,8.46762],[33.39692,8.42627],[33.42283,8.45282],[33.47855,8.45649],[33.49712,8.48069],[33.56103,8.47377],[33.56858,8.45121],[33.5975,8.44292],[33.61859,8.47177],[33.67611,8.44582],[33.69989,8.37818],[33.77796,8.36645],[33.83522,8.43253],[33.87429,8.43655],[33.89689,8.48357],[33.96948,8.49381],[33.99399,8.4806],[34.03095,8.49822],[34.0806,8.63527],[34.14693,8.64534],[34.12593,9.32969],[34.10888,9.49885],[33.89957,9.49864],[33.88767,9.54623],[33.91813,9.75657],[33.96619,9.80606],[33.99284,9.91076],[33.9957,10.06209],[33.97095,10.09303],[33.97,10.14823],[33.90147,10.16155],[33.79267,10.3391],[33.67209,10.43948],[33.48269,10.65791],[33.21904,10.735],[33.26568,10.82923],[33.13529,11.62587],[33.17561,11.74284],[33.25681,12.16581],[33.29774,12.21197],[32.73054,12.23635],[32.75611,12.06692],[32.74546,11.94758],[32.10658,11.945],[32.3845,11.69658],[32.39345,11.21974],[32.47063,11.04272],[32.14736,10.73727],[31.99517,10.65362],[31.7874,10.30175],[31.35189,9.8031],[31.27471,9.75831],[30.89263,9.74859],[30.83596,9.72431],[30.84607,9.65334],[30.7615,9.61106],[30.75601,9.49297],[30.93714,9.49721],[31.45757,9.34109],[31.54539,9.38662],[31.6202,9.2923],[31.78284,9.27603],[31.81536,9.14593],[31.75681,9.08413],[31.85114,8.82391],[31.98125,8.71332],[32.09184,8.83367],[32.25772,8.928],[32.39108,9.09714],[32.42686,9.02233],[32.4106,8.928],[32.52119,8.90198],[32.64479,8.43685],[32.92777,8.27747],[32.83019,7.98798],[33.03565,7.98798]]]}},{"type":"Feature","properties":{"shapeName":"Western Bahr el Ghazal","shapeISO":"SS-BW","shapeID":"48771326B76913720880161"},"geometry":{"type":"Polygon","coordinates":[[[26.21867,9.89578],[26.11599,9.99499],[26.04992,10.11714],[25.93062,10.18178],[25.9334,10.37962],[25.89968,10.37729],[25.89607,10.41148],[25.86177,10.39159],[25.83922,10.42392],[25.76313,10.41868],[25.75941,10.43868],[25.69104,10.40229],[25.66267,10.4324],[25.64314,10.3988],[25.58198,10.40601],[25.57256,10.3895],[25.55244,10.40706],[25.53791,10.38566],[25.50657,10.39583],[25.49982,10.37455],[25.47413,10.39055],[25.4731,10.37205],[25.4433,10.39613],[25.39604,10.37264],[25.39002,10.39011],[25.37622,10.37073],[25.33865,10.37841],[25.32338,10.35301],[25.27714,10.3605],[25.27377,10.33246],[25.21388,10.35933],[25.17953,10.33643],[25.18026,10.31749],[25.14283,10.33613],[25.12302,10.30274],[25.09791,10.3161],[25.05681,10.25709],[25.0436,10.18747],[25.05608,10.18145],[25.03142,10.16765],[25.07898,10.11419],[25.07825,10.08483],[25.04815,10.08205],[25.05549,10.05866],[25.03098,10.05279],[25.04903,10.01653],[25.01322,10.00252],[25.0188,9.96831],[24.98665,9.95877],[24.98107,9.89664],[24.94981,9.89752],[24.94364,9.87139],[24.9026,9.86044],[24.79004,9.75054],[24.75391,9.74711],[24.73918,9.72531],[24.75472,9.59079],[24.71766,9.56002],[24.69845,9.492],[24.66421,9.45627],[24.66421,9.41365],[24.62454,9.3858],[24.60874,9.31669],[24.56618,9.27962],[24.55083,9.22905],[24.57277,9.1594],[24.53832,9.04411],[24.54776,8.98576],[24.57518,8.95502],[24.57342,8.90939],[24.44202,8.84204],[24.45676,8.79997],[24.40805,8.79834],[24.39628,8.7399],[24.32158,8.73462],[24.27243,8.70783],[24.2311,8.65551],[24.22428,8.6267],[24.2584,8.57666],[24.21648,8.54537],[24.20511,8.5045],[24.16495,8.48282],[24.16779,8.42453],[24.15073,8.39965],[24.17952,8.32633],[24.23118,8.28842],[24.33859,8.26817],[24.35541,8.24621],[24.45733,8.28121],[24.51533,8.21841],[24.55789,8.20211],[24.63442,8.22544],[24.73016,8.20966],[24.75075,8.18358],[24.80326,8.19524],[24.85886,8.17843],[24.90178,8.04534],[24.94174,8.03629],[24.96173,7.98388],[25.02582,7.95447],[25.082,7.89848],[25.17493,7.9125],[25.22072,7.87964],[25.26615,7.79506],[25.28498,7.8043],[25.28565,7.65027],[25.22449,7.63201],[25.16667,7.58637],[25.19558,7.54425],[25.19589,7.49374],[25.28502,7.4723],[25.30963,7.43058],[25.33771,7.42536],[25.35403,7.35342],[25.39093,7.33159],[25.41073,7.3471],[25.48087,7.27129],[25.54105,7.2774],[25.61133,7.21511],[25.82053,7.15714],[25.83718,7.10721],[25.89543,7.09661],[25.90186,7.06597],[25.98547,7.03817],[26.01687,6.99845],[26.03994,7.00601],[26.05243,6.94605],[26.03805,6.92676],[26.09026,6.89612],[26.08156,6.85526],[26.10236,6.81781],[26.17159,6.81214],[26.17348,6.78111],[26.20564,6.74745],[26.26579,6.73818],[26.25671,6.70867],[26.36301,6.69392],[26.41545,6.6498],[27.93238,6.79765],[28.04826,6.73971],[28.49414,6.76107],[28.49042,7.17486],[28.53616,7.43405],[28.29526,7.65971],[28.28916,7.7085],[28.31355,7.78168],[28.15194,8.02258],[27.86225,8.08357],[27.87749,8.27873],[27.91713,8.33057],[27.89927,8.50032],[27.80736,8.49615],[27.72502,8.32843],[27.33776,8.19426],[26.79497,7.89237],[26.27963,8.21256],[26.13631,9.06943],[26.21867,9.89578]]]}},{"type":"Feature","properties":{"shapeName":"Unity","shapeISO":"SS-UY","shapeID":"48771326B37591972128550"},"geometry":{"type":"Polygon","coordinates":[[[30.70621,7.21385],[30.67043,7.37323],[30.50779,7.65621],[30.54357,7.84486],[30.38419,8.11483],[30.33215,8.11158],[30.33215,8.23844],[30.37248,8.46352],[30.28466,8.55785],[30.32369,8.63266],[30.23587,8.70747],[30.26189,8.74325],[30.20985,8.96443],[30.392,9.18561],[30.35297,9.33848],[30.50584,9.51738],[30.75601,9.49297],[30.7615,9.61106],[30.84607,9.65334],[30.82507,9.72378],[30.53156,9.95945],[29.99677,10.2888],[29.93903,10.28664],[29.53904,10.08183],[29.53809,9.75013],[29.08594,9.75288],[28.8167,9.49847],[28.76791,9.41919],[28.76791,9.3521],[28.80755,9.30636],[28.7862,9.10511],[28.69472,9.02796],[29.09724,9.0371],[29.2741,8.69558],[29.65832,8.40284],[29.69796,7.83261],[29.92667,7.79601],[30.2316,7.09466],[30.53654,7.06721],[30.61887,7.20139],[30.70621,7.21385]]]}},{"type":"Feature","properties":{"shapeName":"Northern Bahr el Ghazal","shapeISO":"SS-BN","shapeID":"48771326B49579010016854"},"geometry":{"type":"Polygon","coordinates":[[[27.89927,8.50032],[27.95983,8.56323],[27.92323,8.65166],[27.99947,8.70045],[27.96592,8.87732],[27.86225,8.9566],[28.03606,9.34387],[27.90722,9.61016],[27.13738,9.62427],[26.99242,9.59385],[26.70392,9.48833],[26.50953,9.52969],[26.34793,9.59432],[26.29089,9.68701],[26.21867,9.89578],[26.13631,9.06943],[26.27963,8.21256],[26.79497,7.89237],[27.33776,8.19426],[27.72502,8.32843],[27.80736,8.49615],[27.89927,8.50032]]]}},{"type":"Feature","properties":{"shapeName":"Jonglei","shapeISO":"SS-JG","shapeID":"48771326B48659004133869"},"geometry":{"type":"Polygon","coordinates":[[[31.69732,5.87275],[32.11442,5.85005],[33.3116,5.84027],[34.14426,5.72088],[35.01173,6.00819],[34.9998,6.08346],[34.96337,6.12129],[34.97808,6.18773],[34.95847,6.24377],[35.02058,6.45008],[34.958,6.50542],[34.93932,6.55843],[34.89005,6.58085],[34.89052,6.60023],[34.76722,6.59661],[34.71491,6.65441],[34.70487,6.69387],[34.63986,6.74191],[34.61595,6.72491],[34.53102,6.74625],[34.54264,6.81694],[34.47244,6.91774],[34.32892,6.9249],[34.31135,6.95037],[34.29356,6.94726],[34.30624,6.97795],[34.27576,7.00531],[34.2335,7.00286],[34.21993,7.03612],[34.19546,7.03879],[34.19035,7.13187],[34.10427,7.16935],[34.10182,7.19315],[34.03865,7.22496],[34.01374,7.25944],[34.04177,7.27568],[34.03685,7.35767],[34.00682,7.38269],[34.00339,7.4201],[33.94438,7.47239],[33.94913,7.51032],[33.86825,7.51928],[33.83164,7.58185],[33.7966,7.61267],[33.77526,7.60582],[33.7368,7.62847],[33.74101,7.6477],[33.69202,7.66693],[33.672,7.70055],[33.63512,7.69449],[33.63169,7.70951],[33.58032,7.69027],[33.52184,7.71372],[33.51683,7.73638],[33.46297,7.75247],[33.45516,7.73768],[33.42612,7.75679],[33.42098,7.73799],[33.38224,7.74271],[33.32325,7.70767],[33.29725,7.74816],[33.23375,7.78294],[33.20981,7.77174],[33.1613,7.80231],[33.10879,7.78012],[33.09307,7.80231],[33.04642,7.79019],[33.00007,7.87385],[33.01651,7.89224],[32.99967,7.94152],[33.03891,7.96778],[33.03565,7.98798],[32.83019,7.98798],[32.92777,8.27747],[32.64479,8.43685],[32.52119,8.90198],[32.4106,8.928],[32.42686,9.02233],[32.39108,9.09714],[32.25772,8.928],[32.09184,8.83367],[31.98125,8.71332],[31.85114,8.82391],[31.75681,9.08413],[31.81536,9.14593],[31.78284,9.27603],[31.6202,9.2923],[31.54539,9.38662],[31.45757,9.34109],[30.93714,9.49721],[30.75601,9.49297],[30.50584,9.51738],[30.35297,9.33848],[30.392,9.18561],[30.20985,8.96443],[30.26189,8.74325],[30.23587,8.70747],[30.32369,8.63266],[30.28466,8.55785],[30.37248,8.46352],[30.33215,8.23844],[30.33215,8.11158],[30.38419,8.11483],[30.54357,7.84486],[30.50779,7.65621],[30.67043,7.37323],[30.70621,7.21385],[31.19085,6.80727],[31.47383,6.34864],[31.69732,5.87275]]]}},{"type":"Feature","properties":{"shapeName":"Western Equatoria","shapeISO":"SS-EW","shapeID":"48771326B90797869503386"},"geometry":{"type":"Polygon","coordinates":[[[28.49651,6.4979],[28.49414,6.76107],[28.04826,6.73971],[27.93238,6.79765],[26.41545,6.6498],[26.37822,6.5785],[26.34906,6.57406],[26.35301,6.54094],[26.32826,6.53752],[26.32417,6.50102],[26.28884,6.48263],[26.31687,6.43664],[26.29994,6.40335],[26.31103,6.37415],[26.396,6.30656],[26.47776,6.28437],[26.47569,6.22411],[26.5321,6.22683],[26.51991,6.16134],[26.45981,6.11684],[26.44734,6.07289],[26.51623,6.114],[26.54004,6.10011],[26.53976,6.06666],[26.56612,6.03264],[26.60751,6.03321],[26.66464,5.99895],[26.72119,6.02012],[26.72301,6.00379],[26.8234,5.98927],[26.83549,5.89653],[26.92168,5.90107],[26.9374,5.86871],[27.00181,5.86055],[27.05019,5.80687],[27.07196,5.79574],[27.10341,5.81026],[27.16268,5.77397],[27.16722,5.74494],[27.19655,5.74071],[27.24342,5.64258],[27.23677,5.60091],[27.29301,5.59668],[27.2788,5.56886],[27.28938,5.54044],[27.2416,5.45108],[27.2595,5.3348],[27.33434,5.21371],[27.40063,5.17564],[27.41677,5.12998],[27.45699,5.09688],[27.44291,5.02036],[27.48331,5.00293],[27.48823,4.96985],[27.53798,4.91457],[27.67908,4.87608],[27.70344,4.834],[27.69846,4.79966],[27.76042,4.78829],[27.78081,4.73673],[27.76198,4.69607],[27.79445,4.61419],[27.84268,4.59378],[27.87345,4.55502],[27.93765,4.54985],[27.94682,4.57529],[27.97906,4.55517],[28.04377,4.55548],[28.03943,4.47564],[28.07892,4.41792],[28.10842,4.44483],[28.13272,4.42921],[28.1438,4.44153],[28.13719,4.40367],[28.20606,4.35186],[28.35269,4.35646],[28.38064,4.28337],[28.45419,4.28688],[28.49284,4.32491],[28.51092,4.38114],[28.57809,4.38382],[28.60543,4.42185],[28.67289,4.43255],[28.72548,4.548],[28.7659,4.54741],[28.79383,4.57237],[28.83068,4.55579],[28.84481,4.48455],[28.88407,4.49368],[28.93801,4.47529],[29.03637,4.49283],[29.04703,4.46704],[29.0852,4.46257],[29.0797,4.43265],[29.137,4.43448],[29.15764,4.39354],[29.22599,4.34034],[29.25275,4.35291],[29.26919,4.39773],[29.30562,4.38161],[29.34335,4.39515],[29.36527,4.47092],[29.40364,4.47479],[29.44491,4.51428],[29.44362,4.55974],[29.4776,4.5957],[29.46497,4.66982],[29.48458,4.67214],[29.49322,4.69887],[29.53344,4.65682],[29.55496,4.6708],[29.61894,4.66],[29.70909,4.61725],[29.74336,4.57076],[29.76455,4.58904],[29.79779,4.55954],[29.95484,4.65076],[30.07844,4.6475],[30.2053,4.7093],[30.29962,4.68328],[30.3972,4.60847],[30.5143,4.67027],[30.53707,4.80038],[30.70295,4.84917],[30.80379,4.93048],[30.86233,4.93048],[30.91112,5.03457],[30.89161,5.08336],[30.90462,5.15166],[30.93714,5.15166],[30.96317,5.20696],[30.93064,5.25575],[30.92413,5.38586],[30.99569,5.38586],[31.01846,5.57451],[30.65416,5.74365],[30.30394,6.08125],[30.19196,6.09325],[30.20721,6.15728],[30.15537,6.23657],[30.12183,6.35244],[29.9675,6.36367],[29.89922,6.3128],[29.91142,6.25486],[29.87178,6.26401],[29.85653,6.3128],[29.79249,6.30975],[29.78945,6.0841],[29.63088,5.97432],[29.56989,5.67548],[29.01491,5.71513],[28.81975,5.81576],[28.65508,6.0597],[28.57275,6.07495],[28.52396,6.25181],[28.46297,6.29755],[28.49956,6.36769],[28.46602,6.48662],[28.49651,6.4979]]]}},{"type":"Feature","properties":{"shapeName":"Warrap","shapeISO":"SS-WR","shapeID":"48771326B11845073429118"},"geometry":{"type":"Polygon","coordinates":[[[29.69796,7.83261],[29.65832,8.40284],[29.2741,8.69558],[29.09724,9.0371],[28.69472,9.02796],[28.7862,9.10511],[28.80755,9.30636],[28.76791,9.3521],[28.03606,9.34387],[27.86225,8.9566],[27.96592,8.87732],[27.99947,8.70045],[27.92323,8.65166],[27.95983,8.56323],[27.89927,8.50032],[27.91713,8.33057],[27.87749,8.27873],[27.86225,8.08357],[28.15194,8.02258],[28.31355,7.78168],[28.28916,7.7085],[28.29526,7.65971],[28.53616,7.43405],[28.49042,7.17486],[28.49651,6.4979],[28.7923,6.38812],[28.89903,6.40642],[28.98746,6.53144],[29.00271,6.62902],[28.98136,6.76014],[28.86549,7.05593],[29.07894,7.42186],[29.32899,7.66581],[29.5333,7.7024],[29.69796,7.83261]]]}}]}
