{"type":"FeatureCollection","crs":{"type":"name","properties":{"name":"urn:ogc:def:crs:OGC:1.3:CRS84"}},"features":[{"type":"Feature","properties":{"shapeName":"Northern Region","shapeISO":"UG-N","shapeID":"17295835B80141219017784"},"geometry":{"type":"Polygon","coordinates":[[[34.7871,1.36522],[34.8065,1.38383],[34.79427,1.41461],[34.84424,1.45711],[34.86408,1.52834],[34.94367,1.57661],[34.99124,1.66436],[35.00021,1.96241],[34.91435,2.40294],[34.95441,2.47241],[34.93306,2.51594],[34.913,2.51658],[34.89386,2.59286],[34.86825,2.57059],[34.79919,2.65583],[34.77541,2.69788],[34.77538,2.78779],[34.73635,2.85499],[34.70175,2.87768],[34.69238,2.86287],[34.6529,2.86756],[34.63929,2.90673],[34.59904,2.92468],[34.5723,3.0914],[34.54582,3.13653],[34.49484,3.14135],[34.45582,3.18199],[34.42996,3.34271],[34.40062,3.37058],[34.41661,3.45066],[34.38897,3.49177],[34.42477,3.49171],[34.4515,3.51713],[34.46322,3.6695],[34.40491,3.69274],[34.36507,3.73516],[34.30793,3.71139],[34.24558,3.78389],[34.17088,3.76771],[34.18865,3.79513],[34.15317,3.80697],[34.18006,3.83156],[34.22601,3.83101],[34.21557,3.88086],[34.08843,3.86127],[34.09144,3.88524],[34.11993,3.90084],[34.13464,3.96135],[34.06005,4.00951],[34.05884,4.0277],[34.09136,4.04908],[34.04953,4.12112],[34.06569,4.14401],[33.98776,4.23408],[33.51107,3.75182],[33.17882,3.77875],[33.02776,3.89361],[32.90117,3.81561],[32.72023,3.76781],[32.41528,3.74562],[32.19717,3.60049],[32.21789,3.56371],[32.20084,3.5071],[32.08603,3.53152],[32.08707,3.56041],[32.05306,3.5922],[31.95812,3.57194],[31.95745,3.6599],[31.86981,3.78475],[31.81276,3.8248],[31.70736,3.72399],[31.57575,3.68236],[31.51776,3.63816],[31.50177,3.64399],[31.5079,3.67632],[31.28906,3.7966],[31.18198,3.79471],[31.10079,3.73649],[31.06857,3.74508],[31.02976,3.69932],[30.97908,3.69787],[30.86606,3.49366],[30.85024,3.50063],[30.86957,3.47803],[30.89699,3.50313],[30.94202,3.50624],[30.93681,3.39917],[30.88748,3.34115],[30.87067,3.28048],[30.83825,3.26328],[30.79435,3.06911],[30.76799,3.05191],[30.858,2.96167],[30.89015,2.85826],[30.85921,2.7736],[30.82275,2.74973],[30.77796,2.6037],[30.75009,2.58628],[30.75164,2.4197],[30.77793,2.4387],[30.83416,2.42678],[30.84844,2.38411],[30.90488,2.33228],[30.94176,2.3437],[30.95481,2.40074],[31.00799,2.39849],[31.0743,2.34363],[31.08546,2.30938],[31.07007,2.30285],[31.09786,2.27938],[31.13061,2.2645],[31.14108,2.28337],[31.20327,2.29321],[31.20308,2.22086],[31.27742,2.17794],[31.36644,2.31887],[31.46282,2.36106],[31.46982,2.43431],[31.52623,2.48219],[31.49182,2.48333],[31.47601,2.5141],[31.51901,2.50195],[31.5338,2.47757],[31.48725,2.43989],[31.48234,2.35802],[31.38845,2.29457],[31.37978,2.25289],[31.3638,2.2677],[31.35819,2.24848],[31.46613,2.22992],[31.569,2.287],[31.64668,2.25856],[31.74133,2.29778],[31.83249,2.3719],[31.91771,2.36827],[32.01236,2.3092],[32.02489,2.27924],[32.05251,2.28522],[32.14775,2.22427],[32.18849,2.21972],[32.26111,2.25577],[32.31614,2.19755],[32.31805,2.14331],[32.35202,2.07715],[32.33282,1.9679],[32.36291,1.95242],[32.34161,1.92606],[32.34236,1.86117],[32.27822,1.83982],[32.2712,1.80944],[32.16556,1.77962],[32.10648,1.74192],[32.09484,1.65093],[32.18793,1.67749],[32.28391,1.6629],[32.32433,1.62259],[32.40993,1.59311],[32.50974,1.52436],[32.56177,1.51793],[32.62462,1.44072],[32.86455,1.48306],[32.97294,1.47991],[32.96543,1.61823],[32.94449,1.64471],[32.99571,1.6742],[32.9992,1.715],[33.04606,1.71078],[33.08308,1.7346],[33.11317,1.85653],[33.24139,1.92658],[33.24801,1.95403],[33.27071,1.95985],[33.29367,2.04552],[33.32602,2.05502],[33.36329,2.03058],[33.3468,2.06624],[33.36757,2.11048],[33.41519,2.14559],[33.43679,2.11378],[33.45439,2.13033],[33.47793,2.19893],[33.44046,2.24379],[33.49048,2.23226],[33.54556,2.28334],[33.53526,2.35949],[33.58186,2.32965],[33.6109,2.33644],[33.63112,2.36042],[33.67204,2.35758],[33.73282,2.41894],[34.21028,2.1219],[34.22883,1.56427],[34.27656,1.54922],[34.34681,1.57053],[34.41841,1.55555],[34.49433,1.60463],[34.61707,1.57936],[34.65849,1.52639],[34.6992,1.52692],[34.72618,1.46969],[34.71897,1.44231],[34.77809,1.39323],[34.78347,1.36857],[34.7871,1.36522]]]}},{"type":"Feature","properties":{"shapeName":"Eastern Region","shapeISO":"UG-E","shapeID":"17295835B57878138064711"},"geometry":{"type":"MultiPolygon","coordinates":[[[[33.66433,-0.13367],[33.68802,-0.12715],[33.71824,-0.16389],[33.73197,-0.12612],[33.70965,-0.0887],[33.6688,-0.12853],[33.66433,-0.13367]]],[[[33.63756,-0.0178],[33.67275,-0.0269],[33.67824,0.00417],[33.64391,-0.01231],[33.63756,-0.0178]]],[[[33.63043,0.02098],[33.65026,0.01744],[33.64734,0.03953],[33.63267,0.02285],[33.63043,0.02098]]],[[[33.60854,0.28878],[33.61781,0.27934],[33.61335,0.29204],[33.60854,0.28878]]],[[[33.54228,0.13824],[33.57919,0.10717],[33.58674,0.15369],[33.5476,0.14218],[33.54228,0.13824]]],[[[33.44907,0.28981],[33.4925,0.28174],[33.46521,0.28964],[33.44907,0.28981]]],[[[32.81953,1.47773],[32.84205,1.32263],[32.8987,1.28238],[32.94328,1.19943],[32.95419,1.14039],[32.93175,1.00829],[32.94628,0.94569],[33.00079,0.87991],[33.04772,0.76755],[33.04993,0.59805],[33.15901,0.48322],[33.19629,0.41536],[33.22953,0.4115],[33.2502,0.46071],[33.28357,0.4757],[33.2841,0.45003],[33.31639,0.41911],[33.36427,0.45495],[33.35052,0.46921],[33.36471,0.49048],[33.40135,0.48241],[33.34522,0.4177],[33.3677,0.38131],[33.31827,0.38611],[33.30865,0.36122],[33.32753,0.36963],[33.31895,0.34732],[33.36187,0.36689],[33.36084,0.32706],[33.38264,0.33719],[33.42109,0.31676],[33.44821,0.35178],[33.44117,0.36843],[33.48821,0.35951],[33.45096,0.33856],[33.46916,0.31007],[33.47568,0.32655],[33.5004,0.31453],[33.48684,0.29634],[33.50761,0.29908],[33.51224,0.27453],[33.48632,0.26269],[33.45439,0.27642],[33.4465,0.26011],[33.44426,0.28329],[33.40186,0.28415],[33.45302,0.24844],[33.42555,0.24158],[33.43105,0.22149],[33.46486,0.21411],[33.48529,0.17755],[33.49628,0.21977],[33.49954,0.19351],[33.52735,0.20141],[33.52048,0.16811],[33.54057,0.2033],[33.54366,0.17222],[33.56563,0.16999],[33.56769,0.19935],[33.62811,0.22321],[33.5979,0.3238],[33.63893,0.32552],[33.64494,0.30646],[33.70639,0.32638],[33.76973,0.31402],[33.70244,0.28724],[33.68665,0.2596],[33.74347,0.25273],[33.70468,0.20536],[33.71927,0.1839],[33.78124,0.18802],[33.76973,0.21274],[33.79394,0.21943],[33.78948,0.24638],[33.80939,0.22836],[33.81145,0.13995],[33.83291,0.16055],[33.82381,0.20862],[33.87668,0.16072],[33.90157,0.19729],[33.92749,0.19265],[33.92303,0.23557],[33.9656,0.23162],[33.97487,0.26578],[34.00325,0.23694],[34.05626,0.32379],[34.1079,0.3694],[34.08841,0.45615],[34.11948,0.48338],[34.13823,0.58287],[34.20033,0.62597],[34.2777,0.64006],[34.27872,0.6794],[34.31422,0.69802],[34.31484,0.7616],[34.41495,0.80892],[34.40646,0.82589],[34.44614,0.86342],[34.47915,0.93752],[34.49317,1.04265],[34.5223,1.10232],[34.57498,1.09862],[34.57896,1.1497],[34.64882,1.1791],[34.66957,1.20807],[34.79518,1.22312],[34.83137,1.27071],[34.82864,1.3105],[34.77809,1.39323],[34.71897,1.44231],[34.72618,1.46969],[34.6992,1.52692],[34.65849,1.52639],[34.61707,1.57936],[34.49433,1.60463],[34.41841,1.55555],[34.34681,1.57053],[34.27656,1.54922],[34.22883,1.56427],[34.21028,2.1219],[33.73282,2.41894],[33.67204,2.35758],[33.63112,2.36042],[33.6109,2.33644],[33.58186,2.32965],[33.53526,2.35949],[33.54556,2.28334],[33.49048,2.23226],[33.44046,2.24379],[33.47793,2.19893],[33.45439,2.13033],[33.43679,2.11378],[33.41519,2.14559],[33.36757,2.11048],[33.3468,2.06624],[33.36329,2.03058],[33.32602,2.05502],[33.28933,2.04179],[33.27071,1.95985],[33.24801,1.95403],[33.24139,1.92658],[33.11317,1.85653],[33.08308,1.7346],[33.04606,1.71078],[32.9992,1.715],[32.99571,1.6742],[32.94449,1.64471],[32.96543,1.61823],[32.97294,1.47991],[32.86455,1.48306],[32.81953,1.47773]]],[[[33.75926,0.09532],[33.82381,0.07352],[33.83342,0.09154],[33.87048,0.07789],[33.89711,0.08931],[33.83771,0.09618],[33.80287,0.13703],[33.76098,0.1039],[33.75926,0.09532]]]]}},{"type":"Feature","properties":{"shapeName":"Central Region","shapeISO":"UG-C","shapeID":"17295835B48340970483027"},"geometry":{"type":"MultiPolygon","coordinates":[[[[33.39414,0.23746],[33.4156,0.24192],[33.39568,0.24552],[33.39414,0.23746]]],[[[33.33324,0.31467],[33.3526,0.31281],[33.34436,0.32638],[33.33324,0.31467]]],[[[32.29868,-0.18925],[32.34177,-0.21277],[32.32083,-0.1841],[32.30246,-0.18942],[32.29868,-0.18925]]],[[[32.25457,-0.1908],[32.29645,-0.18187],[32.27414,-0.16505],[32.25645,-0.18788],[32.25457,-0.1908]]],[[[32.58548,-0.08902],[32.6354,-0.10412],[32.58615,-0.08579],[32.58548,-0.08902]]],[[[33.13279,-0.06394],[33.16849,-0.04282],[33.13622,-0.06068],[33.13279,-0.06394]]],[[[32.89888,-0.00013],[32.95197,0.01076],[32.93733,0.02314],[32.90192,0.00166],[32.89888,-0.00013]]],[[[32.66517,-0.10088],[32.72748,-0.12731],[32.76388,-0.10791],[32.74139,-0.13246],[32.77126,-0.12783],[32.81641,-0.09624],[32.81812,-0.07187],[32.80078,-0.06328],[32.79066,-0.09435],[32.7692,-0.08629],[32.78001,-0.07427],[32.74568,-0.02449],[32.75684,-0.06174],[32.73796,-0.04646],[32.73418,-0.07118],[32.71495,-0.05487],[32.7213,-0.09332],[32.69538,-0.10088],[32.68611,-0.08594],[32.67255,-0.10019],[32.66517,-0.10088]]],[[[32.65216,-0.02082],[32.67993,-0.03505],[32.65643,-0.01765],[32.65216,-0.02082]]],[[[32.74865,0.00166],[32.77087,-0.04498],[32.82389,0.02459],[32.80165,0.04465],[32.76451,0.01115],[32.77317,-0.01107],[32.74958,0.0026],[32.74865,0.00166]]],[[[33.2417,0.04846],[33.25733,0.01086],[33.30797,0.04193],[33.27861,0.07094],[33.24737,0.0579],[33.2417,0.04846]]],[[[33.26257,0.08009],[33.26338,0.07618],[33.27209,0.07462],[33.26257,0.08009]]],[[[33.02902,0.09532],[33.04756,0.09446],[33.03056,0.09893],[33.02902,0.09532]]],[[[33.16257,0.20192],[33.17064,0.17806],[33.16394,0.20587],[33.16257,0.20192]]],[[[33.12532,0.12296],[33.15381,0.10682],[33.14317,0.13223],[33.12703,0.12502],[33.12532,0.12296]]],[[[33.15021,0.16742],[33.16772,0.15643],[33.15175,0.14373],[33.17424,0.10717],[33.19175,0.17034],[33.1545,0.17154],[33.15021,0.16742]]],[[[33.07193,0.10236],[33.09665,0.08313],[33.12686,0.10305],[33.07966,0.1094],[33.07193,0.10236]]],[[[33.20051,0.25376],[33.26539,0.21308],[33.26745,0.18836],[33.252,0.18407],[33.2048,0.20072],[33.22385,0.16622],[33.25612,0.17428],[33.28685,0.1118],[33.31329,0.14665],[33.30608,0.10133],[33.32856,0.0773],[33.34144,0.09103],[33.31998,0.10047],[33.32015,0.14459],[33.34024,0.15523],[33.31621,0.19609],[33.32702,0.22475],[33.33886,0.20776],[33.35603,0.22733],[33.38109,0.21909],[33.39671,0.26011],[33.37869,0.30818],[33.34659,0.30372],[33.37646,0.2802],[33.35294,0.28449],[33.36427,0.27179],[33.34007,0.262],[33.35191,0.24175],[33.31191,0.2493],[33.32273,0.27453],[33.28804,0.27381],[33.29423,0.30045],[33.32084,0.31024],[33.23604,0.30011],[33.20154,0.25857],[33.20051,0.25376]]],[[[31.82369,-1.00443],[31.83914,-1.02814],[31.84309,-1.00239],[31.82735,-0.99986],[31.82369,-1.00443]]],[[[32.35017,-0.65397],[32.36013,-0.61346],[32.35292,-0.64745],[32.35017,-0.65397]]],[[[32.32563,-0.67972],[32.34262,-0.64419],[32.32786,-0.66839],[32.32563,-0.67972]]],[[[32.29438,-0.66273],[32.32099,-0.63337],[32.31018,-0.62273],[32.29936,-0.65586],[32.29438,-0.66273]]],[[[32.2192,-0.57431],[32.24031,-0.56813],[32.21971,-0.57105],[32.2192,-0.57431]]],[[[32.34743,-0.42033],[32.36082,-0.43235],[32.36545,-0.41021],[32.40819,-0.40849],[32.37197,-0.39373],[32.3488,-0.40969],[32.34743,-0.42033]]],[[[32.40665,-0.38566],[32.42656,-0.3975],[32.40974,-0.38412],[32.40665,-0.38566]]],[[[32.31,-0.45432],[32.33438,-0.46651],[32.35858,-0.4375],[32.31292,-0.44883],[32.31,-0.45432]]],[[[32.29043,-0.512],[32.31327,-0.53208],[32.3306,-0.49518],[32.31979,-0.47853],[32.29043,-0.51028],[32.29043,-0.512]]],[[[32.23156,-0.48934],[32.23962,-0.47303],[32.2331,-0.4835],[32.23156,-0.48934]]],[[[32.56818,-0.33039],[32.60715,-0.33639],[32.6159,-0.31082],[32.5996,-0.323],[32.57316,-0.31116],[32.56853,-0.3273],[32.56818,-0.33039]]],[[[32.44562,-0.48797],[32.49231,-0.48986],[32.49197,-0.46205],[32.51325,-0.46119],[32.53763,-0.41192],[32.51686,-0.40214],[32.52922,-0.38017],[32.50965,-0.37553],[32.50192,-0.42051],[32.45763,-0.41381],[32.48956,-0.42857],[32.49179,-0.45089],[32.44768,-0.48659],[32.44562,-0.48797]]],[[[32.2858,-0.39115],[32.31327,-0.42291],[32.33215,-0.38892],[32.31996,-0.39338],[32.3076,-0.36128],[32.28872,-0.38909],[32.2858,-0.39115]]],[[[32.52973,-0.38],[32.54896,-0.39562],[32.56303,-0.36592],[32.53334,-0.37399],[32.52973,-0.38]]],[[[32.42708,-0.38154],[32.4827,-0.3757],[32.46004,-0.36043],[32.493,-0.34069],[32.44424,-0.33931],[32.43017,-0.37227],[32.44407,-0.37502],[32.42708,-0.38154]]],[[[32.0542,-0.2488],[32.10367,-0.26996],[32.11877,-0.29897],[32.10847,-0.31803],[32.22829,-0.3297],[32.23688,-0.37021],[32.25336,-0.36884],[32.24958,-0.40489],[32.21868,-0.39184],[32.17868,-0.42325],[32.18366,-0.45467],[32.15414,-0.48299],[32.15894,-0.51166],[32.13965,-0.50013],[32.14229,-0.53363],[32.16478,-0.54135],[32.17182,-0.50101],[32.20821,-0.49277],[32.19362,-0.4593],[32.24014,-0.44746],[32.25902,-0.49003],[32.27207,-0.46222],[32.29885,-0.47063],[32.27447,-0.36609],[32.30588,-0.33073],[32.33266,-0.33227],[32.31086,-0.32678],[32.30279,-0.29211],[32.27499,-0.31871],[32.25679,-0.29211],[32.16701,-0.31236],[32.16255,-0.26516],[32.19791,-0.23065],[32.18366,-0.22413],[32.15929,-0.23941],[32.14328,-0.22282],[32.06517,-0.21762],[32.06738,-0.24822],[32.0542,-0.2488]]],[[[32.35687,-0.36352],[32.37112,-0.37605],[32.42965,-0.36025],[32.38124,-0.32541],[32.38948,-0.363],[32.35721,-0.35751],[32.35687,-0.36352]]],[[[32.56303,-0.36403],[32.57814,-0.35425],[32.56612,-0.3618],[32.56303,-0.36403]]],[[[32.50312,-0.36764],[32.53591,-0.35922],[32.51514,-0.323],[32.52561,-0.35236],[32.50381,-0.36661],[32.50312,-0.36764]]],[[[32.31396,-0.22942],[32.38039,-0.2701],[32.3519,-0.22513],[32.31688,-0.22547],[32.31396,-0.22942]]],[[[32.55703,-0.22842],[32.59084,-0.23649],[32.58604,-0.21829],[32.56406,-0.22447],[32.55703,-0.22842]]],[[[32.4276,-0.26495],[32.45318,-0.25585],[32.43035,-0.25826],[32.4276,-0.26495]]],[[[32.09484,1.65093],[32.08904,1.59388],[32.04663,1.54645],[32.00011,1.54559],[31.97114,1.5069],[31.97442,1.46883],[31.91146,1.45078],[31.83068,1.3622],[31.73803,1.32586],[31.53182,1.36475],[31.4585,1.30536],[31.4486,1.27693],[31.39221,1.27036],[31.36823,1.24161],[31.32071,1.24089],[31.29169,1.21215],[31.37734,1.16064],[31.41676,1.16028],[31.42542,1.12545],[31.51243,1.04994],[31.52692,1.01627],[31.43196,0.95103],[31.45395,0.89529],[31.44424,0.82808],[31.40366,0.80401],[31.408,0.74787],[31.38205,0.71015],[31.28787,0.74254],[31.27253,0.68496],[31.21481,0.63457],[31.2547,0.60647],[31.24763,0.5302],[31.14158,0.51088],[31.14074,0.45537],[31.1131,0.41461],[31.13874,0.34051],[31.02247,0.23073],[31.01238,0.19474],[31.05606,0.1195],[31.04205,0.08818],[31.0586,0.02092],[31.02572,-0.03336],[31.07488,-0.02116],[31.09782,-0.05166],[31.07329,-0.27112],[31.15222,-0.43811],[31.15206,-0.51679],[31.09029,-0.66215],[31.19903,-0.75488],[31.19271,-0.81797],[31.22692,-0.84479],[31.20276,-0.88501],[31.27011,-0.94697],[31.26986,-1],[31.78789,-0.99941],[31.76841,-0.96394],[31.78186,-0.9457],[31.76438,-0.92005],[31.77313,-0.87648],[31.73254,-0.8498],[31.71262,-0.86765],[31.69752,-0.80861],[31.72567,-0.74579],[31.80841,-0.64692],[31.78335,-0.62941],[31.78678,-0.59199],[31.84137,-0.49655],[31.96389,-0.38252],[32.01085,-0.30632],[32.03329,-0.3009],[32.04488,-0.32453],[32.03294,-0.27837],[31.98762,-0.24765],[31.99071,-0.20284],[31.96462,-0.17572],[31.93201,-0.21434],[31.9454,-0.27545],[31.91381,-0.27992],[31.90454,-0.26035],[31.92102,-0.24044],[31.91563,-0.16568],[31.94396,-0.14624],[31.92253,-0.14833],[31.92397,-0.13405],[31.99243,-0.09008],[32.08359,-0.08837],[32.0521,-0.05645],[32.02814,-0.07278],[32.02357,-0.04083],[32.09199,-0.02536],[32.16255,-0.07669],[32.20254,-0.07617],[32.22486,-0.0324],[32.20907,-0.01884],[32.22091,0.04365],[32.21302,0.00794],[32.24992,-0.0039],[32.26795,-0.03806],[32.30794,-0.00013],[32.26898,0.03197],[32.24134,0.02116],[32.26572,0.03609],[32.23293,0.05601],[32.32675,0.01413],[32.36966,0.01962],[32.37722,-0.00853],[32.37979,0.05962],[32.35284,0.06717],[32.37778,0.09283],[32.3956,0.09305],[32.40187,0.0668],[32.43314,0.08092],[32.45136,0.12093],[32.46297,0.09884],[32.41134,0.04795],[32.43897,0.01917],[32.48461,0.05283],[32.48819,0.08769],[32.50382,0.05256],[32.53208,0.05552],[32.52537,0.08797],[32.55983,0.06027],[32.54979,0.04076],[32.57631,0.04292],[32.54653,0.11497],[32.58327,0.08881],[32.57106,0.1281],[32.59843,0.14072],[32.55454,0.15008],[32.5789,0.16472],[32.56744,0.19719],[32.6172,0.19698],[32.61764,0.22643],[32.64149,0.24362],[32.63765,0.28816],[32.66244,0.28638],[32.66352,0.30062],[32.66899,0.25051],[32.64115,0.22811],[32.65837,0.21302],[32.68689,0.22321],[32.65308,0.16879],[32.68998,0.16261],[32.719,0.20158],[32.74698,0.17514],[32.73324,0.14545],[32.71728,0.1518],[32.72516,0.13879],[32.64607,0.1174],[32.67145,0.1118],[32.66012,0.07987],[32.67711,0.09755],[32.68192,0.08056],[32.68724,0.09738],[32.70185,0.08804],[32.72758,0.11953],[32.7408,0.10699],[32.75161,0.12982],[32.7868,0.11609],[32.80414,0.15369],[32.85718,0.13412],[32.84499,0.18098],[32.86817,0.16433],[32.87401,0.19815],[32.8934,0.18819],[32.88485,0.1726],[32.90284,0.17411],[32.88122,0.14545],[32.89872,0.13103],[32.87332,0.11815],[32.89666,0.10837],[32.89632,0.07043],[32.96516,0.08039],[33.00773,0.10871],[32.99784,0.12415],[33.01494,0.11163],[33.0388,0.13051],[33.02678,0.14064],[33.05202,0.13532],[33.04653,0.14957],[33.09305,0.1863],[33.10043,0.2093],[33.04155,0.22664],[33.07348,0.23763],[33.06249,0.25359],[33.11124,0.25256],[33.1248,0.24346],[33.10592,0.21274],[33.12841,0.21514],[33.12961,0.24827],[33.15587,0.25788],[33.14317,0.302],[33.27346,0.37976],[33.19151,0.40528],[33.18171,0.45395],[33.04993,0.59805],[33.04772,0.76755],[33.00079,0.87991],[32.94628,0.94569],[32.93175,1.00829],[32.95419,1.14039],[32.94328,1.19943],[32.8987,1.28238],[32.84205,1.32263],[32.81953,1.47773],[32.62462,1.44072],[32.56177,1.51793],[32.50974,1.52436],[32.40993,1.59311],[32.32433,1.62259],[32.28391,1.6629],[32.18793,1.67749],[32.099,1.64922],[32.09484,1.65093]]]]}},{"type":"Feature","properties":{"shapeName":"Western Region","shapeISO":"UG-W","shapeID":"17295835B91329899113986"},"geometry":{"type":"Polygon","coordinates":[[[31.35819,2.24848],[31.41039,2.04509],[31.41608,1.92384],[31.37014,1.82443],[31.33621,1.81551],[31.32139,1.83149],[31.32126,1.76383],[31.29857,1.70974],[31.14521,1.58733],[31.07607,1.5885],[31.01004,1.53276],[30.95387,1.54149],[30.91796,1.4498],[30.73345,1.24696],[30.72079,1.18315],[30.63957,1.09466],[30.61893,1.04286],[30.58557,1.03173],[30.60113,1.02295],[30.55408,1.0382],[30.53567,0.99827],[30.54557,1.05802],[30.51248,1.02786],[30.49734,1.03543],[30.48942,1.05405],[30.50641,1.05067],[30.51461,1.08655],[30.48113,1.16874],[30.45076,1.19242],[30.49556,1.20716],[30.39027,1.18759],[30.35996,1.20166],[30.3377,1.15008],[30.29153,1.17273],[30.23736,1.13408],[30.24378,1.10633],[30.22053,1.05416],[30.23421,1.00084],[30.18419,0.96359],[30.19528,0.95575],[30.18044,0.95404],[30.15545,0.88609],[30.07326,0.88406],[29.98984,0.84691],[29.97347,0.81453],[29.97791,0.74451],[29.9542,0.6399],[29.97983,0.51651],[29.87241,0.38804],[29.82374,0.17177],[29.76947,0.16324],[29.71629,0.07333],[29.74521,-0.02944],[29.73194,-0.07833],[29.75825,-0.07589],[29.78728,-0.1317],[29.80772,-0.12021],[29.83034,-0.17156],[29.85884,-0.1657],[29.86516,-0.14008],[29.91318,-0.15046],[29.8856,-0.18752],[29.89005,-0.25802],[29.85736,-0.31614],[29.86504,-0.33097],[29.80222,-0.39578],[29.68592,-0.44942],[29.6744,-0.53834],[29.65623,-0.54164],[29.66347,-0.62548],[29.62494,-0.72358],[29.63826,-0.90053],[29.58189,-0.90689],[29.60234,-0.98122],[29.58685,-0.98306],[29.57343,-1.18627],[29.60858,-1.22161],[29.59116,-1.3877],[29.67764,-1.38307],[29.73166,-1.34076],[29.79686,-1.37324],[29.82456,-1.3088],[29.86149,-1.36095],[29.88445,-1.35589],[29.89352,-1.45166],[29.92619,-1.48131],[29.99612,-1.44778],[30.02178,-1.4129],[30.05374,-1.43113],[30.05228,-1.40102],[30.08131,-1.37317],[30.12245,-1.38425],[30.12887,-1.36327],[30.16993,-1.34517],[30.16967,-1.27442],[30.21086,-1.27646],[30.29236,-1.1893],[30.30705,-1.1451],[30.34453,-1.13211],[30.35195,-1.06263],[30.42746,-1.06464],[30.44779,-1.04741],[30.52751,-1.07596],[30.64901,-1.06584],[30.69763,-1.01577],[30.76533,-0.98551],[30.79964,-1],[31.26986,-1],[31.27011,-0.94697],[31.20276,-0.88501],[31.22692,-0.84479],[31.19271,-0.81797],[31.19903,-0.75488],[31.09029,-0.66215],[31.15206,-0.51679],[31.15222,-0.43811],[31.07329,-0.27112],[31.09782,-0.05166],[31.07488,-0.02116],[31.02572,-0.03336],[31.0586,0.02092],[31.04205,0.08818],[31.05606,0.1195],[31.01238,0.19474],[31.02247,0.23073],[31.13874,0.34051],[31.1131,0.41461],[31.14074,0.45537],[31.14158,0.51088],[31.24763,0.5302],[31.2547,0.60647],[31.21481,0.63457],[31.27253,0.68496],[31.28787,0.74254],[31.38205,0.71015],[31.408,0.74787],[31.40366,0.80401],[31.44424,0.82808],[31.45395,0.89529],[31.43196,0.95103],[31.52692,1.01627],[31.51243,1.04994],[31.42542,1.12545],[31.41676,1.16028],[31.37734,1.16064],[31.29169,1.21215],[31.32071,1.24089],[31.36823,1.24161],[31.39221,1.27036],[31.4486,1.27693],[31.4585,1.30536],[31.53182,1.36475],[31.73803,1.32586],[31.8362,1.36529],[31.91146,1.45078],[31.97442,1.46883],[31.97114,1.5069],[32.00011,1.54559],[32.04496,1.54515],[32.08904,1.59388],[32.10648,1.74192],[32.16556,1.77962],[32.2712,1.80944],[32.27822,1.83982],[32.34048,1.85739],[32.34161,1.92606],[32.36291,1.95242],[32.33383,1.96133],[32.35202,2.07715],[32.31805,2.14331],[32.31614,2.19755],[32.28188,2.24186],[32.25816,2.25655],[32.18849,2.21972],[32.14775,2.22427],[32.05251,2.28522],[32.02489,2.27924],[32.01236,2.3092],[31.91771,2.36827],[31.83249,2.3719],[31.74133,2.29778],[31.64668,2.25856],[31.569,2.287],[31.46613,2.22992],[31.3707,2.24903],[31.35819,2.24848]]]}}]}
